{"type":"FeatureCollection","features":[{"type":"Feature","id":"-444_0","properties":{"featureType":"lane","edgeId":"-444","laneId":"-444_0","speed":13.89},"geometry":{"type":"LineString","coordinates":[[120.2943779188537,23.10585999985527],[120.29437967603917,23.105860812342918]]}},{"type":"Feature","id":"-444_1","properties":{"featureType":"lane","edgeId":"-444","laneId":"-444_1","speed":13.89},"geometry":{"type":"LineString","coordinates":[[120.29436054773636,23.105896301142938],[120.29436230492219,23.105897113630775]]}},{"type":"Feature","id":"-444_2","properties":{"featureType":"lane","edgeId":"-444","laneId":"-444_2","speed":13.89},"geometry":{"type":"LineString","coordinates":[[120.29434659227074,23.10592537829664],[120.29434834945684,23.10592619078463]]}},{"type":"Feature","id":"-444_3","properties":{"featureType":"lane","edgeId":"-444","laneId":"-444_3","speed":13.89},"geometry":{"type":"LineString","coordinates":[[120.29433312476681,23.10595355242609],[120.29433488195322,23.105954364914222]]}},{"type":"Feature","id":"-444_4","properties":{"featureType":"lane","edgeId":"-444","laneId":"-444_4","speed":13.89},"geometry":{"type":"LineString","coordinates":[[120.29432121869871,23.10597838539549],[120.29432287826948,23.10597919789408]]}},{"type":"Feature","id":"-444777_0","properties":{"featureType":"lane","edgeId":"-444777","laneId":"-444777_0","speed":13.89},"geometry":{"type":"LineString","coordinates":[[120.29425437066199,23.106131536375845],[120.29425251587998,23.10613090449137]]}},{"type":"Feature","id":"-444777_1","properties":{"featureType":"lane","edgeId":"-444777","laneId":"-444777_1","speed":13.89},"geometry":{"type":"LineString","coordinates":[[120.29426734993099,23.106101827254097],[120.2942654951382,23.106101105072643]]}},{"type":"Feature","id":"-444777_2","properties":{"featureType":"lane","edgeId":"-444777","laneId":"-444777_2","speed":13.89},"geometry":{"type":"LineString","coordinates":[[120.29428023161171,23.10607238903284],[120.29427837681926,23.10607166685153]]}},{"type":"Feature","id":"-444777_3","properties":{"featureType":"lane","edgeId":"-444777","laneId":"-444777_3","speed":13.89},"geometry":{"type":"LineString","coordinates":[[120.29429311328683,23.106042950810426],[120.29429125850587,23.106042318926388]]}},{"type":"Feature","id":"-444777_4","properties":{"featureType":"lane","edgeId":"-444777","laneId":"-444777_4","speed":13.89},"geometry":{"type":"LineString","coordinates":[[120.29430589736272,23.10601369319142],[120.29430414018687,23.10601297100009]]}},{"type":"Feature","id":"-446_0","properties":{"featureType":"lane","edgeId":"-446","laneId":"-446_0","speed":13.89},"geometry":{"type":"LineString","coordinates":[[120.29459570968437,23.105939167171133],[120.29459746686081,23.10593988935922]]}},{"type":"Feature","id":"-446_1","properties":{"featureType":"lane","edgeId":"-446","laneId":"-446_1","speed":13.89},"geometry":{"type":"LineString","coordinates":[[120.2945777531467,23.10597727448777],[120.29457951032354,23.105977996676053]]}},{"type":"Feature","id":"-446_2","properties":{"featureType":"lane","edgeId":"-446","laneId":"-446_2","speed":13.89},"geometry":{"type":"LineString","coordinates":[[120.29456389538069,23.10600671283838],[120.29456565255785,23.106007435026815]]}},{"type":"Feature","id":"-446_3","properties":{"featureType":"lane","edgeId":"-446","laneId":"-446_3","speed":13.89},"geometry":{"type":"LineString","coordinates":[[120.29455130628774,23.106033532435],[120.29455306346519,23.106034254623566]]}},{"type":"Feature","id":"-446_4","properties":{"featureType":"lane","edgeId":"-446","laneId":"-446_4","speed":13.89},"geometry":{"type":"LineString","coordinates":[[120.2945394003206,23.106058907203327],[120.29454115749832,23.10605962939203]]}},{"type":"Feature","id":"-446777_0","properties":{"featureType":"lane","edgeId":"-446777","laneId":"-446777_0","speed":13.89},"geometry":{"type":"LineString","coordinates":[[120.2944944151978,23.106185689179497],[120.29449138896499,23.1061846059374]]}},{"type":"Feature","id":"-446777_1","properties":{"featureType":"lane","edgeId":"-446777","laneId":"-446777_1","speed":13.89},"geometry":{"type":"LineString","coordinates":[[120.29450710163883,23.10615652185229],[120.29450397777921,23.106155348323746]]}},{"type":"Feature","id":"-446777_2","properties":{"featureType":"lane","edgeId":"-446777","laneId":"-446777_2","speed":13.89},"geometry":{"type":"LineString","coordinates":[[120.29451988565647,23.106127083622148],[120.29451676180874,23.106126000390972]]}},{"type":"Feature","id":"-446777_3","properties":{"featureType":"lane","edgeId":"-446777","laneId":"-446777_3","speed":13.89},"geometry":{"type":"LineString","coordinates":[[120.29453257206389,23.10609773569844],[120.29452944820541,23.106096562170386]]}},{"type":"Feature","id":"-447_0","properties":{"featureType":"lane","edgeId":"-447","laneId":"-447_0","speed":13.89},"geometry":{"type":"LineString","coordinates":[[120.29449174411343,23.1059017953038],[120.29450365379931,23.105906218590004]]}},{"type":"Feature","id":"-447_1","properties":{"featureType":"lane","edgeId":"-447","laneId":"-447_1","speed":13.89},"geometry":{"type":"LineString","coordinates":[[120.29447544697615,23.105939541243174],[120.29448725903768,23.105943874243888]]}},{"type":"Feature","id":"-447_2","properties":{"featureType":"lane","edgeId":"-447","laneId":"-447_2","speed":13.89},"geometry":{"type":"LineString","coordinates":[[120.29446266296652,23.105968979470422],[120.2944744750415,23.105973402769195]]}},{"type":"Feature","id":"-447_3","properties":{"featureType":"lane","edgeId":"-447","laneId":"-447_3","speed":13.89},"geometry":{"type":"LineString","coordinates":[[120.29445056206028,23.105996792275445],[120.2944624717532,23.106001215564696]]}},{"type":"Feature","id":"-447_4","properties":{"featureType":"lane","edgeId":"-447","laneId":"-447_4","speed":13.89},"geometry":{"type":"LineString","coordinates":[[120.29443953465452,23.1060224378341],[120.2944513467334,23.10602686113457]]}},{"type":"Feature","id":"-447777_0","properties":{"featureType":"lane","edgeId":"-447777","laneId":"-447777_0","speed":13.89},"geometry":{"type":"LineString","coordinates":[[120.29436595221941,23.106183626022013],[120.29436409743617,23.10618299413884]]}},{"type":"Feature","id":"-447777_1","properties":{"featureType":"lane","edgeId":"-447777","laneId":"-447777_1","speed":13.89},"geometry":{"type":"LineString","coordinates":[[120.29438312782646,23.106144796436336],[120.29438137064848,23.106144074245886]]}},{"type":"Feature","id":"-447777_2","properties":{"featureType":"lane","edgeId":"-447777","laneId":"-447777_2","speed":13.89},"geometry":{"type":"LineString","coordinates":[[120.29439620471803,23.10611535818506],[120.29439434993559,23.10611472630224]]}},{"type":"Feature","id":"-447777_3","properties":{"featureType":"lane","edgeId":"-447777","laneId":"-447777_3","speed":13.89},"geometry":{"type":"LineString","coordinates":[[120.29440918399914,23.106086010240094],[120.29440732921705,23.106085378357434]]}},{"type":"Feature","id":"-447777_4","properties":{"featureType":"lane","edgeId":"-447777","laneId":"-447777_4","speed":13.89},"geometry":{"type":"LineString","coordinates":[[120.29442206568113,23.106056842898592],[120.29442030850407,23.106056120708562]]}},{"type":"Feature","id":"-448#0_0","properties":{"featureType":"lane","edgeId":"-448#0","laneId":"-448#0_0","speed":13.89},"geometry":{"type":"LineString","coordinates":[[120.29411112089204,23.105745802078005],[120.29412019960719,23.105749503311852],[120.29416744828774,23.10577125997542],[120.29421782089875,23.105794731941874],[120.29427854134589,23.10582262736008],[120.29428039615719,23.105823530135662]]}},{"type":"Feature","id":"-448#0_1","properties":{"featureType":"lane","edgeId":"-448#0","laneId":"-448#0_1","speed":13.89},"geometry":{"type":"LineString","coordinates":[[120.29409384727835,23.10578165184105],[120.29410204742052,23.105785082276196],[120.29414841751341,23.105806387551425],[120.29419888775004,23.10582985951359],[120.29425960822019,23.105857845236077],[120.29426117016214,23.105858567448497]]}},{"type":"Feature","id":"-448#0_2","properties":{"featureType":"lane","edgeId":"-448#0","laneId":"-448#0_2","speed":13.89},"geometry":{"type":"LineString","coordinates":[[120.2940798917561,23.105810638674487],[120.29408740855622,23.10581379829023],[120.29413309530194,23.105834742452632],[120.29418346793068,23.105858214429855],[120.29424428602623,23.105886200147886],[120.29424565272566,23.105886832083883]]}},{"type":"Feature","id":"-448#0_3","properties":{"featureType":"lane","edgeId":"-448#0","laneId":"-448#0_3","speed":13.89},"geometry":{"type":"LineString","coordinates":[[120.29406603385466,23.10583971579355],[120.29407286730148,23.10584251429263],[120.29411767547923,23.105863187659583],[120.29416814573176,23.105886659631402],[120.29422896383694,23.10591464535523],[120.29423013529377,23.10591518701477]]}},{"type":"Feature","id":"-448#0_4","properties":{"featureType":"lane","edgeId":"-448#0","laneId":"-448#0_4","speed":13.89},"geometry":{"type":"LineString","coordinates":[[120.29405549401741,23.10586165909291],[120.29406174174825,23.105864277059176],[120.29410606181932,23.105884679588808],[120.29415653207786,23.105908151564268],[120.29421735017922,23.105936046995375],[120.29421842402034,23.105936588665248]]}},{"type":"Feature","id":"-448#1_0","properties":{"featureType":"lane","edgeId":"-448#1","laneId":"-448#1_0","speed":13.89},"geometry":{"type":"LineString","coordinates":[[120.29430929125571,23.105830209071705],[120.29432500830262,23.10583752147705],[120.29433242752766,23.105840951982813],[120.29435038983006,23.10584898652498]]}},{"type":"Feature","id":"-448#1_1","properties":{"featureType":"lane","edgeId":"-448#1","laneId":"-448#1_1","speed":13.89},"geometry":{"type":"LineString","coordinates":[[120.29429016289419,23.105865336674842],[120.29430587994413,23.105872649082055],[120.29431368965626,23.10587626014167],[120.29433184720504,23.105884384962398]]}},{"type":"Feature","id":"-448#1_2","properties":{"featureType":"lane","edgeId":"-448#1","laneId":"-448#1_2","speed":13.89},"geometry":{"type":"LineString","coordinates":[[120.29427474311223,23.10589387219413],[120.29429046015353,23.10590109430573],[120.29429866035257,23.1059048859191],[120.29431691553131,23.105913101028325]]}},{"type":"Feature","id":"-448#1_3","properties":{"featureType":"lane","edgeId":"-448#1","laneId":"-448#1_3","speed":13.89},"geometry":{"type":"LineString","coordinates":[[120.2942597136871,23.10592159499654],[120.29427543074195,23.10592890740673],[120.29428382619626,23.105932879594516],[120.29430217899376,23.105941094695112]]}},{"type":"Feature","id":"-448#1_4","properties":{"featureType":"lane","edgeId":"-448#1","laneId":"-448#1_4","speed":13.89},"geometry":{"type":"LineString","coordinates":[[120.29424663612892,23.105945705706862],[120.29426235318584,23.105953018118335],[120.29427104150007,23.10595708057304],[120.29428949191598,23.105965295664795]]}},{"type":"Feature","id":"-448777_0","properties":{"featureType":"lane","edgeId":"-448777","laneId":"-448777_0","speed":13.89},"geometry":{"type":"LineString","coordinates":[[120.29422977039502,23.106123141332965],[120.29421551780402,23.10611781530124],[120.29416690282407,23.10609976097836],[120.29413888578819,23.106089560336788],[120.29406440139945,23.106061666299873],[120.29402769612079,23.106047854658076],[120.29400251009987,23.10603873726353],[120.29398191220635,23.10603106414359]]}},{"type":"Feature","id":"-448777_1","properties":{"featureType":"lane","edgeId":"-448777","laneId":"-448777_1","speed":13.89},"geometry":{"type":"LineString","coordinates":[[120.29424265205265,23.106093432223474],[120.29422830185939,23.10608819650028],[120.2941796868884,23.10607014218127],[120.29415176747365,23.106059941531697],[120.29407738071454,23.106032047490576],[120.29404048021075,23.106018235872057],[120.29401519656761,23.106009028192517],[120.29399479392069,23.10600144535108]]}},{"type":"Feature","id":"-448777_2","properties":{"featureType":"lane","edgeId":"-448777","laneId":"-448777_2","speed":13.89},"geometry":{"type":"LineString","coordinates":[[120.29425543611087,23.10606390371736],[120.29424118352513,23.10605857768791],[120.29419237333117,23.10604052339328],[120.29416455154859,23.106030413032816],[120.29409026241903,23.106002518987413],[120.2940532642951,23.105988617084886],[120.29402788304074,23.105979409417504],[120.29400767564033,23.105971916854546]]}},{"type":"Feature","id":"-448777_3","properties":{"featureType":"lane","edgeId":"-448777","laneId":"-448777_3","speed":13.89},"geometry":{"type":"LineString","coordinates":[[120.29426831775721,23.106034194605556],[120.29425396755813,23.10602886858753],[120.29420525497808,23.106010723989407],[120.29417753082765,23.106000703918063],[120.29410333932765,23.10597280986847],[120.29406614597875,23.105958907989287],[120.29404066711322,23.105949700334087],[120.2940205573324,23.10594220776259]]}},{"type":"Feature","id":"-448777_4","properties":{"featureType":"lane","edgeId":"-448777","laneId":"-448777_4","speed":13.89},"geometry":{"type":"LineString","coordinates":[[120.2942811017931,23.10600457580002],[120.29426684921258,23.105999249772854],[120.29421794142075,23.105981195496273],[120.29419041249616,23.105971085109502],[120.29411622102083,23.10594328136298],[120.29407893005187,23.10592928919982],[120.29405335357521,23.105920081556814],[120.29403343902982,23.105912588966607]]}},{"type":"Feature","id":"-449_0","properties":{"featureType":"lane","edgeId":"-449","laneId":"-449_0","speed":13.89},"geometry":{"type":"LineString","coordinates":[[120.29453079220289,23.105915787181285],[120.29457149990606,23.10593086243643]]}},{"type":"Feature","id":"-449_1","properties":{"featureType":"lane","edgeId":"-449","laneId":"-449_1","speed":13.89},"geometry":{"type":"LineString","coordinates":[[120.29451449510869,23.10595380401599],[120.29455510519429,23.10596878898862]]}},{"type":"Feature","id":"-449_2","properties":{"featureType":"lane","edgeId":"-449","laneId":"-449_2","speed":13.89},"geometry":{"type":"LineString","coordinates":[[120.2945017111288,23.105983422840588],[120.29454222361731,23.10599849812402]]}},{"type":"Feature","id":"-449_3","properties":{"featureType":"lane","edgeId":"-449","laneId":"-449_3","speed":13.89},"geometry":{"type":"LineString","coordinates":[[120.29448980544989,23.10601114533057],[120.29453031793408,23.10602613031988]]}},{"type":"Feature","id":"-449_4","properties":{"featureType":"lane","edgeId":"-449","laneId":"-449_4","speed":13.89},"geometry":{"type":"LineString","coordinates":[[120.29447887566634,23.106036790881493],[120.2945191929251,23.106051775894453]]}},{"type":"Feature","id":"-449777_0","properties":{"featureType":"lane","edgeId":"-449777","laneId":"-449777_0","speed":13.89},"geometry":{"type":"LineString","coordinates":[[120.29446425046515,23.106174676151205],[120.29445331697352,23.10617070424374],[120.29444853356269,23.106168898811152]]}},{"type":"Feature","id":"-449777_1","properties":{"featureType":"lane","edgeId":"-449777","laneId":"-449777_1","speed":13.89},"geometry":{"type":"LineString","coordinates":[[120.2944768392731,23.106145328242558],[120.29446610102676,23.106141446612245],[120.29446151284883,23.10613964115921]]}},{"type":"Feature","id":"-449777_2","properties":{"featureType":"lane","edgeId":"-449777","laneId":"-449777_2","speed":13.89},"geometry":{"type":"LineString","coordinates":[[120.29448952569156,23.106115980322375],[120.2944788850519,23.106112008385356],[120.29447458974532,23.106110383495675]]}},{"type":"Feature","id":"-449777_3","properties":{"featureType":"lane","edgeId":"-449777","laneId":"-449777_3","speed":13.89},"geometry":{"type":"LineString","coordinates":[[120.29450211447725,23.10608654211437],[120.29449166908277,23.106082660454454],[120.29448756902019,23.10608112584138]]}},{"type":"Feature","id":"-451_0","properties":{"featureType":"lane","edgeId":"-451","laneId":"-451_0","speed":13.89},"geometry":{"type":"LineString","coordinates":[[120.29462850131448,23.106656574277316],[120.29463132595934,23.106607091152213],[120.29463415143223,23.106564199716342]]}},{"type":"Feature","id":"-451_1","properties":{"featureType":"lane","edgeId":"-451","laneId":"-451_1","speed":13.89},"geometry":{"type":"LineString","coordinates":[[120.29468228827587,23.10665918709066],[120.29468501530752,23.106609884569405],[120.29468784078625,23.106567173726845]]}},{"type":"Feature","id":"-451222_0","properties":{"featureType":"lane","edgeId":"-451222","laneId":"-451222_0","speed":13.89},"geometry":{"type":"LineString","coordinates":[[120.29463592424281,23.106688990142835],[120.29463621651205,23.106684384958342]]}},{"type":"Feature","id":"-451222_1","properties":{"featureType":"lane","edgeId":"-451222","laneId":"-451222_1","speed":13.89},"geometry":{"type":"LineString","coordinates":[[120.29468541602658,23.106691061635214],[120.29468561067769,23.106686456461176]]}},{"type":"Feature","id":"-451333_0","properties":{"featureType":"lane","edgeId":"-451333","laneId":"-451333_0","speed":13.89},"geometry":{"type":"LineString","coordinates":[[120.2947897659196,23.10667488713849],[120.29478947536542,23.106692946593608]]}},{"type":"Feature","id":"-451333_1","properties":{"featureType":"lane","edgeId":"-451333","laneId":"-451333_1","speed":13.89},"geometry":{"type":"LineString","coordinates":[[120.29474779079769,23.106674349914634],[120.2947475002379,23.10669240936968]]}},{"type":"Feature","id":"-454_0","properties":{"featureType":"lane","edgeId":"-454","laneId":"-454_0","speed":13.89},"geometry":{"type":"LineString","coordinates":[[120.2945334784376,23.10632004711852],[120.29453035424623,23.10631625497402],[120.2945261560515,23.106310657002016],[120.29452303184928,23.10630677456025],[120.29451971239237,23.106302711545062],[120.29451649056307,23.1062987388165],[120.29451297584043,23.106294404930697],[120.29451004691636,23.106290883656257],[120.29450721563113,23.106287542965568],[120.29450184596585,23.106281313038323],[120.29449979576792,23.106279236423696],[120.29449462143704,23.106273819149422],[120.2944921807636,23.106271652279304],[120.29448720174445,23.106266867063763],[120.29443047958407,23.106208992657056],[120.29442813650643,23.10620664518129],[120.29442696497885,23.106205561740513],[120.29442432903068,23.106203033701615],[120.29442188833717,23.10620068623614],[120.29441925240039,23.106198248494273],[120.29441671409101,23.106195901039108],[120.294414273409,23.106193643870636],[120.29441163749495,23.106191386722887],[120.29440900158099,23.106189129575093],[120.29440626805106,23.10618687243763],[120.29440353452125,23.106184615300126],[120.29440080100271,23.106182448459688],[120.29439806747305,23.106180191322082],[120.29439543159317,23.10617820506543],[120.29439269808614,23.106176128521977],[120.29438986695193,23.106173961691717],[120.29438820733354,23.106172788005363]]}},{"type":"Feature","id":"-455_0","properties":{"featureType":"lane","edgeId":"-455","laneId":"-455_0","speed":13.89},"geometry":{"type":"LineString","coordinates":[[120.29464389116238,23.10639037671048],[120.29464398855102,23.10638857075756]]}},{"type":"Feature","id":"-455_1","properties":{"featureType":"lane","edgeId":"-455","laneId":"-455_1","speed":13.89},"geometry":{"type":"LineString","coordinates":[[120.2946784474102,23.10639127595219],[120.29467854479837,23.106389469999243]]}},{"type":"Feature","id":"-455_2","properties":{"featureType":"lane","edgeId":"-455","laneId":"-455_2","speed":13.89},"geometry":{"type":"LineString","coordinates":[[120.29470909898771,23.106391995014732],[120.29470909875927,23.10639018907234]]}},{"type":"Feature","id":"-455777_0","properties":{"featureType":"lane","edgeId":"-455777","laneId":"-455777_0","speed":13.89},"geometry":{"type":"LineString","coordinates":[[120.29479969057434,23.10642151234256],[120.29479852473655,23.106465216275666],[120.29479706953914,23.106536370564314],[120.29479648665388,23.10655849342192]]}},{"type":"Feature","id":"-455777_1","properties":{"featureType":"lane","edgeId":"-455777","laneId":"-455777_1","speed":13.89},"geometry":{"type":"LineString","coordinates":[[120.29475586077717,23.106420614134105],[120.29475469493666,23.106464408364012],[120.29475323971619,23.106535562652283],[120.29475275441715,23.106557504904902]]}},{"type":"Feature","id":"-478_0","properties":{"featureType":"lane","edgeId":"-478","laneId":"-478_0","speed":13.89},"geometry":{"type":"LineString","coordinates":[[120.2949886331246,23.106091275095103],[120.2949977118173,23.106094434495542],[120.2950005428202,23.10609551774943]]}},{"type":"Feature","id":"-478_1","properties":{"featureType":"lane","edgeId":"-478","laneId":"-478_1","speed":13.89},"geometry":{"type":"LineString","coordinates":[[120.29497477595845,23.10612477685183],[120.29498375703709,23.106127936263785],[120.29498649041295,23.106128929231538]]}},{"type":"Feature","id":"-478_2","properties":{"featureType":"lane","edgeId":"-478","laneId":"-478_2","speed":13.89},"geometry":{"type":"LineString","coordinates":[[120.29496238260862,23.106155027749985],[120.29497116844531,23.106158096886965],[120.29497390182172,23.10615908985493]]}},{"type":"Feature","id":"-478_3","properties":{"featureType":"lane","edgeId":"-478","laneId":"-478_3","speed":13.89},"geometry":{"type":"LineString","coordinates":[[120.29494989163719,23.106185278657765],[120.29495857985953,23.10618834780615],[120.29496131323644,23.10618934077433]]}},{"type":"Feature","id":"-478777_0","properties":{"featureType":"lane","edgeId":"-478777","laneId":"-478777_0","speed":13.89},"geometry":{"type":"LineString","coordinates":[[120.29489583249399,23.10634285306029],[120.29489319674215,23.106341950377438],[120.2948859728115,23.106339332551013]]}},{"type":"Feature","id":"-478777_1","properties":{"featureType":"lane","edgeId":"-478777","laneId":"-478777_1","speed":13.89},"geometry":{"type":"LineString","coordinates":[[120.2949112512598,23.106307003415225],[120.29490851788088,23.106306010446193],[120.29490090347578,23.10630330236608]]}},{"type":"Feature","id":"-478777_2","properties":{"featureType":"lane","edgeId":"-478777","laneId":"-478777_2","speed":13.89},"geometry":{"type":"LineString","coordinates":[[120.2949230592968,23.106279551796586],[120.29492013067456,23.106278468552027],[120.29491232103855,23.106275760493837]]}},{"type":"Feature","id":"-478777_3","properties":{"featureType":"lane","edgeId":"-478777","laneId":"-478777_3","speed":13.89},"geometry":{"type":"LineString","coordinates":[[120.29493496491041,23.106251829274903],[120.29493193867258,23.106250746041262],[120.29492393379418,23.106247947707924]]}},{"type":"Feature","id":"-478777_4","properties":{"featureType":"lane","edgeId":"-478777","laneId":"-478777_4","speed":13.89},"geometry":{"type":"LineString","coordinates":[[120.29494628499637,23.10622546127332],[120.29494316113136,23.10622428775348],[120.29493486339452,23.10622139915569]]}},{"type":"Feature","id":"-484_0","properties":{"featureType":"lane","edgeId":"-484","laneId":"-484_0","speed":13.89},"geometry":{"type":"LineString","coordinates":[[120.2950293408968,23.1061060793404],[120.29507600356904,23.106123320939293]]}},{"type":"Feature","id":"-484_1","properties":{"featureType":"lane","edgeId":"-484","laneId":"-484_1","speed":13.89},"geometry":{"type":"LineString","coordinates":[[120.29501499561265,23.10613921996591],[120.2950616582945,23.106156461568972]]}},{"type":"Feature","id":"-484_2","properties":{"featureType":"lane","edgeId":"-484","laneId":"-484_2","speed":13.89},"geometry":{"type":"LineString","coordinates":[[120.29500201653943,23.106169200040277],[120.29504867923,23.1061864416471]]}},{"type":"Feature","id":"-484_3","properties":{"featureType":"lane","edgeId":"-484","laneId":"-484_3","speed":13.89},"geometry":{"type":"LineString","coordinates":[[120.29498903747205,23.10619927041059],[120.29503570017137,23.106216512021174]]}},{"type":"Feature","id":"-484777_0","properties":{"featureType":"lane","edgeId":"-484777","laneId":"-484777_0","speed":13.89},"geometry":{"type":"LineString","coordinates":[[120.29496934104745,23.10637074681092],[120.29492843794655,23.10635576197785],[120.2949227759426,23.106353685764617]]}},{"type":"Feature","id":"-484777_1","properties":{"featureType":"lane","edgeId":"-484777","laneId":"-484777_1","speed":13.89},"geometry":{"type":"LineString","coordinates":[[120.29498475977374,23.10633471656457],[120.29494385668202,23.106319731735415],[120.29493819467935,23.10631765552273]]}},{"type":"Feature","id":"-484777_2","properties":{"featureType":"lane","edgeId":"-484777","laneId":"-484777_2","speed":13.89},"geometry":{"type":"LineString","coordinates":[[120.2949966653795,23.10630699403843],[120.29495576229489,23.106292009212307],[120.29495010029319,23.106289933000042]]}},{"type":"Feature","id":"-484777_3","properties":{"featureType":"lane","edgeId":"-484777","laneId":"-484777_3","speed":13.89},"geometry":{"type":"LineString","coordinates":[[120.2950084733643,23.106279271522048],[120.29496757029835,23.10626437699605],[120.29496190828606,23.10626221048708]]}},{"type":"Feature","id":"-484777_4","properties":{"featureType":"lane","edgeId":"-484777","laneId":"-484777_4","speed":13.89},"geometry":{"type":"LineString","coordinates":[[120.2950198910194,23.106252632613174],[120.29497898794867,23.106237647792963],[120.29497332594889,23.106235571581507]]}},{"type":"Feature","id":"-485_0","properties":{"featureType":"lane","edgeId":"-485","laneId":"-485_0","speed":13.89},"geometry":{"type":"LineString","coordinates":[[120.29536086102401,23.10622956890445],[120.29539854267286,23.106243560720106],[120.29545408898183,23.106264413091242],[120.29548884201131,23.106277231353435]]}},{"type":"Feature","id":"-485_1","properties":{"featureType":"lane","edgeId":"-485","laneId":"-485_1","speed":13.89},"geometry":{"type":"LineString","coordinates":[[120.2953465157963,23.106262619262417],[120.29538419744101,23.106276520784313],[120.29543974376132,23.106297373160398],[120.29547469203021,23.106310191403615]]}},{"type":"Feature","id":"-485_2","properties":{"featureType":"lane","edgeId":"-485","laneId":"-485_2","speed":13.89},"geometry":{"type":"LineString","coordinates":[[120.29533373198157,23.10629232845027],[120.295371218401,23.106306229997106],[120.29542676473156,23.10632708237768],[120.29546190825114,23.106339990898782]]}},{"type":"Feature","id":"-485_3","properties":{"featureType":"lane","edgeId":"-485","laneId":"-485_3","speed":13.89},"geometry":{"type":"LineString","coordinates":[[120.29532085055692,23.10632212794504],[120.29535823936713,23.10633602950585],[120.29541378570795,23.106356881890907],[120.29544902686217,23.10636988070094]]}},{"type":"Feature","id":"-485777_0","properties":{"featureType":"lane","edgeId":"-485777","laneId":"-485777_0","speed":13.89},"geometry":{"type":"LineString","coordinates":[[120.2953823766634,23.10653459015984],[120.29536275492123,23.10652800067628],[120.29534264459015,23.106517528468984],[120.29530623151582,23.10650073728771],[120.29526357065583,23.10648123788267]]}},{"type":"Feature","id":"-485777_1","properties":{"featureType":"lane","edgeId":"-485777","laneId":"-485777_1","speed":13.89},"geometry":{"type":"LineString","coordinates":[[120.29539525771453,23.106501901153056],[120.29537856458336,23.106496214312912],[120.295360211479,23.10648673517848],[120.29532291981715,23.10646958291122],[120.29528035656905,23.10644999320257]]}},{"type":"Feature","id":"-485777_2","properties":{"featureType":"lane","edgeId":"-485777","laneId":"-485777_2","speed":13.89},"geometry":{"type":"LineString","coordinates":[[120.2954068701761,23.106472462984325],[120.29539271517754,23.106467588533786],[120.29537602167093,23.106459012185546],[120.29533804665374,23.106441498810163],[120.29529538579607,23.106421909116442]]}},{"type":"Feature","id":"-485777_3","properties":{"featureType":"lane","edgeId":"-485777","laneId":"-485777_3","speed":13.89},"geometry":{"type":"LineString","coordinates":[[120.29541897058293,23.1064420314913],[120.295407353728,23.106438059727118],[120.29539241743495,23.106430386153814],[120.29535366143473,23.106412421384423],[120.29531090297961,23.106392922002904]]}},{"type":"Feature","id":"-485777_4","properties":{"featureType":"lane","edgeId":"-485777","laneId":"-485777_4","speed":13.89},"geometry":{"type":"LineString","coordinates":[[120.29542785069668,23.106419546507073],[120.29541818625098,23.106416206603303],[120.29540451905366,23.106409164967907],[120.29536517733703,23.10639101967302],[120.29532241887519,23.106371429997445]]}},{"type":"Feature","id":"-486_0","properties":{"featureType":"lane","edgeId":"-486","laneId":"-486_0","speed":13.89},"geometry":{"type":"LineString","coordinates":[[120.29532737709884,23.1062172922544],[120.29533333196333,23.106219458717415]]}},{"type":"Feature","id":"-486_1","properties":{"featureType":"lane","edgeId":"-486","laneId":"-486_1","speed":13.89},"geometry":{"type":"LineString","coordinates":[[120.29531332472435,23.106250432873683],[120.29531927959007,23.10625259933722]]}},{"type":"Feature","id":"-486_2","properties":{"featureType":"lane","edgeId":"-486","laneId":"-486_2","speed":13.89},"geometry":{"type":"LineString","coordinates":[[120.29530073614754,23.106280232334157],[120.29530669101439,23.106282398798168]]}},{"type":"Feature","id":"-486_3","properties":{"featureType":"lane","edgeId":"-486","laneId":"-486_3","speed":13.89},"geometry":{"type":"LineString","coordinates":[[120.29528804996083,23.106310122101565],[120.29529400481701,23.10631219826892]]}},{"type":"Feature","id":"-486777_0","properties":{"featureType":"lane","edgeId":"-486777","laneId":"-486777_0","speed":13.89},"geometry":{"type":"LineString","coordinates":[[120.29521680977282,23.10646056506047],[120.29519611383613,23.106450634682385]]}},{"type":"Feature","id":"-486777_1","properties":{"featureType":"lane","edgeId":"-486777","laneId":"-486777_1","speed":13.89},"geometry":{"type":"LineString","coordinates":[[120.29523418142696,23.106429591211274],[120.29521348549376,23.106419660835428]]}},{"type":"Feature","id":"-486777_2","properties":{"featureType":"lane","edgeId":"-486777","laneId":"-486777_2","speed":13.89},"geometry":{"type":"LineString","coordinates":[[120.29524921082628,23.106402771289137],[120.29522851489608,23.10639284091523]]}},{"type":"Feature","id":"-486777_3","properties":{"featureType":"lane","edgeId":"-486777","laneId":"-486777_3","speed":13.89},"geometry":{"type":"LineString","coordinates":[[120.2952647282062,23.106375228933988],[120.29524403227911,23.10636529856207]]}},{"type":"Feature","id":"-486777_4","properties":{"featureType":"lane","edgeId":"-486777","laneId":"-486777_4","speed":13.89},"geometry":{"type":"LineString","coordinates":[[120.29527712255879,23.10635301445664],[120.29525642663415,23.10634308408632]]}},{"type":"Feature","id":"-491_0","properties":{"featureType":"lane","edgeId":"-491","laneId":"-491_0","speed":13.89},"geometry":{"type":"LineString","coordinates":[[120.29522555858226,23.106179288551296],[120.29524400890982,23.10618614907436],[120.29529799325525,23.10620655018932],[120.29530033614714,23.1062073626011]]}},{"type":"Feature","id":"-491_1","properties":{"featureType":"lane","edgeId":"-491","laneId":"-491_1","speed":13.89},"geometry":{"type":"LineString","coordinates":[[120.29521121333852,23.106212429194315],[120.29522946843773,23.106219289740793],[120.29528345279422,23.10623969086064],[120.29528608854667,23.106240593536988]]}},{"type":"Feature","id":"-491_2","properties":{"featureType":"lane","edgeId":"-491","laneId":"-491_2","speed":13.89},"geometry":{"type":"LineString","coordinates":[[120.29519823429008,23.106242318987395],[120.29521639175309,23.10624899895198],[120.29527037611946,23.10626940007622],[120.29527330474434,23.106270483314283]]}},{"type":"Feature","id":"-491_3","properties":{"featureType":"lane","edgeId":"-491","laneId":"-491_3","speed":13.89},"geometry":{"type":"LineString","coordinates":[[120.29518535282857,23.10627202817419],[120.29520341267879,23.10627870815111],[120.2952573970551,23.106299109279703],[120.29526052092456,23.10630028279331]]}},{"type":"Feature","id":"-492_0","properties":{"featureType":"lane","edgeId":"-492","laneId":"-492_0","speed":13.89},"geometry":{"type":"LineString","coordinates":[[120.29520095817584,23.106170351877136],[120.29520271534678,23.106170983761338]]}},{"type":"Feature","id":"-492_1","properties":{"featureType":"lane","edgeId":"-492","laneId":"-492_1","speed":13.89},"geometry":{"type":"LineString","coordinates":[[120.29518671054306,23.106203492507095],[120.29518856534217,23.10620421467771]]}},{"type":"Feature","id":"-492_2","properties":{"featureType":"lane","edgeId":"-492","laneId":"-492_2","speed":13.89},"geometry":{"type":"LineString","coordinates":[[120.29517392672223,23.106233382276493],[120.29517578150994,23.106234014150136]]}},{"type":"Feature","id":"-492_3","properties":{"featureType":"lane","edgeId":"-492","laneId":"-492_3","speed":13.89},"geometry":{"type":"LineString","coordinates":[[120.2951612404884,23.106263091439658],[120.2951629976721,23.10626381362141]]}},{"type":"Feature","id":"-492777_0","properties":{"featureType":"lane","edgeId":"-492777","laneId":"-492777_0","speed":13.89},"geometry":{"type":"LineString","coordinates":[[120.29505485654076,23.106399542173058],[120.29505300173969,23.10639882000089]]}},{"type":"Feature","id":"-492777_1","properties":{"featureType":"lane","edgeId":"-492777","laneId":"-492777_1","speed":13.89},"geometry":{"type":"LineString","coordinates":[[120.29506959224915,23.10636595001625],[120.29506773746012,23.106365318141368]]}},{"type":"Feature","id":"-492777_2","properties":{"featureType":"lane","edgeId":"-492777","laneId":"-492777_2","speed":13.89},"geometry":{"type":"LineString","coordinates":[[120.29508149792196,23.106338859563675],[120.29507964312157,23.10633813739181]]}},{"type":"Feature","id":"-492777_3","properties":{"featureType":"lane","edgeId":"-492777","laneId":"-492777_3","speed":13.89},"geometry":{"type":"LineString","coordinates":[[120.2950935987522,23.10631122730578],[120.29509174395213,23.106310505134054]]}},{"type":"Feature","id":"-492777_4","properties":{"featureType":"lane","edgeId":"-492777","laneId":"-492777_4","speed":13.89},"geometry":{"type":"LineString","coordinates":[[120.29510550441537,23.106284136851208],[120.2951036496156,23.10628341467962]]}},{"type":"Feature","id":"-493_0","properties":{"featureType":"lane","edgeId":"-493","laneId":"-493_0","speed":13.89},"geometry":{"type":"LineString","coordinates":[[120.2951031421268,23.106133431214587],[120.29517879816169,23.106161324630644]]}},{"type":"Feature","id":"-493_1","properties":{"featureType":"lane","edgeId":"-493","laneId":"-493_1","speed":13.89},"geometry":{"type":"LineString","coordinates":[[120.2950886992652,23.10616675245173],[120.29516445293184,23.106194645863738]]}},{"type":"Feature","id":"-493_2","properties":{"featureType":"lane","edgeId":"-493","laneId":"-493_2","speed":13.89},"geometry":{"type":"LineString","coordinates":[[120.29507581782177,23.106196732521244],[120.29515147388648,23.106224625950162]]}},{"type":"Feature","id":"-493_3","properties":{"featureType":"lane","edgeId":"-493","laneId":"-493_3","speed":13.89},"geometry":{"type":"LineString","coordinates":[[120.29506293636094,23.106226622292482],[120.29513859243977,23.10625451572746]]}},{"type":"Feature","id":"-493777_0","properties":{"featureType":"lane","edgeId":"-493777","laneId":"-493777_0","speed":13.89},"geometry":{"type":"LineString","coordinates":[[120.29507203796071,23.10640703493597],[120.2950694021948,23.10640604195895],[120.29503816352967,23.106394577673775],[120.29499716279774,23.106379592869335]]}},{"type":"Feature","id":"-493777_1","properties":{"featureType":"lane","edgeId":"-493777","laneId":"-493777_1","speed":13.89},"geometry":{"type":"LineString","coordinates":[[120.29508687122345,23.106372991281198],[120.2950840402257,23.10637199832601],[120.29505270393939,23.106360443757335],[120.29501170321623,23.106345458956607]]}},{"type":"Feature","id":"-493777_2","properties":{"featureType":"lane","edgeId":"-493777","laneId":"-493777_2","speed":13.89},"geometry":{"type":"LineString","coordinates":[[120.29509887446285,23.106345539628055],[120.29509594583774,23.10634445638677],[120.29506451194065,23.106332901831195],[120.29502341360838,23.106317917044233]]}},{"type":"Feature","id":"-493777_3","properties":{"featureType":"lane","edgeId":"-493777","laneId":"-493777_3","speed":13.89},"geometry":{"type":"LineString","coordinates":[[120.29511107289457,23.106317817060923],[120.295107949026,23.106316643544353],[120.29507641751825,23.10630508900192],[120.29503531919312,23.106290104218004]]}},{"type":"Feature","id":"-493777_4","properties":{"featureType":"lane","edgeId":"-493777","laneId":"-493777_4","speed":13.89},"geometry":{"type":"LineString","coordinates":[[120.2951228809387,23.106290726615875],[120.29511965944283,23.106289462813237],[120.2950880303243,23.106277908283904],[120.29504693200616,23.106262923502953]]}},{"type":"Feature","id":"-601_0","properties":{"featureType":"lane","edgeId":"-601","laneId":"-601_0","speed":13.89},"geometry":{"type":"LineString","coordinates":[[120.29481561750991,23.10577624735858],[120.29481552035384,23.105779859254277],[120.29481493722196,23.105799995577293]]}},{"type":"Feature","id":"-601_1","properties":{"featureType":"lane","edgeId":"-601","laneId":"-601_1","speed":13.89},"geometry":{"type":"LineString","coordinates":[[120.29478428274987,23.105775438093737],[120.29478418560443,23.105779140286547],[120.29478370009512,23.105799366895962]]}},{"type":"Feature","id":"-601_2","properties":{"featureType":"lane","edgeId":"-601","laneId":"-601_2","speed":13.89},"geometry":{"type":"LineString","coordinates":[[120.29475372892767,23.105774719035065],[120.29475353416565,23.10577842123844],[120.29475304865174,23.105798647847774]]}},{"type":"Feature","id":"-601777_0","properties":{"featureType":"lane","edgeId":"-601777","laneId":"-601777_0","speed":13.89},"geometry":{"type":"LineString","coordinates":[[120.29468022713947,23.105797481869853],[120.29468032432197,23.1057940505685],[120.29468090735989,23.105773011274696]]}},{"type":"Feature","id":"-601777_1","properties":{"featureType":"lane","edgeId":"-601777","laneId":"-601777_1","speed":13.89},"geometry":{"type":"LineString","coordinates":[[120.2947120499486,23.105798020211136],[120.29471214714172,23.10579467920689],[120.29471263255893,23.105773639923534]]}},{"type":"Feature","id":"-602_0","properties":{"featureType":"lane","edgeId":"-602","laneId":"-602_0","speed":13.89},"geometry":{"type":"LineString","coordinates":[[120.29481425655456,23.105820763990764],[120.29481425678438,23.105822569933288]]}},{"type":"Feature","id":"-602_1","properties":{"featureType":"lane","edgeId":"-602","laneId":"-602_1","speed":13.89},"geometry":{"type":"LineString","coordinates":[[120.29478301939999,23.10581995471504],[120.29478301962939,23.105821760657566]]}},{"type":"Feature","id":"-602_2","properties":{"featureType":"lane","edgeId":"-602","laneId":"-602_2","speed":13.89},"geometry":{"type":"LineString","coordinates":[[120.29475246556773,23.10581923565614],[120.29475246579672,23.105821041598663]]}},{"type":"Feature","id":"-602777_0","properties":{"featureType":"lane","edgeId":"-602777","laneId":"-602777_0","speed":13.89},"geometry":{"type":"LineString","coordinates":[[120.29468003479252,23.105820327063935],[120.2946800345645,23.10581852112141]]}},{"type":"Feature","id":"-602777_1","properties":{"featureType":"lane","edgeId":"-602777","laneId":"-602777_1","speed":13.89},"geometry":{"type":"LineString","coordinates":[[120.2947117600141,23.105821046010078],[120.29471175978564,23.105819240067547]]}},{"type":"Feature","id":"-603_0","properties":{"featureType":"lane","edgeId":"-603","laneId":"-603_0","speed":13.89},"geometry":{"type":"LineString","coordinates":[[120.29481357610527,23.105843248049567],[120.29481357623168,23.10584424131796]]}},{"type":"Feature","id":"-603_1","properties":{"featureType":"lane","edgeId":"-603","laneId":"-603_1","speed":13.89},"geometry":{"type":"LineString","coordinates":[[120.29478224134118,23.105842529081457],[120.29478224145588,23.105843432052726]]}},{"type":"Feature","id":"-603_2","properties":{"featureType":"lane","edgeId":"-603","laneId":"-603_2","speed":13.89},"geometry":{"type":"LineString","coordinates":[[120.29475178510815,23.10584171971469],[120.2947517852341,23.105842712983073]]}},{"type":"Feature","id":"-603777_0","properties":{"featureType":"lane","edgeId":"-603777","laneId":"-603777_0","speed":13.89},"geometry":{"type":"LineString","coordinates":[[120.29467886592268,23.10584028285538],[120.29467886580866,23.105839379884124]]}},{"type":"Feature","id":"-603777_1","properties":{"featureType":"lane","edgeId":"-603777","laneId":"-603777_1","speed":13.89},"geometry":{"type":"LineString","coordinates":[[120.29471088398489,23.105840911472928],[120.29471088387068,23.105840008501666]]}},{"type":"Feature","id":"-604_0","properties":{"featureType":"lane","edgeId":"-604","laneId":"-604_0","speed":13.89},"geometry":{"type":"LineString","coordinates":[[120.29482555197465,23.105600798954754],[120.29482477259042,23.105612898855092],[120.2948231166312,23.105640439660075],[120.29482185058222,23.105663646160256],[120.29482126623321,23.105674210988035]]}},{"type":"Feature","id":"-604_1","properties":{"featureType":"lane","edgeId":"-604","laneId":"-604_1","speed":13.89},"geometry":{"type":"LineString","coordinates":[[120.29479206958526,23.105598996656983],[120.29479129019802,23.105611096557165],[120.29478963425497,23.10563881795606],[120.29478827059604,23.105662114763728],[120.29478778388304,23.105672860175027]]}},{"type":"Feature","id":"-604_2","properties":{"featureType":"lane","edgeId":"-604","laneId":"-604_2","speed":13.89},"geometry":{"type":"LineString","coordinates":[[120.29476141806128,23.105597284341957],[120.29476063869423,23.105609564836243],[120.29475898273344,23.105637195937707],[120.29475761910362,23.105660763636493],[120.29475713239965,23.105671599344834]]}},{"type":"Feature","id":"-604777_0","properties":{"featureType":"lane","edgeId":"-604777","laneId":"-604777_0","speed":13.89},"geometry":{"type":"LineString","coordinates":[[120.29468343254018,23.10567142673209],[120.29468479261344,23.10561959603276],[120.2946852776351,23.105595396349507]]}},{"type":"Feature","id":"-604777_1","properties":{"featureType":"lane","edgeId":"-604777","laneId":"-604777_1","speed":13.89},"geometry":{"type":"LineString","coordinates":[[120.29471525534248,23.105672145667015],[120.29471671300772,23.105620224659724],[120.29471719801225,23.105595934679254]]}},{"type":"Feature","id":"-605_0","properties":{"featureType":"lane","edgeId":"-605","laneId":"-605_0","speed":13.89},"geometry":{"type":"LineString","coordinates":[[120.29481785321296,23.10570193257841],[120.29481649260386,23.10574915812484]]}},{"type":"Feature","id":"-605_1","properties":{"featureType":"lane","edgeId":"-605","laneId":"-605_1","speed":13.89},"geometry":{"type":"LineString","coordinates":[[120.29478651847018,23.10570112331399],[120.29478506024586,23.105748439167897]]}},{"type":"Feature","id":"-605_2","properties":{"featureType":"lane","edgeId":"-605","laneId":"-605_2","speed":13.89},"geometry":{"type":"LineString","coordinates":[[120.29475586703762,23.10570031396919],[120.29475450641831,23.105747629812246]]}},{"type":"Feature","id":"-605777_0","properties":{"featureType":"lane","edgeId":"-605777","laneId":"-605777_0","speed":13.89},"geometry":{"type":"LineString","coordinates":[[120.29468178246944,23.105745831744535],[120.29468275455578,23.105713595564595],[120.29468304550991,23.105698606209764]]}},{"type":"Feature","id":"-605777_1","properties":{"featureType":"lane","edgeId":"-605777","laneId":"-605777_1","speed":13.89},"geometry":{"type":"LineString","coordinates":[[120.2947134100692,23.10574664099803],[120.29471438213659,23.10571431452078],[120.29471467307579,23.105699234868766]]}},{"type":"Feature","id":"-606_0","properties":{"featureType":"lane","edgeId":"-606","laneId":"-606_0","speed":13.89},"geometry":{"type":"LineString","coordinates":[[120.29481289595451,23.105868079833584],[120.2948128961154,23.105869343993337]]}},{"type":"Feature","id":"-606_1","properties":{"featureType":"lane","edgeId":"-606","laneId":"-606_1","speed":13.89},"geometry":{"type":"LineString","coordinates":[[120.29478146361473,23.105867722064453],[120.29478146377528,23.105868986224213]]}},{"type":"Feature","id":"-606_2","properties":{"featureType":"lane","edgeId":"-606","laneId":"-606_2","speed":13.89},"geometry":{"type":"LineString","coordinates":[[120.29475100744472,23.10586745448029],[120.29475100759355,23.105868628342925]]}},{"type":"Feature","id":"-606777_0","properties":{"featureType":"lane","edgeId":"-606777","laneId":"-606777_0","speed":13.89},"geometry":{"type":"LineString","coordinates":[[120.2946778931619,23.10586719150436],[120.29467789292251,23.105865295264714]]}},{"type":"Feature","id":"-606777_1","properties":{"featureType":"lane","edgeId":"-606777","laneId":"-606777_1","speed":13.89},"geometry":{"type":"LineString","coordinates":[[120.29471000888059,23.10586809100291],[120.29471010625656,23.10586619475271]]}},{"type":"Feature","id":"-655_0","properties":{"featureType":"lane","edgeId":"-655","laneId":"-655_0","speed":13.89},"geometry":{"type":"LineString","coordinates":[[120.29440105505772,23.105870110676385],[120.2944114028622,23.105874353541296],[120.29441521005894,23.10587579789042]]}},{"type":"Feature","id":"-655_1","properties":{"featureType":"lane","edgeId":"-655","laneId":"-655_1","speed":13.89},"geometry":{"type":"LineString","coordinates":[[120.29438397678163,23.105906321638336],[120.29439451983127,23.105910654780732],[120.2943991079893,23.105912369938647]]}},{"type":"Feature","id":"-655_2","properties":{"featureType":"lane","edgeId":"-655","laneId":"-655_2","speed":13.89},"geometry":{"type":"LineString","coordinates":[[120.29437021655175,23.10593539877335],[120.29438095483495,23.10593973189593],[120.29438612871147,23.1059416275863]]}},{"type":"Feature","id":"-655_3","properties":{"featureType":"lane","edgeId":"-655","laneId":"-655_3","speed":13.89},"geometry":{"type":"LineString","coordinates":[[120.29435694429472,23.105963663181214],[120.29436778019566,23.10596799629432],[120.294373539802,23.105970162814348]]}},{"type":"Feature","id":"-655_4","properties":{"featureType":"lane","edgeId":"-655","laneId":"-655_4","speed":13.89},"geometry":{"type":"LineString","coordinates":[[120.2943452334731,23.105988586428825],[120.29435616700276,23.1059930098295],[120.294362317096,23.105995356902785]]}},{"type":"Feature","id":"-655777_0","properties":{"featureType":"lane","edgeId":"-655777","laneId":"-655777_0","speed":13.89},"geometry":{"type":"LineString","coordinates":[[120.29429664040063,23.106147785399504],[120.29428824504399,23.106144716183746],[120.29427701868961,23.106140563700723]]}},{"type":"Feature","id":"-655777_1","properties":{"featureType":"lane","edgeId":"-655777","laneId":"-655777_1","speed":13.89},"geometry":{"type":"LineString","coordinates":[[120.29430961960611,23.106117624788727],[120.29430132186705,23.10611455556333],[120.2942900955148,23.10611040308122]]}},{"type":"Feature","id":"-655777_2","properties":{"featureType":"lane","edgeId":"-655777","laneId":"-655777_2","speed":13.89},"geometry":{"type":"LineString","coordinates":[[120.29432240364082,23.106088005980165],[120.2943141059033,23.106084936755433],[120.2943028795531,23.10608078427421]]}},{"type":"Feature","id":"-655777_3","properties":{"featureType":"lane","edgeId":"-655777","laneId":"-655777_3","speed":13.89},"geometry":{"type":"LineString","coordinates":[[120.29433509005396,23.106058387180788],[120.29432688994508,23.106055408243506],[120.2943157612129,23.106051255752856]]}},{"type":"Feature","id":"-655777_4","properties":{"featureType":"lane","edgeId":"-655777","laneId":"-655777_4","speed":13.89},"geometry":{"type":"LineString","coordinates":[[120.29434767889035,23.106029129579127],[120.29433957639888,23.106026150632147],[120.29432835005281,23.106021998152706]]}},{"type":"Feature","id":"-727_0","properties":{"featureType":"lane","edgeId":"-727","laneId":"-727_0","speed":13.89},"geometry":{"type":"LineString","coordinates":[[120.29481182821259,23.105915485941345],[120.29481182844238,23.105917291883838]]}},{"type":"Feature","id":"-727_1","properties":{"featureType":"lane","edgeId":"-727","laneId":"-727_1","speed":13.89},"geometry":{"type":"LineString","coordinates":[[120.29477941971469,23.10591521857522],[120.2947793223282,23.10591702452833]]}},{"type":"Feature","id":"-727_2","properties":{"featureType":"lane","edgeId":"-727","laneId":"-727_2","speed":13.89},"geometry":{"type":"LineString","coordinates":[[120.2947494516247,23.10591504123485],[120.29474935423781,23.105916847187945]]}},{"type":"Feature","id":"-727222_0","properties":{"featureType":"lane","edgeId":"-727222","laneId":"-727222_0","speed":13.89},"geometry":{"type":"LineString","coordinates":[[120.29481280008524,23.105881805007304],[120.29481260678392,23.105896974945633]]}},{"type":"Feature","id":"-727222_1","properties":{"featureType":"lane","edgeId":"-727222","laneId":"-727222_1","speed":13.89},"geometry":{"type":"LineString","coordinates":[[120.29478127011494,23.10588135695164],[120.29478107681008,23.105896526889943]]}},{"type":"Feature","id":"-727222_2","properties":{"featureType":"lane","edgeId":"-727222","laneId":"-727222_2","speed":13.89},"geometry":{"type":"LineString","coordinates":[[120.29475081391895,23.105880908773198],[120.29475062062214,23.10589616900858]]}},{"type":"Feature","id":"-727777_0","properties":{"featureType":"lane","edgeId":"-727777","laneId":"-727777_0","speed":13.89},"geometry":{"type":"LineString","coordinates":[[120.29467506699923,23.10590439422588],[120.2946751643871,23.105902588272826]]}},{"type":"Feature","id":"-727777_1","properties":{"featureType":"lane","edgeId":"-727777","laneId":"-727777_1","speed":13.89},"geometry":{"type":"LineString","coordinates":[[120.29470767090876,23.105906106346307],[120.29470786591206,23.105904300382672]]}},{"type":"Feature","id":"-728_0","properties":{"featureType":"lane","edgeId":"-728","laneId":"-728_0","speed":13.89},"geometry":{"type":"LineString","coordinates":[[120.29491283985051,23.106515860481426],[120.29490698338161,23.10651983419598],[120.29490268864598,23.106522814471063],[120.29489878438692,23.106525885000423],[120.29489497774397,23.106528955519003],[120.2948889261914,23.106534103116772],[120.29488453393093,23.106537805778977],[120.29487926327344,23.10654268239963],[120.29487223576412,23.10654945545157]]}},{"type":"Feature","id":"-729_0","properties":{"featureType":"lane","edgeId":"-729","laneId":"-729_0","speed":13.89},"geometry":{"type":"LineString","coordinates":[[120.29485554545971,23.10656580105288],[120.29485339821159,23.10656823930947]]}},{"type":"Feature","id":"-730_0","properties":{"featureType":"lane","edgeId":"-730","laneId":"-730_0","speed":13.89},"geometry":{"type":"LineString","coordinates":[[120.29480036835339,23.106377989056565],[120.29479939440748,23.10639541650689]]}},{"type":"Feature","id":"-730_1","properties":{"featureType":"lane","edgeId":"-730","laneId":"-730_1","speed":13.89},"geometry":{"type":"LineString","coordinates":[[120.29475770980426,23.106375826561457],[120.29475663824809,23.10639334431924]]}},{"type":"Feature","id":"-730222_0","properties":{"featureType":"lane","edgeId":"-730222","laneId":"-730222_0","speed":13.89},"geometry":{"type":"LineString","coordinates":[[120.29464545170161,23.106379902076178],[120.29464564564816,23.10636969848057]]}},{"type":"Feature","id":"-730222_1","properties":{"featureType":"lane","edgeId":"-730222","laneId":"-730222_1","speed":13.89},"geometry":{"type":"LineString","coordinates":[[120.2946794222268,23.106380620786585],[120.29467961615941,23.106370326893817]]}},{"type":"Feature","id":"-730222_2","properties":{"featureType":"lane","edgeId":"-730222","laneId":"-730222_2","speed":13.89},"geometry":{"type":"LineString","coordinates":[[120.2947096833257,23.106381249594083],[120.29470997487219,23.10637095569071]]}},{"type":"Feature","id":"448.444","properties":{"featureType":"junction","junctionId":"448.444"},"geometry":{"type":"Point","coordinates":[120.29430521056096,23.105985430263676]}},{"type":"Feature","id":"655.444","properties":{"featureType":"junction","junctionId":"655.444"},"geometry":{"type":"Point","coordinates":[120.29432493001197,23.1059938258114]}},{"type":"Feature","id":"655777.444777","properties":{"featureType":"junction","junctionId":"655777.444777"},"geometry":{"type":"Point","coordinates":[120.2943212216789,23.10600249472774]}},{"type":"Feature","id":"448777.444777","properties":{"featureType":"junction","junctionId":"448777.444777"},"geometry":{"type":"Point","coordinates":[120.29430120949057,23.10599500218174]}},{"type":"Feature","id":"449.446","properties":{"featureType":"junction","junctionId":"449.446"},"geometry":{"type":"Point","coordinates":[120.29452583295661,23.10606893163738]}},{"type":"Feature","id":"88800025","properties":{"featureType":"junction","junctionId":"88800025"},"geometry":{"type":"Point","coordinates":[120.29474381929411,23.10614692486303]}},{"type":"Feature","id":"449777.446777","properties":{"featureType":"junction","junctionId":"449777.446777"},"geometry":{"type":"Point","coordinates":[120.294522124544,23.106076878181355]}},{"type":"Feature","id":"88802508","properties":{"featureType":"junction","junctionId":"88802508"},"geometry":{"type":"Point","coordinates":[120.29453284838648,23.105965721271854]}},{"type":"Feature","id":"449.447","properties":{"featureType":"junction","junctionId":"449.447"},"geometry":{"type":"Point","coordinates":[120.29445964628245,23.106044468189065]}},{"type":"Feature","id":"449777.447777","properties":{"featureType":"junction","junctionId":"449777.447777"},"geometry":{"type":"Point","coordinates":[120.29445613308727,23.106052324413575]}},{"type":"Feature","id":"88802509","properties":{"featureType":"junction","junctionId":"88802509"},"geometry":{"type":"Point","coordinates":[120.29442782743766,23.106076256167214]}},{"type":"Feature","id":"448.439","properties":{"featureType":"junction","junctionId":"448.439"},"geometry":{"type":"Point","coordinates":[120.29405188313275,23.10586906383314]}},{"type":"Feature","id":"448#1","properties":{"featureType":"junction","junctionId":"448#1"},"geometry":{"type":"Point","coordinates":[120.29422769918172,23.1059500419618]}},{"type":"Feature","id":"448777.439777","properties":{"featureType":"junction","junctionId":"448777.439777"},"geometry":{"type":"Point","coordinates":[120.2940397822825,23.105897960172584]}},{"type":"Feature","id":"451222.451","properties":{"featureType":"junction","junctionId":"451222.451"},"geometry":{"type":"Point","coordinates":[120.29471167269452,23.106674082937076]}},{"type":"Feature","id":"88802502","properties":{"featureType":"junction","junctionId":"88802502"},"geometry":{"type":"Point","coordinates":[120.29463960178262,23.106435886921755]}},{"type":"Feature","id":"451222.begin","properties":{"featureType":"junction","junctionId":"451222.begin"},"geometry":{"type":"Point","coordinates":[120.29471079643142,23.106692142455458]}},{"type":"Feature","id":"88802501","properties":{"featureType":"junction","junctionId":"88802501"},"geometry":{"type":"Point","coordinates":[120.29478243680919,23.106612853815175]}},{"type":"Feature","id":"451333.end","properties":{"featureType":"junction","junctionId":"451333.end"},"geometry":{"type":"Point","coordinates":[120.29472797692051,23.106692140594888]}},{"type":"Feature","id":"88802510","properties":{"featureType":"junction","junctionId":"88802510"},"geometry":{"type":"Point","coordinates":[120.2947501955446,23.106393074126977]}},{"type":"Feature","id":"730.455777","properties":{"featureType":"junction","junctionId":"730.455777"},"geometry":{"type":"Point","coordinates":[120.29473448099507,23.106406168913598]}},{"type":"Feature","id":"484.478","properties":{"featureType":"junction","junctionId":"484.478"},"geometry":{"type":"Point","coordinates":[120.29496873461882,23.106209295623298]}},{"type":"Feature","id":"484777.478777","properties":{"featureType":"junction","junctionId":"484777.478777"},"geometry":{"type":"Point","coordinates":[120.2949652215417,23.106217874235934]}},{"type":"Feature","id":"493.484","properties":{"featureType":"junction","junctionId":"493.484"},"geometry":{"type":"Point","coordinates":[120.29504282872962,23.106236557196]}},{"type":"Feature","id":"493777.484777","properties":{"featureType":"junction","junctionId":"493777.484777"},"geometry":{"type":"Point","coordinates":[120.29503892515723,23.10624486496197]}},{"type":"Feature","id":"486.485","properties":{"featureType":"junction","junctionId":"486.485"},"geometry":{"type":"Point","coordinates":[120.29530103577883,23.1063320628485]}},{"type":"Feature","id":"485.479","properties":{"featureType":"junction","junctionId":"485.479"},"geometry":{"type":"Point","coordinates":[120.29544268376385,23.106384690144885]}},{"type":"Feature","id":"485777.479777","properties":{"featureType":"junction","junctionId":"485777.479777"},"geometry":{"type":"Point","coordinates":[120.2954304854418,23.10641277392585]}},{"type":"Feature","id":"486777.485777","properties":{"featureType":"junction","junctionId":"486777.485777"},"geometry":{"type":"Point","coordinates":[120.29529332644138,23.106349942541637]}},{"type":"Feature","id":"491.486","properties":{"featureType":"junction","junctionId":"491.486"},"geometry":{"type":"Point","coordinates":[120.29526794233365,23.10632005703365]}},{"type":"Feature","id":"88802503","properties":{"featureType":"junction","junctionId":"88802503"},"geometry":{"type":"Point","coordinates":[120.29507925982152,23.106393579866587]}},{"type":"Feature","id":"492.491","properties":{"featureType":"junction","junctionId":"492.491"},"geometry":{"type":"Point","coordinates":[120.2951655380244,23.106281782466468]}},{"type":"Feature","id":"493.492","properties":{"featureType":"junction","junctionId":"493.492"},"geometry":{"type":"Point","coordinates":[120.2951458186314,23.106274560886696]}},{"type":"Feature","id":"493777.492777","properties":{"featureType":"junction","junctionId":"493777.492777"},"geometry":{"type":"Point","coordinates":[120.2951422079009,23.106282778325546]}},{"type":"Feature","id":"605.601","properties":{"featureType":"junction","junctionId":"605.601"},"geometry":{"type":"Point","coordinates":[120.29473928003442,23.10576081484452]}},{"type":"Feature","id":"602.601","properties":{"featureType":"junction","junctionId":"602.601"},"geometry":{"type":"Point","coordinates":[120.29473791986631,23.10581174257212]}},{"type":"Feature","id":"602777.601777","properties":{"featureType":"junction","junctionId":"602777.601777"},"geometry":{"type":"Point","coordinates":[120.29472757259374,23.105811743693526]}},{"type":"Feature","id":"605777.601777","properties":{"featureType":"junction","junctionId":"605777.601777"},"geometry":{"type":"Point","coordinates":[120.29472873749997,23.105760545095787]}},{"type":"Feature","id":"603.602","properties":{"featureType":"junction","junctionId":"603.602"},"geometry":{"type":"Point","coordinates":[120.29473743382371,23.105827815513507]}},{"type":"Feature","id":"603777.602777","properties":{"featureType":"junction","junctionId":"603777.602777"},"geometry":{"type":"Point","coordinates":[120.29472708654993,23.105827816634882]}},{"type":"Feature","id":"606.603","properties":{"featureType":"junction","junctionId":"606.603"},"geometry":{"type":"Point","coordinates":[120.29473665636354,23.105855175627358]}},{"type":"Feature","id":"606777.603777","properties":{"featureType":"junction","junctionId":"606777.603777"},"geometry":{"type":"Point","coordinates":[120.29472640666914,23.105854905846726]}},{"type":"Feature","id":"604.begin","properties":{"featureType":"junction","junctionId":"604.begin"},"geometry":{"type":"Point","coordinates":[120.29474628753658,23.105596473309603]}},{"type":"Feature","id":"605.604","properties":{"featureType":"junction","junctionId":"605.604"},"geometry":{"type":"Point","coordinates":[120.2947414181521,23.105686409778713]}},{"type":"Feature","id":"605777.604777","properties":{"featureType":"junction","junctionId":"605777.604777"},"geometry":{"type":"Point","coordinates":[120.29473077799632,23.10568604974356]}},{"type":"Feature","id":"604777.end","properties":{"featureType":"junction","junctionId":"604777.end"},"geometry":{"type":"Point","coordinates":[120.29473301177748,23.10559620385757]}},{"type":"Feature","id":"727222.606","properties":{"featureType":"junction","junctionId":"727222.606"},"geometry":{"type":"Point","coordinates":[120.29473636504895,23.10586727547396]}},{"type":"Feature","id":"88802507","properties":{"featureType":"junction","junctionId":"88802507"},"geometry":{"type":"Point","coordinates":[120.29470376383155,23.10588678318397]}},{"type":"Feature","id":"727222.727","properties":{"featureType":"junction","junctionId":"727222.727"},"geometry":{"type":"Point","coordinates":[120.29473568710301,23.105909624899883]}},{"type":"Feature","id":"729.728","properties":{"featureType":"junction","junctionId":"729.728"},"geometry":{"type":"Point","coordinates":[120.29484343821531,23.106543679579843]}}]}
