{"type":"FeatureCollection","metadata":{"sourceDir":"sumo","sourceFiles":["real_point.shp","sumo_point.shp"],"counts":{"real":42,"sumo":30},"note":"real_point.shp is shown as observed point data and sumo_point.shp is shown as SUMO-derived safety point data. These overlays are map context; they do not replace trajectory playback."},"features":[{"type":"Feature","id":"real-1","properties":{"featureType":"pointOverlay","overlayKind":"real","sourceFile":"real_point.shp","recordIndex":1,"F____":"107年表一.csv","總編號_":"10701AC991B1238","發生日":20180118,"發生時":94000,"發生年":2018,"發生月":1,"發生星":"四","到場處":20180118,"到場_1":100000,"GPS經度":120.294635,"GPS緯度":23.106358,"案件類":1,"案件_1":"交通事故","事故類":"B","事故_1":"A2","事故_12":-134.999952253,"事故__13":-74.8006605422,"轄區類":1,"地址類":2,"地址_1":"交叉路口","發生縣":67000,"發生_1":"臺南市","發生市":67000200,"發生_12":"新市區","發生地":"67000200006","發生__13":"三舍里","發生__15":6700020000000000.0,"發生__16":"省道臺19甲線","發生__22":"口","發生__23":"西拉雅大道","發生__27":"三舍里台19甲線與西拉雅大道路口","公路道":"B","公路_1":"省道","發生_路":"B00038","發生__1":"台19甲線","發生__12":27.0,"發生__28":300,"發生__29":"北側","發生__30":"99","發生_平":0,"發生__32":"無","受理單":"AC991","受理_1":"臺南市政府警察局善化分局交通分隊","管轄單":"臺南市政府警察局善化分局新市分駐所","現場處":"AC991","現場_1":"臺南市政府警察局善化分局交通分隊","處理單":"AC000","處理_1":"臺南市政府警察局","處理_12":"AC900","處理__13":"臺南市政府警察局善化分局","處理__14":"AC991","處理__15":"臺南市政府警察局善化分局交通分隊","現場_12":"卓英景自稱駕駛922-PGS號普重機車(A車)由西拉雅加油站出口由東向西作起駛，與余深良自稱駕駛AGE-0720號自小客車(B車)沿台19線甲線公路左轉專用車道由南向北作左轉彎發生碰撞。卓英景送安南醫","F24小時":0,"F2_30日":0,"受傷人":1,"天候代":8,"天候名":"晴","光線代":1,"光線名":"日間自然光線","道路類":2,"道路_1":"省道","速限_第":50,"道路型":2,"道路_12":"交岔路","道路__13":4,"道路__14":"四岔路","事故位":1,"事故__14":"交叉路口","事故__15":1,"事故__16":"交叉路口內","路面狀":1,"路面_1":"柏油","路面_12":5,"路面__13":"乾燥","路面__14":4,"路面__15":"無缺陷","道路障":5,"道路__15":"無障礙物","道路__16":2,"道路__17":"良好","道路__18":7,"道路__19":"良好","號誌_號":1,"號誌__1":"行車管制號誌","號誌__12":1,"號誌__13":"正常","車道劃":5,"車道_1":"無","車道_12":10,"車道__13":"無分向設施","車道__14":5,"車道__15":"未繪設車道線","車道__16":5,"車道__17":"未繪設快慢車道分隔線","車道__18":2,"車道__19":"無","事故__17":2,"事故__18":"車與車","事故__19":16,"事故__20":"側撞","肇因研":1,"肇因_1":"駕駛人","肇因_12":19,"肇因__13":"起步未注意其他車(人)安全","severity":"observed"},"geometry":{"type":"Point","coordinates":[120.29463500000008,23.106358000000057]}},{"type":"Feature","id":"real-2","properties":{"featureType":"pointOverlay","overlayKind":"real","sourceFile":"real_point.shp","recordIndex":2,"F____":"107年表一.csv","總編號_":"10708AC991B0009","發生日":20180801,"發生時":71300,"發生年":2018,"發生月":8,"發生星":"三","到場處":20180801,"到場_1":72700,"GPS經度":120.294817,"GPS緯度":23.106131,"案件類":1,"案件_1":"交通事故","事故類":"B","事故_1":"A2","事故_12":-134.999952253,"事故__13":-74.8006605422,"轄區類":1,"地址類":2,"地址_1":"交叉路口","發生縣":67000,"發生_1":"臺南市","發生市":67000200,"發生_12":"新市區","發生地":"67000200006","發生__13":"三舍里","發生__15":6700020000000000.0,"發生__16":"省道臺19甲線","發生__22":"北側","發生交":"三舍里","發生__23":"西拉雅大道","公路道":"B","公路_1":"省道","發生_路":"B00038","發生__1":"台19甲線","發生__12":27.0,"發生__28":200,"發生__29":"北側","發生_平":0,"發生__32":"無","受理單":"AC991","受理_1":"臺南市政府警察局善化分局交通分隊","管轄單":"臺南市政府警察局善化分局新市分駐所","現場處":"AC991","現場_1":"臺南市政府警察局善化分局交通分隊","處理單":"AC000","處理_1":"臺南市政府警察局","處理_12":"AC900","處理__13":"臺南市政府警察局善化分局","處理__14":"AC991","處理__15":"臺南市政府警察局善化分局交通分隊","F24小時":0,"F2_30日":0,"受傷人":1,"天候代":8,"天候名":"晴","光線代":1,"光線名":"日間自然光線","道路類":2,"道路_1":"省道","速限_第":50,"道路型":2,"道路_12":"交岔路","道路__13":5,"道路__14":"多岔路","事故位":1,"事故__14":"交叉路口","事故__15":1,"事故__16":"交叉路口內","路面狀":1,"路面_1":"柏油","路面_12":5,"路面__13":"乾燥","路面__14":4,"路面__15":"無缺陷","道路障":5,"道路__15":"無障礙物","道路__16":2,"道路__17":"良好","道路__18":7,"道路__19":"良好","號誌_號":1,"號誌__1":"行車管制號誌","號誌__12":1,"號誌__13":"正常","車道劃":5,"車道_1":"無","車道_12":10,"車道__13":"無分向設施","車道__14":5,"車道__15":"未繪設車道線","車道__16":5,"車道__17":"未繪設快慢車道分隔線","車道__18":2,"車道__19":"無","事故__17":2,"事故__18":"車與車","事故__19":16,"事故__20":"側撞","肇因研":1,"肇因_1":"駕駛人","肇因_12":19,"肇因__13":"起步未注意其他車(人)安全","severity":"observed"},"geometry":{"type":"Point","coordinates":[120.29481700000008,23.10613100000006]}},{"type":"Feature","id":"real-3","properties":{"featureType":"pointOverlay","overlayKind":"real","sourceFile":"real_point.shp","recordIndex":3,"F____":"107年表一.csv","總編號_":"10709AC991B1447","發生日":20180919,"發生時":64324,"發生年":2018,"發生月":9,"發生星":"三","到場處":20180919,"到場_1":65316,"GPS經度":120.294732,"GPS緯度":23.106413,"案件類":1,"案件_1":"交通事故","事故類":"B","事故_1":"A2","事故_12":-134.999952253,"事故__13":-74.8006605422,"轄區類":1,"地址類":2,"地址_1":"交叉路口","發生縣":67000,"發生_1":"臺南市","發生市":67000200,"發生_12":"新市區","發生地":"67000200006","發生__13":"三舍里","發生__15":6700020000000000.0,"發生__16":"西拉雅大道","發生__22":"口","發生交":"三舍里","發生__23":"省道臺19甲線","公路道":"0","公路_1":"無","發生__12":0.0,"發生__28":0,"發生_平":0,"發生__32":"無","受理單":"AC991","受理_1":"臺南市政府警察局善化分局交通分隊","管轄單":"臺南市政府警察局善化分局新市分駐所","現場處":"AC991","現場_1":"臺南市政府警察局善化分局交通分隊","處理單":"AC000","處理_1":"臺南市政府警察局","處理_12":"AC900","處理__13":"臺南市政府警察局善化分局","處理__14":"AC991","處理__15":"臺南市政府警察局善化分局交通分隊","F24小時":0,"F2_30日":0,"受傷人":2,"天候代":8,"天候名":"晴","光線代":1,"光線名":"日間自然光線","道路類":5,"道路_1":"市區道路","速限_第":60,"道路型":2,"道路_12":"交岔路","道路__13":4,"道路__14":"四岔路","事故位":1,"事故__14":"交叉路口","事故__15":1,"事故__16":"交叉路口內","路面狀":1,"路面_1":"柏油","路面_12":5,"路面__13":"乾燥","路面__14":4,"路面__15":"無缺陷","道路障":5,"道路__15":"無障礙物","道路__16":2,"道路__17":"良好","道路__18":7,"道路__19":"良好","號誌_號":2,"號誌__1":"行車管制號誌(附設行人專用號誌)","號誌__12":1,"號誌__13":"正常","車道劃":5,"車道_1":"無","車道_12":10,"車道__13":"無分向設施","車道__14":5,"車道__15":"未繪設車道線","車道__16":5,"車道__17":"未繪設快慢車道分隔線","車道__18":2,"車道__19":"無","事故__17":2,"事故__18":"車與車","事故__19":16,"事故__20":"側撞","肇因研":1,"肇因_1":"駕駛人","肇因_12":26,"肇因__13":"違反特定標誌(線)禁制","severity":"observed"},"geometry":{"type":"Point","coordinates":[120.29473200000007,23.106413000000032]}},{"type":"Feature","id":"real-4","properties":{"featureType":"pointOverlay","overlayKind":"real","sourceFile":"real_point.shp","recordIndex":4,"F____":"107年表一.csv","總編號_":"10711AC991B0218","發生日":20181104,"發生時":143715,"發生年":2018,"發生月":11,"發生星":"日","到場處":20181104,"到場_1":144525,"GPS經度":120.294611,"GPS緯度":23.106434,"案件類":1,"案件_1":"交通事故","事故類":"B","事故_1":"A2","事故_12":-134.999952253,"事故__13":-74.8006605422,"轄區類":1,"地址類":2,"地址_1":"交叉路口","發生縣":67000,"發生_1":"臺南市","發生市":67000190,"發生_12":"善化區","發生地":"67000190004","發生__13":"文昌里","發生__15":6700020000000000.0,"發生__16":"省道臺19甲線","發生__22":"口","發生交":"文昌里","發生__23":"西拉雅大道","公路道":"B","公路_1":"省道","發生_路":"B00038","發生__1":"台19甲線","發生__12":27.0,"發生__28":200,"發生__29":"口","發生_平":0,"發生__32":"無","受理單":"AC991","受理_1":"臺南市政府警察局善化分局交通分隊","管轄單":"臺南市政府警察局善化分局善化派出所","現場處":"AC991","現場_1":"臺南市政府警察局善化分局交通分隊","處理單":"AC000","處理_1":"臺南市政府警察局","處理_12":"AC900","處理__13":"臺南市政府警察局善化分局","處理__14":"AC991","處理__15":"臺南市政府警察局善化分局交通分隊","F24小時":0,"F2_30日":0,"受傷人":1,"天候代":8,"天候名":"晴","光線代":1,"光線名":"日間自然光線","道路類":2,"道路_1":"省道","速限_第":70,"道路型":2,"道路_12":"交岔路","道路__13":4,"道路__14":"四岔路","事故位":1,"事故__14":"交叉路口","事故__15":1,"事故__16":"交叉路口內","路面狀":1,"路面_1":"柏油","路面_12":5,"路面__13":"乾燥","路面__14":4,"路面__15":"無缺陷","道路障":5,"道路__15":"無障礙物","道路__16":2,"道路__17":"良好","道路__18":7,"道路__19":"良好","號誌_號":1,"號誌__1":"行車管制號誌","號誌__12":1,"號誌__13":"正常","車道劃":1,"車道_1":"中央分向島","車道_12":1,"車道__13":"?式(50公分以上)","車道__14":4,"車道__15":"車道線(無標記)","車道__16":4,"車道__17":"快慢車道分隔線","車道__18":1,"車道__19":"有","事故__17":3,"事故__18":"汽(機)車本身","事故__19":18,"事故__20":"路上翻車、摔倒","肇因研":1,"肇因_1":"駕駛人","肇因_12":23,"肇因__13":"未注意車前狀態","severity":"observed"},"geometry":{"type":"Point","coordinates":[120.29461100000003,23.106434000000036]}},{"type":"Feature","id":"real-5","properties":{"featureType":"pointOverlay","overlayKind":"real","sourceFile":"real_point.shp","recordIndex":5,"F____":"107年表一.csv","總編號_":"10712AC991B0962","發生日":20181212,"發生時":114522,"發生年":2018,"發生月":12,"發生星":"三","到場處":20181212,"到場_1":115638,"GPS經度":120.294647,"GPS緯度":23.106399,"案件類":1,"案件_1":"交通事故","事故類":"B","事故_1":"A2","事故_12":-134.999952253,"事故__13":-74.8006605422,"轄區類":1,"地址類":2,"地址_1":"交叉路口","發生縣":67000,"發生_1":"臺南市","發生市":67000200,"發生_12":"新市區","發生地":"67000200006","發生__13":"三舍里","發生__15":6700020000000000.0,"發生__16":"省道臺19甲線","發生__22":"口","發生交":"三舍里","發生__23":"西拉雅大道","發生__27":"三舍里","公路道":"B","公路_1":"省道","發生_路":"B00038","發生__1":"台19甲線","發生__12":27.0,"發生__28":500,"發生_平":0,"發生__32":"無","受理單":"AC991","受理_1":"臺南市政府警察局善化分局交通分隊","管轄單":"臺南市政府警察局善化分局新市分駐所","現場處":"AC991","現場_1":"臺南市政府警察局善化分局交通分隊","處理單":"AC000","處理_1":"臺南市政府警察局","處理_12":"AC900","處理__13":"臺南市政府警察局善化分局","處理__14":"AC991","處理__15":"臺南市政府警察局善化分局交通分隊","F24小時":0,"F2_30日":0,"受傷人":1,"天候代":8,"天候名":"晴","光線代":1,"光線名":"日間自然光線","道路類":2,"道路_1":"省道","速限_第":50,"道路型":2,"道路_12":"交岔路","道路__13":4,"道路__14":"四岔路","事故位":1,"事故__14":"交叉路口","事故__15":1,"事故__16":"交叉路口內","路面狀":1,"路面_1":"柏油","路面_12":5,"路面__13":"乾燥","路面__14":4,"路面__15":"無缺陷","道路障":5,"道路__15":"無障礙物","道路__16":2,"道路__17":"良好","道路__18":7,"道路__19":"良好","號誌_號":1,"號誌__1":"行車管制號誌","號誌__12":1,"號誌__13":"正常","車道劃":5,"車道_1":"無","車道_12":10,"車道__13":"無分向設施","車道__14":5,"車道__15":"未繪設車道線","車道__16":5,"車道__17":"未繪設快慢車道分隔線","車道__18":2,"車道__19":"無","事故__17":2,"事故__18":"車與車","事故__19":13,"事故__20":"追撞","肇因研":1,"肇因_1":"駕駛人","肇因_12":23,"肇因__13":"未注意車前狀態","severity":"observed"},"geometry":{"type":"Point","coordinates":[120.29464700000005,23.106399000000067]}},{"type":"Feature","id":"real-6","properties":{"featureType":"pointOverlay","overlayKind":"real","sourceFile":"real_point.shp","recordIndex":6,"F____":"107年表一.csv","總編號_":"10712AC991B1157","發生日":20181207,"發生時":145000,"發生年":2018,"發生月":12,"發生星":"五","到場處":20181207,"到場_1":150500,"GPS經度":120.294816,"GPS緯度":23.106206,"案件類":1,"案件_1":"交通事故","事故類":"B","事故_1":"A2","事故_12":-134.999952253,"事故__13":-74.8006605422,"轄區類":1,"地址類":2,"地址_1":"交叉路口","發生縣":67000,"發生_1":"臺南市","發生市":67000200,"發生_12":"新市區","發生地":"67000200006","發生__13":"三舍里","發生__15":6700020000000000.0,"發生__16":"省道臺19甲線","發生__22":"口","發生交":"三舍里","發生__23":"西拉雅大道","公路道":"0","公路_1":"無","發生__12":0.0,"發生__28":0,"發生_平":0,"發生__32":"無","受理單":"AC991","受理_1":"臺南市政府警察局善化分局交通分隊","管轄單":"臺南市政府警察局善化分局新市分駐所","現場處":"AC991","現場_1":"臺南市政府警察局善化分局交通分隊","處理單":"AC000","處理_1":"臺南市政府警察局","處理_12":"AC900","處理__13":"臺南市政府警察局善化分局","處理__14":"AC991","處理__15":"臺南市政府警察局善化分局交通分隊","F24小時":0,"F2_30日":0,"受傷人":1,"天候代":8,"天候名":"晴","光線代":1,"光線名":"日間自然光線","道路類":5,"道路_1":"市區道路","速限_第":50,"道路型":2,"道路_12":"交岔路","道路__13":4,"道路__14":"四岔路","事故位":1,"事故__14":"交叉路口","事故__15":1,"事故__16":"交叉路口內","路面狀":1,"路面_1":"柏油","路面_12":5,"路面__13":"乾燥","路面__14":4,"路面__15":"無缺陷","道路障":5,"道路__15":"無障礙物","道路__16":2,"道路__17":"良好","道路__18":7,"道路__19":"良好","號誌_號":1,"號誌__1":"行車管制號誌","號誌__12":1,"號誌__13":"正常","車道劃":1,"車道_1":"中央分向島","車道_12":1,"車道__13":"?式(50公分以上)","車道__14":4,"車道__15":"車道線(無標記)","車道__16":5,"車道__17":"未繪設快慢車道分隔線","車道__18":1,"車道__19":"有","事故__17":2,"事故__18":"車與車","事故__19":16,"事故__20":"側撞","肇因研":1,"肇因_1":"駕駛人","肇因_12":6,"肇因__13":"未依規定讓車","severity":"observed"},"geometry":{"type":"Point","coordinates":[120.29481600000008,23.106206000000043]}},{"type":"Feature","id":"real-7","properties":{"featureType":"pointOverlay","overlayKind":"real","sourceFile":"real_point.shp","recordIndex":7,"F____":"108年表一.csv","總編號_":"10801AC991B1719","發生日":20190119,"發生時":202513,"發生年":2019,"發生月":1,"發生星":"六","到場處":20190119,"到場_1":203519,"GPS經度":120.294825,"GPS緯度":23.106212,"案件類":1,"案件_1":"交通事故","事故類":"B","事故_1":"A2","事故_12":-134.999952253,"事故__13":-74.8006605422,"轄區類":1,"地址類":2,"地址_1":"交叉路口","發生縣":67000,"發生_1":"臺南市","發生市":67000200,"發生_12":"新市區","發生地":"67000200006","發生__13":"三舍里","發生__15":6700020000000000.0,"發生__16":"省道臺19甲線","發生__22":"口","發生交":"三舍里","發生__23":"西拉雅大道","公路道":"0","公路_1":"無","發生__12":0.0,"發生__28":0,"發生_平":0,"發生__32":"無","受理單":"AC991","受理_1":"臺南市政府警察局善化分局交通分隊","管轄單":"臺南市政府警察局善化分局新市分駐所","現場處":"AC991","現場_1":"臺南市政府警察局善化分局交通分隊","處理單":"AC000","處理_1":"臺南市政府警察局","處理_12":"AC900","處理__13":"臺南市政府警察局善化分局","處理__14":"AC991","處理__15":"臺南市政府警察局善化分局交通分隊","F24小時":0,"F2_30日":0,"受傷人":1,"天候代":8,"天候名":"晴","光線代":3,"光線名":"夜間(或隧道、地下道、涵洞)有照明","道路類":5,"道路_1":"市區道路","速限_第":0,"道路型":2,"道路_12":"交岔路","道路__13":4,"道路__14":"四岔路","事故位":1,"事故__14":"交叉路口","事故__15":1,"事故__16":"交叉路口內","路面狀":1,"路面_1":"柏油","路面_12":5,"路面__13":"乾燥","路面__14":4,"路面__15":"無缺陷","道路障":5,"道路__15":"無障礙物","道路__16":2,"道路__17":"良好","道路__18":7,"道路__19":"良好","號誌_號":2,"號誌__1":"行車管制號誌(附設行人專用號誌)","號誌__12":1,"號誌__13":"正常","車道劃":5,"車道_1":"無","車道_12":10,"車道__13":"無分向設施","車道__14":5,"車道__15":"未繪設車道線","車道__16":5,"車道__17":"未繪設快慢車道分隔線","車道__18":2,"車道__19":"無","事故__17":2,"事故__18":"車與車","事故__19":16,"事故__20":"側撞","肇因研":1,"肇因_1":"駕駛人","肇因_12":19,"肇因__13":"起步未注意其他車(人)安全","severity":"observed"},"geometry":{"type":"Point","coordinates":[120.29482500000006,23.106212000000028]}},{"type":"Feature","id":"real-8","properties":{"featureType":"pointOverlay","overlayKind":"real","sourceFile":"real_point.shp","recordIndex":8,"F____":"108年表一.csv","總編號_":"10802AC991B0094","發生日":20190202,"發生時":110500,"發生年":2019,"發生月":2,"發生星":"六","到場處":20190202,"到場_1":111500,"GPS經度":120.294826,"GPS緯度":23.106479,"案件類":1,"案件_1":"交通事故","事故類":"B","事故_1":"A2","事故_12":-134.999952253,"事故__13":-74.8006605422,"轄區類":1,"地址類":2,"地址_1":"交叉路口","發生縣":67000,"發生_1":"臺南市","發生市":67000200,"發生_12":"新市區","發生地":"67000200006","發生__13":"三舍里","發生__15":6700020000000000.0,"發生__16":"西拉雅大道","發生__22":"口","發生交":"三舍里","發生__23":"省道臺19甲線","公路道":"B","公路_1":"省道","發生_路":"B00038","發生__1":"台19甲線","發生__12":27.5,"發生__28":0,"發生_平":0,"發生__32":"無","受理單":"AC991","受理_1":"臺南市政府警察局善化分局交通分隊","管轄單":"臺南市政府警察局善化分局新市分駐所","現場處":"AC991","現場_1":"臺南市政府警察局善化分局交通分隊","處理單":"AC000","處理_1":"臺南市政府警察局","處理_12":"AC900","處理__13":"臺南市政府警察局善化分局","處理__14":"AC991","處理__15":"臺南市政府警察局善化分局交通分隊","現場_12":"A車(蔡靖妍)自述駕駛MBS-1816普重機車沿西拉雅大道東向西直行自摔倒地而發生交通事故。","F24小時":0,"F2_30日":0,"受傷人":1,"天候代":8,"天候名":"晴","光線代":1,"光線名":"日間自然光線","道路類":5,"道路_1":"市區道路","速限_第":50,"道路型":2,"道路_12":"交岔路","道路__13":4,"道路__14":"四岔路","事故位":1,"事故__14":"交叉路口","事故__15":2,"事故__16":"交叉口附近","路面狀":1,"路面_1":"柏油","路面_12":5,"路面__13":"乾燥","路面__14":4,"路面__15":"無缺陷","道路障":5,"道路__15":"無障礙物","道路__16":2,"道路__17":"良好","道路__18":7,"道路__19":"良好","號誌_號":1,"號誌__1":"行車管制號誌","號誌__12":1,"號誌__13":"正常","車道劃":1,"車道_1":"中央分向島","車道_12":1,"車道__13":"?式(50公分以上)","車道__14":4,"車道__15":"車道線(無標記)","車道__16":1,"車道__17":"?式快慢車道分隔島(50公分以上)","車道__18":1,"車道__19":"有","事故__17":3,"事故__18":"汽(機)車本身","事故__19":18,"事故__20":"路上翻車、摔倒","肇因研":1,"肇因_1":"駕駛人","肇因_12":23,"肇因__13":"未注意車前狀態","severity":"observed"},"geometry":{"type":"Point","coordinates":[120.29482600000006,23.106479000000036]}},{"type":"Feature","id":"real-9","properties":{"featureType":"pointOverlay","overlayKind":"real","sourceFile":"real_point.shp","recordIndex":9,"F____":"108年表一.csv","總編號_":"10802AC991B1226","發生日":20190211,"發生時":121600,"發生年":2019,"發生月":2,"發生星":"一","到場處":20190211,"到場_1":123000,"GPS經度":120.294838,"GPS緯度":23.106211,"案件類":1,"案件_1":"交通事故","事故類":"B","事故_1":"A2","事故_12":-134.999952253,"事故__13":-74.8006605422,"轄區類":1,"地址類":2,"地址_1":"交叉路口","發生縣":67000,"發生_1":"臺南市","發生市":67000200,"發生_12":"新市區","發生地":"67000200006","發生__13":"三舍里","發生__15":6700020000000000.0,"發生__16":"省道臺19甲線","發生__22":"口","發生交":"三舍里","發生__23":"西拉雅大道","發生__27":"三舍里台19甲線與西拉雅大道路口","公路道":"B","公路_1":"省道","發生_路":"B00038","發生__1":"台19甲線","發生__12":27.0,"發生__28":400,"發生__29":"北側","發生_平":0,"發生__32":"無","受理單":"AC991","受理_1":"臺南市政府警察局善化分局交通分隊","管轄單":"臺南市政府警察局善化分局新市分駐所","現場處":"AC991","現場_1":"臺南市政府警察局善化分局交通分隊","處理單":"AC000","處理_1":"臺南市政府警察局","處理_12":"AC900","處理__13":"臺南市政府警察局善化分局","處理__14":"AC991","處理__15":"臺南市政府警察局善化分局交通分隊","F24小時":0,"F2_30日":0,"受傷人":2,"天候代":8,"天候名":"晴","光線代":1,"光線名":"日間自然光線","道路類":2,"道路_1":"省道","速限_第":50,"道路型":2,"道路_12":"交岔路","道路__13":4,"道路__14":"四岔路","事故位":1,"事故__14":"交叉路口","事故__15":1,"事故__16":"交叉路口內","路面狀":1,"路面_1":"柏油","路面_12":5,"路面__13":"乾燥","路面__14":4,"路面__15":"無缺陷","道路障":5,"道路__15":"無障礙物","道路__16":2,"道路__17":"良好","道路__18":7,"道路__19":"良好","號誌_號":1,"號誌__1":"行車管制號誌","號誌__12":1,"號誌__13":"正常","車道劃":5,"車道_1":"無","車道_12":10,"車道__13":"無分向設施","車道__14":5,"車道__15":"未繪設車道線","車道__16":5,"車道__17":"未繪設快慢車道分隔線","車道__18":2,"車道__19":"無","事故__17":2,"事故__18":"車與車","事故__19":16,"事故__20":"側撞","肇因研":1,"肇因_1":"駕駛人","肇因_12":6,"肇因__13":"未依規定讓車","severity":"observed"},"geometry":{"type":"Point","coordinates":[120.29483800000003,23.10621100000003]}},{"type":"Feature","id":"real-10","properties":{"featureType":"pointOverlay","overlayKind":"real","sourceFile":"real_point.shp","recordIndex":10,"F____":"108年表一.csv","總編號_":"10803AC991B2353","發生日":20190326,"發生時":123551,"發生年":2019,"發生月":3,"發生星":"二","到場處":20190326,"到場_1":124516,"GPS經度":120.294821,"GPS緯度":23.106223,"案件類":1,"案件_1":"交通事故","事故類":"B","事故_1":"A2","事故_12":-134.999952253,"事故__13":-74.8006605422,"轄區類":1,"地址類":2,"地址_1":"交叉路口","發生縣":67000,"發生_1":"臺南市","發生市":67000200,"發生_12":"新市區","發生地":"67000200006","發生__13":"三舍里","發生__15":6700020000000000.0,"發生__16":"省道臺19甲線","發生__22":"口","發生交":"三舍里","發生__23":"西拉雅大道","公路道":"B","公路_1":"省道","發生_路":"B00038","發生__1":"台19甲線","發生__12":26.0,"發生__28":800,"發生_平":0,"發生__32":"無","受理單":"AC991","受理_1":"臺南市政府警察局善化分局交通分隊","管轄單":"臺南市政府警察局善化分局新市分駐所","現場處":"AC991","現場_1":"臺南市政府警察局善化分局交通分隊","處理單":"AC000","處理_1":"臺南市政府警察局","處理_12":"AC900","處理__13":"臺南市政府警察局善化分局","處理__14":"AC991","處理__15":"臺南市政府警察局善化分局交通分隊","F24小時":0,"F2_30日":0,"受傷人":1,"天候代":8,"天候名":"晴","光線代":1,"光線名":"日間自然光線","道路類":5,"道路_1":"市區道路","速限_第":50,"道路型":2,"道路_12":"交岔路","道路__13":4,"道路__14":"四岔路","事故位":1,"事故__14":"交叉路口","事故__15":1,"事故__16":"交叉路口內","路面狀":1,"路面_1":"柏油","路面_12":5,"路面__13":"乾燥","路面__14":4,"路面__15":"無缺陷","道路障":5,"道路__15":"無障礙物","道路__16":2,"道路__17":"良好","道路__18":7,"道路__19":"良好","號誌_號":1,"號誌__1":"行車管制號誌","號誌__12":1,"號誌__13":"正常","車道劃":5,"車道_1":"無","車道_12":10,"車道__13":"無分向設施","車道__14":5,"車道__15":"未繪設車道線","車道__16":5,"車道__17":"未繪設快慢車道分隔線","車道__18":2,"車道__19":"無","事故__17":2,"事故__18":"車與車","事故__19":16,"事故__20":"側撞","肇因研":1,"肇因_1":"駕駛人","肇因_12":9,"肇因__13":"右轉彎未依規定","severity":"observed"},"geometry":{"type":"Point","coordinates":[120.29482100000007,23.106223000000057]}},{"type":"Feature","id":"real-11","properties":{"featureType":"pointOverlay","overlayKind":"real","sourceFile":"real_point.shp","recordIndex":11,"F____":"108年表一.csv","總編號_":"10804AC991B1716","發生日":20190420,"發生時":90305,"發生年":2019,"發生月":4,"發生星":"六","到場處":20190420,"到場_1":91324,"GPS經度":120.29459,"GPS緯度":23.106625,"案件類":1,"案件_1":"交通事故","事故類":"B","事故_1":"A2","事故_12":-134.999952253,"事故__13":-74.8006605422,"轄區類":1,"地址類":2,"地址_1":"交叉路口","發生縣":67000,"發生_1":"臺南市","發生市":67000200,"發生_12":"新市區","發生地":"67000200006","發生__13":"三舍里","發生__15":6700020000000000.0,"發生__16":"省道臺19甲線","發生__22":"口","發生交":"三舍里","發生__23":"西拉雅大道","公路道":"B","公路_1":"省道","發生_路":"B00038","發生__1":"台19甲線","發生__12":27.0,"發生__28":500,"發生_平":0,"發生__32":"無","受理單":"AC991","受理_1":"臺南市政府警察局善化分局交通分隊","管轄單":"臺南市政府警察局善化分局新市分駐所","現場處":"AC991","現場_1":"臺南市政府警察局善化分局交通分隊","處理單":"AC000","處理_1":"臺南市政府警察局","處理_12":"AC900","處理__13":"臺南市政府警察局善化分局","處理__14":"AC991","處理__15":"臺南市政府警察局善化分局交通分隊","F24小時":0,"F2_30日":0,"受傷人":1,"天候代":8,"天候名":"晴","光線代":1,"光線名":"日間自然光線","道路類":5,"道路_1":"市區道路","速限_第":50,"道路型":2,"道路_12":"交岔路","道路__13":4,"道路__14":"四岔路","事故位":1,"事故__14":"交叉路口","事故__15":1,"事故__16":"交叉路口內","路面狀":1,"路面_1":"柏油","路面_12":5,"路面__13":"乾燥","路面__14":4,"路面__15":"無缺陷","道路障":5,"道路__15":"無障礙物","道路__16":2,"道路__17":"良好","道路__18":7,"道路__19":"良好","號誌_號":1,"號誌__1":"行車管制號誌","號誌__12":1,"號誌__13":"正常","車道劃":1,"車道_1":"中央分向島","車道_12":1,"車道__13":"?式(50公分以上)","車道__14":5,"車道__15":"未繪設車道線","車道__16":5,"車道__17":"未繪設快慢車道分隔線","車道__18":1,"車道__19":"有","事故__17":2,"事故__18":"車與車","事故__19":16,"事故__20":"側撞","肇因研":1,"肇因_1":"駕駛人","肇因_12":6,"肇因__13":"未依規定讓車","severity":"observed"},"geometry":{"type":"Point","coordinates":[120.29459000000008,23.106625000000065]}},{"type":"Feature","id":"real-12","properties":{"featureType":"pointOverlay","overlayKind":"real","sourceFile":"real_point.shp","recordIndex":12,"F____":"108年表一.csv","總編號_":"10807AC991B0087","發生日":20190702,"發生時":130422,"發生年":2019,"發生月":7,"發生星":"二","到場處":20190702,"到場_1":131428,"GPS經度":120.294692,"GPS緯度":23.106317,"案件類":1,"案件_1":"交通事故","事故類":"B","事故_1":"A2","事故_12":-134.999952253,"事故__13":-74.8006605422,"轄區類":1,"地址類":2,"地址_1":"交叉路口","發生縣":67000,"發生_1":"臺南市","發生市":67000200,"發生_12":"新市區","發生地":"67000200006","發生__13":"三舍里","發生__15":6700020000000000.0,"發生__16":"省道臺19甲線","發生__22":"口","發生交":"三舍里","發生__23":"西拉雅大道","公路道":"0","公路_1":"無","發生__12":0.0,"發生__28":0,"發生_平":0,"發生__32":"無","受理單":"AC991","受理_1":"臺南市政府警察局善化分局交通分隊","管轄單":"臺南市政府警察局善化分局新市分駐所","現場處":"AC991","現場_1":"臺南市政府警察局善化分局交通分隊","處理單":"AC000","處理_1":"臺南市政府警察局","處理_12":"AC900","處理__13":"臺南市政府警察局善化分局","處理__14":"AC991","處理__15":"臺南市政府警察局善化分局交通分隊","F24小時":0,"F2_30日":0,"受傷人":1,"天候代":7,"天候名":"陰","光線代":1,"光線名":"日間自然光線","道路類":5,"道路_1":"市區道路","速限_第":60,"道路型":2,"道路_12":"交岔路","道路__13":4,"道路__14":"四岔路","事故位":1,"事故__14":"交叉路口","事故__15":2,"事故__16":"交叉口附近","路面狀":1,"路面_1":"柏油","路面_12":5,"路面__13":"乾燥","路面__14":4,"路面__15":"無缺陷","道路障":5,"道路__15":"無障礙物","道路__16":2,"道路__17":"良好","道路__18":7,"道路__19":"良好","號誌_號":1,"號誌__1":"行車管制號誌","號誌__12":1,"號誌__13":"正常","車道劃":1,"車道_1":"中央分向島","車道_12":1,"車道__13":"?式(50公分以上)","車道__14":4,"車道__15":"車道線(無標記)","車道__16":4,"車道__17":"快慢車道分隔線","車道__18":1,"車道__19":"有","事故__17":3,"事故__18":"汽(機)車本身","事故__19":26,"事故__20":"撞路樹、電桿","肇因研":4,"肇因_1":"其他","肇因_12":43,"肇因__13":"不明原因肇事","severity":"observed"},"geometry":{"type":"Point","coordinates":[120.29469200000005,23.106317000000047]}},{"type":"Feature","id":"real-13","properties":{"featureType":"pointOverlay","overlayKind":"real","sourceFile":"real_point.shp","recordIndex":13,"F____":"108年表一.csv","總編號_":"10808AC991B1701","發生日":20190822,"發生時":221800,"發生年":2019,"發生月":8,"發生星":"四","到場處":20190822,"到場_1":223000,"GPS經度":120.294589,"GPS緯度":23.106016,"案件類":1,"案件_1":"交通事故","事故類":"B","事故_1":"A2","事故_12":-134.999952253,"事故__13":-74.8006605422,"轄區類":1,"地址類":2,"地址_1":"交叉路口","發生縣":67000,"發生_1":"臺南市","發生市":67000200,"發生_12":"新市區","發生地":"67000200006","發生__13":"三舍里","發生__15":6700020000000000.0,"發生__16":"西拉雅大道","發生__22":"口","發生交":"三舍里","發生__23":"省道臺19甲線","公路道":"0","公路_1":"無","發生__12":0.0,"發生__28":0,"發生_平":0,"發生__32":"無","受理單":"AC991","受理_1":"臺南市政府警察局善化分局交通分隊","管轄單":"臺南市政府警察局善化分局新市分駐所","現場處":"AC991","現場_1":"臺南市政府警察局善化分局交通分隊","處理單":"AC000","處理_1":"臺南市政府警察局","處理_12":"AC900","處理__13":"臺南市政府警察局善化分局","處理__14":"AC991","處理__15":"臺南市政府警察局善化分局交通分隊","F24小時":0,"F2_30日":0,"受傷人":1,"天候代":8,"天候名":"晴","光線代":3,"光線名":"夜間(或隧道、地下道、涵洞)有照明","道路類":5,"道路_1":"市區道路","速限_第":60,"道路型":2,"道路_12":"交岔路","道路__13":4,"道路__14":"四岔路","事故位":1,"事故__14":"交叉路口","事故__15":1,"事故__16":"交叉路口內","路面狀":1,"路面_1":"柏油","路面_12":5,"路面__13":"乾燥","路面__14":4,"路面__15":"無缺陷","道路障":5,"道路__15":"無障礙物","道路__16":2,"道路__17":"良好","道路__18":7,"道路__19":"良好","號誌_號":1,"號誌__1":"行車管制號誌","號誌__12":1,"號誌__13":"正常","車道劃":5,"車道_1":"無","車道_12":10,"車道__13":"無分向設施","車道__14":5,"車道__15":"未繪設車道線","車道__16":5,"車道__17":"未繪設快慢車道分隔線","車道__18":2,"車道__19":"無","事故__17":3,"事故__18":"汽(機)車本身","事故__19":18,"事故__20":"路上翻車、摔倒","肇因研":1,"肇因_1":"駕駛人","肇因_12":23,"肇因__13":"未注意車前狀態","severity":"observed"},"geometry":{"type":"Point","coordinates":[120.29458900000009,23.106016000000068]}},{"type":"Feature","id":"real-14","properties":{"featureType":"pointOverlay","overlayKind":"real","sourceFile":"real_point.shp","recordIndex":14,"F____":"108年表一.csv","總編號_":"10810AC991B1396","發生日":20191019,"發生時":82051,"發生年":2019,"發生月":10,"發生星":"六","到場處":20191019,"到場_1":83005,"GPS經度":120.294763,"GPS緯度":23.106344,"案件類":1,"案件_1":"交通事故","事故類":"B","事故_1":"A2","事故_12":-134.999952253,"事故__13":-74.8006605422,"轄區類":1,"地址類":2,"地址_1":"交叉路口","發生縣":67000,"發生_1":"臺南市","發生市":67000200,"發生_12":"新市區","發生地":"67000200006","發生__13":"三舍里","發生__15":6700020000000000.0,"發生__16":"省道臺19甲線","發生__22":"口","發生交":"三舍里","發生__23":"西拉雅大道","公路道":"B","公路_1":"省道","發生_路":"B00038","發生__1":"台19甲線","發生__12":27.0,"發生__28":500,"發生_平":0,"發生__32":"無","受理單":"AC991","受理_1":"臺南市政府警察局善化分局交通分隊","管轄單":"臺南市政府警察局善化分局新市分駐所","現場處":"AC991","現場_1":"臺南市政府警察局善化分局交通分隊","處理單":"AC000","處理_1":"臺南市政府警察局","處理_12":"AC900","處理__13":"臺南市政府警察局善化分局","處理__14":"AC991","處理__15":"臺南市政府警察局善化分局交通分隊","F24小時":0,"F2_30日":0,"受傷人":1,"天候代":8,"天候名":"晴","光線代":1,"光線名":"日間自然光線","道路類":2,"道路_1":"省道","速限_第":50,"道路型":2,"道路_12":"交岔路","道路__13":4,"道路__14":"四岔路","事故位":1,"事故__14":"交叉路口","事故__15":1,"事故__16":"交叉路口內","路面狀":1,"路面_1":"柏油","路面_12":5,"路面__13":"乾燥","路面__14":4,"路面__15":"無缺陷","道路障":5,"道路__15":"無障礙物","道路__16":2,"道路__17":"良好","道路__18":7,"道路__19":"良好","號誌_號":1,"號誌__1":"行車管制號誌","號誌__12":1,"號誌__13":"正常","車道劃":5,"車道_1":"無","車道_12":10,"車道__13":"無分向設施","車道__14":5,"車道__15":"未繪設車道線","車道__16":5,"車道__17":"未繪設快慢車道分隔線","車道__18":2,"車道__19":"無","事故__17":2,"事故__18":"車與車","事故__19":16,"事故__20":"側撞","肇因研":1,"肇因_1":"駕駛人","肇因_12":26,"肇因__13":"違反特定標誌(線)禁制","severity":"observed"},"geometry":{"type":"Point","coordinates":[120.2947630000001,23.106344000000036]}},{"type":"Feature","id":"real-15","properties":{"featureType":"pointOverlay","overlayKind":"real","sourceFile":"real_point.shp","recordIndex":15,"F____":"108年表一.csv","總編號_":"10810AC991B2062","發生日":20191025,"發生時":113545,"發生年":2019,"發生月":10,"發生星":"五","到場處":20191025,"到場_1":114504,"GPS經度":120.294772,"GPS緯度":23.106354,"案件類":1,"案件_1":"交通事故","事故類":"B","事故_1":"A2","事故_12":-134.999952253,"事故__13":-74.8006605422,"轄區類":1,"地址類":2,"地址_1":"交叉路口","發生縣":67000,"發生_1":"臺南市","發生市":67000200,"發生_12":"新市區","發生地":"67000200006","發生__13":"三舍里","發生__15":6700020000000000.0,"發生__16":"西拉雅大道","發生__22":"南側","發生交":"三舍里","發生__23":"省道臺19甲線","公路道":"0","公路_1":"無","發生__12":0.0,"發生__28":0,"發生_平":0,"發生__32":"無","受理單":"AC991","受理_1":"臺南市政府警察局善化分局交通分隊","管轄單":"臺南市政府警察局善化分局新市分駐所","現場處":"AC991","現場_1":"臺南市政府警察局善化分局交通分隊","處理單":"AC000","處理_1":"臺南市政府警察局","處理_12":"AC900","處理__13":"臺南市政府警察局善化分局","處理__14":"AC991","處理__15":"臺南市政府警察局善化分局交通分隊","F24小時":0,"F2_30日":0,"受傷人":1,"天候代":8,"天候名":"晴","光線代":1,"光線名":"日間自然光線","道路類":5,"道路_1":"市區道路","速限_第":60,"道路型":2,"道路_12":"交岔路","道路__13":4,"道路__14":"四岔路","事故位":1,"事故__14":"交叉路口","事故__15":1,"事故__16":"交叉路口內","路面狀":1,"路面_1":"柏油","路面_12":5,"路面__13":"乾燥","路面__14":4,"路面__15":"無缺陷","道路障":5,"道路__15":"無障礙物","道路__16":2,"道路__17":"良好","道路__18":7,"道路__19":"良好","號誌_號":1,"號誌__1":"行車管制號誌","號誌__12":1,"號誌__13":"正常","車道劃":1,"車道_1":"中央分向島","車道_12":1,"車道__13":"?式(50公分以上)","車道__14":5,"車道__15":"未繪設車道線","車道__16":5,"車道__17":"未繪設快慢車道分隔線","車道__18":2,"車道__19":"無","事故__17":2,"事故__18":"車與車","事故__19":16,"事故__20":"側撞","肇因研":1,"肇因_1":"駕駛人","肇因_12":25,"肇因__13":"違反號誌管制或指揮","severity":"observed"},"geometry":{"type":"Point","coordinates":[120.29477200000008,23.106354000000067]}},{"type":"Feature","id":"real-16","properties":{"featureType":"pointOverlay","overlayKind":"real","sourceFile":"real_point.shp","recordIndex":16,"F____":"109年表一.csv","總編號_":"10903AC991B0968","發生日":20200314,"發生時":124200,"發生年":2020,"發生月":3,"發生星":"六","到場處":20200314,"到場_1":130500,"GPS經度":120.294774,"GPS緯度":23.106353,"案件類":1,"案件_1":"交通事故","事故類":"B","事故_1":"A2","事故_12":-134.999952253,"事故__13":-74.8006605422,"轄區類":1,"地址類":2,"地址_1":"交叉路口","發生縣":67000,"發生_1":"臺南市","發生市":67000200,"發生_12":"新市區","發生地":"67000200006","發生__13":"三舍里","發生__15":6700020000000000.0,"發生__16":"西拉雅大道","發生__22":"口","發生交":"三舍里","發生__23":"省道臺19甲線","公路道":"0","公路_1":"無","發生__12":0.0,"發生__28":0,"發生_平":0,"發生__32":"無","受理單":"AC991","受理_1":"臺南市政府警察局善化分局交通分隊","管轄單":"臺南市政府警察局善化分局新市分駐所","現場處":"AC991","現場_1":"臺南市政府警察局善化分局交通分隊","處理單":"AC000","處理_1":"臺南市政府警察局","處理_12":"AC900","處理__13":"臺南市政府警察局善化分局","處理__14":"AC991","處理__15":"臺南市政府警察局善化分局交通分隊","F24小時":0,"F2_30日":0,"受傷人":1,"天候代":7,"天候名":"陰","光線代":1,"光線名":"日間自然光線","道路類":5,"道路_1":"市區道路","速限_第":50,"道路型":2,"道路_12":"交岔路","道路__13":4,"道路__14":"四岔路","事故位":1,"事故__14":"交叉路口","事故__15":1,"事故__16":"交叉路口內","路面狀":1,"路面_1":"柏油","路面_12":4,"路面__13":"濕潤","路面__14":4,"路面__15":"無缺陷","道路障":5,"道路__15":"無障礙物","道路__16":2,"道路__17":"良好","道路__18":7,"道路__19":"良好","號誌_號":2,"號誌__1":"行車管制號誌(附設行人專用號誌)","號誌__12":1,"號誌__13":"正常","車道劃":5,"車道_1":"無","車道_12":10,"車道__13":"無分向設施","車道__14":5,"車道__15":"未繪設車道線","車道__16":5,"車道__17":"未繪設快慢車道分隔線","車道__18":2,"車道__19":"無","事故__17":2,"事故__18":"車與車","事故__19":16,"事故__20":"側撞","肇因研":1,"肇因_1":"駕駛人","肇因_12":9,"肇因__13":"右轉彎未依規定","severity":"observed"},"geometry":{"type":"Point","coordinates":[120.29477400000007,23.10635300000007]}},{"type":"Feature","id":"real-17","properties":{"featureType":"pointOverlay","overlayKind":"real","sourceFile":"real_point.shp","recordIndex":17,"F____":"109年表一.csv","總編號_":"10904AC991B0267","發生日":20200405,"發生時":135335,"發生年":2020,"發生月":4,"發生星":"日","到場處":20200405,"到場_1":140342,"GPS經度":120.294972,"GPS緯度":23.106167,"案件類":1,"案件_1":"交通事故","事故類":"B","事故_1":"A2","事故_12":-134.999952253,"事故__13":-74.8006605422,"轄區類":1,"地址類":2,"地址_1":"交叉路口","發生縣":67000,"發生_1":"臺南市","發生市":67000200,"發生_12":"新市區","發生地":"67000200006","發生__13":"三舍里","發生__15":6700020000000000.0,"發生__16":"西拉雅大道","發生__22":"附近","發生交":"三舍里","發生__23":"省道臺19甲線","公路道":"0","公路_1":"無","發生__12":0.0,"發生__28":0,"發生_平":0,"發生__32":"無","受理單":"AC991","受理_1":"臺南市政府警察局善化分局交通分隊","管轄單":"臺南市政府警察局善化分局新市分駐所","現場處":"AC991","現場_1":"臺南市政府警察局善化分局交通分隊","處理單":"AC000","處理_1":"臺南市政府警察局","處理_12":"AC900","處理__13":"臺南市政府警察局善化分局","處理__14":"AC991","處理__15":"臺南市政府警察局善化分局交通分隊","報案內":"於上述時地發生交通事故","現場_12":"於上述時地，A方吳岳翰駕駛自小客車BDE-3026自中油加油站內駛出，B方陳德慈騎乘普重機MBT-3583沿西拉雅大道(往東)行駛外側車道，於行經事發地點時，兩車不慎發生碰撞，現場導致B車駕駛1人受","回_結_":"結報","F24小時":0,"F2_30日":0,"受傷人":1,"天候代":8,"天候名":"晴","光線代":1,"光線名":"日間自然光線","道路類":5,"道路_1":"市區道路","速限_第":50,"道路型":2,"道路_12":"交岔路","道路__13":4,"道路__14":"四岔路","事故位":1,"事故__14":"交叉路口","事故__15":2,"事故__16":"交叉口附近","路面狀":1,"路面_1":"柏油","路面_12":5,"路面__13":"乾燥","路面__14":4,"路面__15":"無缺陷","道路障":5,"道路__15":"無障礙物","道路__16":2,"道路__17":"良好","道路__18":7,"道路__19":"良好","號誌_號":1,"號誌__1":"行車管制號誌","號誌__12":1,"號誌__13":"正常","車道劃":1,"車道_1":"中央分向島","車道_12":1,"車道__13":"?式(50公分以上)","車道__14":4,"車道__15":"車道線(無標記)","車道__16":5,"車道__17":"未繪設快慢車道分隔線","車道__18":1,"車道__19":"有","事故__17":2,"事故__18":"車與車","事故__19":17,"事故__20":"其他","肇因研":1,"肇因_1":"駕駛人","肇因_12":19,"肇因__13":"起步未注意其他車(人)安全","severity":"observed"},"geometry":{"type":"Point","coordinates":[120.29497200000003,23.106167000000028]}},{"type":"Feature","id":"real-18","properties":{"featureType":"pointOverlay","overlayKind":"real","sourceFile":"real_point.shp","recordIndex":18,"F____":"109年表一.csv","總編號_":"10905AC991D0239","發生日":20200525,"發生時":85834,"發生年":2020,"發生月":5,"發生星":"一","到場處":20200525,"到場_1":90538,"GPS經度":120.294772,"GPS緯度":23.10638,"案件類":2,"案件_1":"事後報案","事故類":"B","事故_1":"A2","事故_12":-134.999952253,"事故__13":-74.8006605422,"轄區類":1,"地址類":2,"地址_1":"交叉路口","發生縣":67000,"發生_1":"臺南市","發生市":67000200,"發生_12":"新市區","發生地":"67000200006","發生__13":"三舍里","發生__15":6700020000000000.0,"發生__16":"西拉雅大道","發生__22":"口","發生交":"三舍里","發生__23":"省道臺19甲線","公路道":"B","公路_1":"省道","發生_路":"B00038","發生__1":"台19甲線","發生__12":0.0,"發生__28":0,"發生_平":0,"發生__32":"無","受理單":"AC991","受理_1":"臺南市政府警察局善化分局交通分隊","管轄單":"臺南市政府警察局善化分局新市分駐所","現場處":"AC991","現場_1":"臺南市政府警察局善化分局交通分隊","處理單":"AC000","處理_1":"臺南市政府警察局","處理_12":"AC900","處理__13":"臺南市政府警察局善化分局","處理__14":"AC991","處理__15":"臺南市政府警察局善化分局交通分隊","F24小時":0,"F2_30日":0,"受傷人":1,"天候代":8,"天候名":"晴","光線代":1,"光線名":"日間自然光線","道路類":5,"道路_1":"市區道路","速限_第":50,"道路型":2,"道路_12":"交岔路","道路__13":4,"道路__14":"四岔路","事故位":1,"事故__14":"交叉路口","事故__15":1,"事故__16":"交叉路口內","路面狀":1,"路面_1":"柏油","路面_12":5,"路面__13":"乾燥","路面__14":4,"路面__15":"無缺陷","道路障":5,"道路__15":"無障礙物","道路__16":2,"道路__17":"良好","道路__18":7,"道路__19":"良好","號誌_號":2,"號誌__1":"行車管制號誌(附設行人專用號誌)","號誌__12":1,"號誌__13":"正常","車道劃":5,"車道_1":"無","車道_12":10,"車道__13":"無分向設施","車道__14":5,"車道__15":"未繪設車道線","車道__16":5,"車道__17":"未繪設快慢車道分隔線","車道__18":2,"車道__19":"無","事故__17":2,"事故__18":"車與車","事故__19":16,"事故__20":"側撞","肇因研":1,"肇因_1":"駕駛人","肇因_12":26,"肇因__13":"違反特定標誌(線)禁制","severity":"observed"},"geometry":{"type":"Point","coordinates":[120.29477200000008,23.10638000000006]}},{"type":"Feature","id":"real-19","properties":{"featureType":"pointOverlay","overlayKind":"real","sourceFile":"real_point.shp","recordIndex":19,"F____":"109年表一.csv","總編號_":"10906AC991D0279","發生日":20200629,"發生時":201424,"發生年":2020,"發生月":6,"發生星":"一","到場處":20200629,"到場_1":202454,"GPS經度":120.294835,"GPS緯度":23.10609,"案件類":2,"案件_1":"事後報案","事故類":"B","事故_1":"A2","事故_12":-134.999952253,"事故__13":-74.8006605422,"轄區類":1,"地址類":2,"地址_1":"交叉路口","發生縣":67000,"發生_1":"臺南市","發生市":67000200,"發生_12":"新市區","發生地":"67000200006","發生__13":"三舍里","發生__15":6700020000000000.0,"發生__16":"省道臺19甲線","發生__22":"口","發生交":"三舍里","發生__23":"西拉雅大道","發生__27":"三舍里臺19甲線與西拉雅大道","公路道":"B","公路_1":"省道","發生_路":"B00038","發生__1":"台19甲線","發生__12":0.0,"發生__28":0,"發生_平":0,"發生__32":"無","受理單":"AC991","受理_1":"臺南市政府警察局善化分局交通分隊","管轄單":"臺南市政府警察局善化分局新市分駐所","現場處":"AC991","現場_1":"臺南市政府警察局善化分局交通分隊","處理單":"AC000","處理_1":"臺南市政府警察局","處理_12":"AC900","處理__13":"臺南市政府警察局善化分局","處理__14":"AC991","處理__15":"臺南市政府警察局善化分局交通分隊","F24小時":0,"F2_30日":0,"受傷人":1,"天候代":8,"天候名":"晴","光線代":3,"光線名":"夜間(或隧道、地下道、涵洞)有照明","道路類":5,"道路_1":"市區道路","速限_第":50,"道路型":2,"道路_12":"交岔路","道路__13":4,"道路__14":"四岔路","事故位":1,"事故__14":"交叉路口","事故__15":1,"事故__16":"交叉路口內","路面狀":1,"路面_1":"柏油","路面_12":5,"路面__13":"乾燥","路面__14":4,"路面__15":"無缺陷","道路障":5,"道路__15":"無障礙物","道路__16":2,"道路__17":"良好","道路__18":7,"道路__19":"良好","號誌_號":1,"號誌__1":"行車管制號誌","號誌__12":1,"號誌__13":"正常","車道劃":5,"車道_1":"無","車道_12":10,"車道__13":"無分向設施","車道__14":5,"車道__15":"未繪設車道線","車道__16":5,"車道__17":"未繪設快慢車道分隔線","車道__18":2,"車道__19":"無","事故__17":2,"事故__18":"車與車","事故__19":12,"事故__20":"同向擦撞","肇因研":4,"肇因_1":"其他","肇因_12":43,"肇因__13":"不明原因肇事","severity":"observed"},"geometry":{"type":"Point","coordinates":[120.29483500000003,23.10609000000005]}},{"type":"Feature","id":"real-20","properties":{"featureType":"pointOverlay","overlayKind":"real","sourceFile":"real_point.shp","recordIndex":20,"F____":"109年表一.csv","總編號_":"10907AC991B1396","發生日":20200720,"發生時":211443,"發生年":2020,"發生月":7,"發生星":"一","到場處":20200720,"到場_1":212548,"GPS經度":120.294798,"GPS緯度":23.106117,"案件類":1,"案件_1":"交通事故","事故類":"B","事故_1":"A2","事故_12":-134.999952253,"事故__13":-74.8006605422,"轄區類":1,"地址類":2,"地址_1":"交叉路口","發生縣":67000,"發生_1":"臺南市","發生市":67000200,"發生_12":"新市區","發生地":"67000200006","發生__13":"三舍里","發生__15":6700020000000000.0,"發生__16":"省道臺19甲線","發生__22":"口","發生交":"三舍里","發生__23":"西拉雅大道","公路道":"B","公路_1":"省道","發生_路":"B00038","發生__1":"台19甲線","發生__12":0.0,"發生__28":0,"發生_平":0,"發生__32":"無","受理單":"AC991","受理_1":"臺南市政府警察局善化分局交通分隊","管轄單":"臺南市政府警察局善化分局新市分駐所","現場處":"AC991","現場_1":"臺南市政府警察局善化分局交通分隊","處理單":"AC000","處理_1":"臺南市政府警察局","處理_12":"AC900","處理__13":"臺南市政府警察局善化分局","處理__14":"AC991","處理__15":"臺南市政府警察局善化分局交通分隊","F24小時":0,"F2_30日":0,"受傷人":1,"天候代":8,"天候名":"晴","光線代":3,"光線名":"夜間(或隧道、地下道、涵洞)有照明","道路類":5,"道路_1":"市區道路","速限_第":70,"道路型":2,"道路_12":"交岔路","道路__13":4,"道路__14":"四岔路","事故位":1,"事故__14":"交叉路口","事故__15":1,"事故__16":"交叉路口內","路面狀":1,"路面_1":"柏油","路面_12":5,"路面__13":"乾燥","路面__14":4,"路面__15":"無缺陷","道路障":5,"道路__15":"無障礙物","道路__16":2,"道路__17":"良好","道路__18":7,"道路__19":"良好","號誌_號":2,"號誌__1":"行車管制號誌(附設行人專用號誌)","號誌__12":1,"號誌__13":"正常","車道劃":5,"車道_1":"無","車道_12":10,"車道__13":"無分向設施","車道__14":5,"車道__15":"未繪設車道線","車道__16":5,"車道__17":"未繪設快慢車道分隔線","車道__18":2,"車道__19":"無","事故__17":2,"事故__18":"車與車","事故__19":16,"事故__20":"側撞","肇因研":1,"肇因_1":"駕駛人","肇因_12":9,"肇因__13":"右轉彎未依規定","severity":"observed"},"geometry":{"type":"Point","coordinates":[120.29479800000001,23.10611700000004]}},{"type":"Feature","id":"real-21","properties":{"featureType":"pointOverlay","overlayKind":"real","sourceFile":"real_point.shp","recordIndex":21,"F____":"109年表一.csv","總編號_":"10909AC991B0865","發生日":20200915,"發生時":73300,"發生年":2020,"發生月":9,"發生星":"二","到場處":20200915,"到場_1":80500,"GPS經度":120.294618,"GPS緯度":23.106263,"案件類":1,"案件_1":"交通事故","事故類":"B","事故_1":"A2","事故_12":-134.999952253,"事故__13":-74.8006605422,"轄區類":1,"地址類":2,"地址_1":"交叉路口","發生縣":67000,"發生_1":"臺南市","發生市":67000200,"發生_12":"新市區","發生地":"67000200006","發生__13":"三舍里","發生__15":6700020000000000.0,"發生__16":"省道臺19甲線","發生__22":"口","發生交":"三舍里","發生__23":"西拉雅大道","公路道":"B","公路_1":"省道","發生_路":"B00038","發生__1":"台19甲線","發生__12":27.0,"發生__28":300,"發生__29":"口","發生_平":0,"發生__32":"無","受理單":"AC991","受理_1":"臺南市政府警察局善化分局交通分隊","管轄單":"臺南市政府警察局善化分局新市分駐所","現場處":"AC991","現場_1":"臺南市政府警察局善化分局交通分隊","處理單":"AC000","處理_1":"臺南市政府警察局","處理_12":"AC900","處理__13":"臺南市政府警察局善化分局","處理__14":"AC991","處理__15":"臺南市政府警察局善化分局交通分隊","F24小時":0,"F2_30日":0,"受傷人":2,"天候代":8,"天候名":"晴","光線代":1,"光線名":"日間自然光線","道路類":2,"道路_1":"省道","速限_第":70,"道路型":2,"道路_12":"交岔路","道路__13":4,"道路__14":"四岔路","事故位":1,"事故__14":"交叉路口","事故__15":1,"事故__16":"交叉路口內","路面狀":1,"路面_1":"柏油","路面_12":5,"路面__13":"乾燥","路面__14":4,"路面__15":"無缺陷","道路障":5,"道路__15":"無障礙物","道路__16":2,"道路__17":"良好","道路__18":7,"道路__19":"良好","號誌_號":1,"號誌__1":"行車管制號誌","號誌__12":1,"號誌__13":"正常","車道劃":5,"車道_1":"無","車道_12":10,"車道__13":"無分向設施","車道__14":5,"車道__15":"未繪設車道線","車道__16":5,"車道__17":"未繪設快慢車道分隔線","車道__18":2,"車道__19":"無","事故__17":2,"事故__18":"車與車","事故__19":16,"事故__20":"側撞","肇因研":1,"肇因_1":"駕駛人","肇因_12":25,"肇因__13":"違反號誌管制或指揮","severity":"observed"},"geometry":{"type":"Point","coordinates":[120.29461800000001,23.10626300000007]}},{"type":"Feature","id":"real-22","properties":{"featureType":"pointOverlay","overlayKind":"real","sourceFile":"real_point.shp","recordIndex":22,"F____":"109年表一.csv","總編號_":"10909AC991B2426","發生日":20200908,"發生時":184042,"發生年":2020,"發生月":9,"發生星":"二","到場處":20200908,"到場_1":184915,"GPS經度":120.294807,"GPS緯度":23.106134,"案件類":1,"案件_1":"交通事故","事故類":"B","事故_1":"A2","事故_12":-134.999952253,"事故__13":-74.8006605422,"轄區類":1,"地址類":2,"地址_1":"交叉路口","發生縣":67000,"發生_1":"臺南市","發生市":67000200,"發生_12":"新市區","發生地":"67000200006","發生__13":"三舍里","發生__15":6700020000000000.0,"發生__16":"省道臺19甲線","發生__22":"口","發生交":"三舍里","發生__23":"西拉雅大道","公路道":"B","公路_1":"省道","發生_路":"B00038","發生__1":"台19甲線","發生__12":0.0,"發生__28":0,"發生_平":0,"發生__32":"無","受理單":"AC991","受理_1":"臺南市政府警察局善化分局交通分隊","管轄單":"臺南市政府警察局善化分局新市分駐所","現場處":"AC991","現場_1":"臺南市政府警察局善化分局交通分隊","處理單":"AC000","處理_1":"臺南市政府警察局","處理_12":"AC900","處理__13":"臺南市政府警察局善化分局","處理__14":"AC991","處理__15":"臺南市政府警察局善化分局交通分隊","F24小時":0,"F2_30日":0,"受傷人":1,"天候代":8,"天候名":"晴","光線代":3,"光線名":"夜間(或隧道、地下道、涵洞)有照明","道路類":5,"道路_1":"市區道路","速限_第":50,"道路型":2,"道路_12":"交岔路","道路__13":4,"道路__14":"四岔路","事故位":1,"事故__14":"交叉路口","事故__15":1,"事故__16":"交叉路口內","路面狀":1,"路面_1":"柏油","路面_12":5,"路面__13":"乾燥","路面__14":4,"路面__15":"無缺陷","道路障":5,"道路__15":"無障礙物","道路__16":2,"道路__17":"良好","道路__18":7,"道路__19":"良好","號誌_號":1,"號誌__1":"行車管制號誌","號誌__12":1,"號誌__13":"正常","車道劃":5,"車道_1":"無","車道_12":10,"車道__13":"無分向設施","車道__14":5,"車道__15":"未繪設車道線","車道__16":5,"車道__17":"未繪設快慢車道分隔線","車道__18":2,"車道__19":"無","事故__17":2,"事故__18":"車與車","事故__19":16,"事故__20":"側撞","肇因研":1,"肇因_1":"駕駛人","肇因_12":6,"肇因__13":"未依規定讓車","severity":"observed"},"geometry":{"type":"Point","coordinates":[120.2948070000001,23.106134000000054]}},{"type":"Feature","id":"real-23","properties":{"featureType":"pointOverlay","overlayKind":"real","sourceFile":"real_point.shp","recordIndex":23,"F____":"109年表一.csv","總編號_":"10909AC991D0215","發生日":20200923,"發生時":81900,"發生年":2020,"發生月":9,"發生星":"三","到場處":20200923,"到場_1":180034,"GPS經度":120.294712,"GPS緯度":23.106313,"案件類":2,"案件_1":"事後報案","事故類":"B","事故_1":"A2","事故_12":-134.999952253,"事故__13":-74.8006605422,"轄區類":1,"地址類":2,"地址_1":"交叉路口","發生縣":67000,"發生_1":"臺南市","發生市":67000200,"發生_12":"新市區","發生地":"67000200006","發生__13":"三舍里","發生__15":6700020000000000.0,"發生__16":"省道臺19甲線","發生__22":"口","發生交":"三舍里","發生__23":"西拉雅大道","公路道":"B","公路_1":"省道","發生_路":"B00038","發生__1":"台19甲線","發生__12":0.0,"發生__28":0,"發生_平":0,"發生__32":"無","受理單":"AC991","受理_1":"臺南市政府警察局善化分局交通分隊","管轄單":"臺南市政府警察局善化分局新市分駐所","現場處":"AC991","現場_1":"臺南市政府警察局善化分局交通分隊","處理單":"AC000","處理_1":"臺南市政府警察局","處理_12":"AC900","處理__13":"臺南市政府警察局善化分局","處理__14":"AC991","處理__15":"臺南市政府警察局善化分局交通分隊","F24小時":0,"F2_30日":0,"受傷人":1,"天候代":8,"天候名":"晴","光線代":1,"光線名":"日間自然光線","道路類":5,"道路_1":"市區道路","速限_第":50,"道路型":2,"道路_12":"交岔路","道路__13":4,"道路__14":"四岔路","事故位":1,"事故__14":"交叉路口","事故__15":1,"事故__16":"交叉路口內","路面狀":1,"路面_1":"柏油","路面_12":5,"路面__13":"乾燥","路面__14":4,"路面__15":"無缺陷","道路障":5,"道路__15":"無障礙物","道路__16":2,"道路__17":"良好","道路__18":7,"道路__19":"良好","號誌_號":2,"號誌__1":"行車管制號誌(附設行人專用號誌)","號誌__12":1,"號誌__13":"正常","車道劃":5,"車道_1":"無","車道_12":10,"車道__13":"無分向設施","車道__14":5,"車道__15":"未繪設車道線","車道__16":5,"車道__17":"未繪設快慢車道分隔線","車道__18":2,"車道__19":"無","事故__17":3,"事故__18":"汽(機)車本身","事故__19":24,"事故__20":"撞非固定設施","肇因研":1,"肇因_1":"駕駛人","肇因_12":23,"肇因__13":"未注意車前狀態","severity":"observed"},"geometry":{"type":"Point","coordinates":[120.29471200000012,23.106313000000057]}},{"type":"Feature","id":"real-24","properties":{"featureType":"pointOverlay","overlayKind":"real","sourceFile":"real_point.shp","recordIndex":24,"F____":"110年表一.csv","總編號_":"11003AC9Y1B2243","發生日":20210326,"發生時":195700,"發生年":2021,"發生月":3,"發生星":"五","到場處":20210326,"到場_1":201000,"GPS經度":120.294772,"GPS緯度":23.106378,"案件類":1,"案件_1":"交通事故","事故類":"B","事故_1":"A2","事故_12":-134.999952253,"事故__13":-74.8006605422,"轄區類":1,"地址類":2,"地址_1":"交叉路口","發生縣":67000,"發生_1":"臺南市","發生市":67000200,"發生_12":"新市區","發生地":"67000200006","發生__13":"三舍里","發生__15":6700020000000000.0,"發生__16":"西拉雅大道","發生__22":"口","發生交":"三舍里","發生__23":"省道臺19甲線","公路道":"B","公路_1":"省道","發生_路":"B00038","發生__1":"台19甲線","發生__12":0.0,"發生__28":0,"發生_平":0,"發生__32":"無","受理單":"AC991","受理_1":"臺南市政府警察局善化分局交通分隊","管轄單":"臺南市政府警察局善化分局新市分駐所","現場處":"AC9Y1","現場_1":"臺南市政府警察局善化分局善化派出所","處理單":"AC000","處理_1":"臺南市政府警察局","處理_12":"AC900","處理__13":"臺南市政府警察局善化分局","處理__14":"AC9Y1","處理__15":"臺南市政府警察局善化分局善化派出所","現場_12":"陳玉涵駕駛AJB-9906自小客車(A車)沿西拉雅大道外側快車道東往西至事故路口進行右轉時，與同向機慢車道之施泰祥駕駛NDZ-7679普重機車(B車)發生碰撞。A車右車門與B車前車頭發生碰撞。施泰祥受","F24小時":0,"F2_30日":0,"受傷人":1,"天候代":8,"天候名":"晴","光線代":1,"光線名":"日間自然光線","道路類":3,"道路_1":"縣道","速限_第":50,"道路型":2,"道路_12":"交岔路","道路__13":4,"道路__14":"四岔路","事故位":1,"事故__14":"交叉路口","事故__15":1,"事故__16":"交叉路口內","路面狀":1,"路面_1":"柏油","路面_12":5,"路面__13":"乾燥","路面__14":4,"路面__15":"無缺陷","道路障":5,"道路__15":"無障礙物","道路__16":2,"道路__17":"良好","道路__18":7,"道路__19":"良好","號誌_號":1,"號誌__1":"行車管制號誌","號誌__12":1,"號誌__13":"正常","車道劃":5,"車道_1":"無","車道_12":10,"車道__13":"無分向設施","車道__14":5,"車道__15":"未繪設車道線","車道__16":5,"車道__17":"未繪設快慢車道分隔線","車道__18":2,"車道__19":"無","事故__17":2,"事故__18":"車與車","事故__19":16,"事故__20":"側撞","肇因研":1,"肇因_1":"駕駛人","肇因_12":9,"肇因__13":"右轉彎未依規定","severity":"observed"},"geometry":{"type":"Point","coordinates":[120.29477200000008,23.106378000000063]}},{"type":"Feature","id":"real-25","properties":{"featureType":"pointOverlay","overlayKind":"real","sourceFile":"real_point.shp","recordIndex":25,"F____":"110年表一.csv","總編號_":"11005AC991B0798","發生日":20210511,"發生時":74303,"發生年":2021,"發生月":5,"發生星":"二","到場處":20210511,"到場_1":75416,"GPS經度":120.294816,"GPS緯度":23.106115,"案件類":1,"案件_1":"交通事故","事故類":"B","事故_1":"A2","事故_12":-134.999952253,"事故__13":-74.8006605422,"轄區類":1,"地址類":2,"地址_1":"交叉路口","發生縣":67000,"發生_1":"臺南市","發生市":67000200,"發生_12":"新市區","發生地":"67000200006","發生__13":"三舍里","發生__15":6700020000000000.0,"發生__16":"省道臺19甲線","發生__22":"口","發生交":"三舍里","發生__23":"西拉雅大道","公路道":"B","公路_1":"省道","發生_路":"B00038","發生__1":"台19甲線","發生__12":0.0,"發生__28":0,"發生_平":0,"發生__32":"無","受理單":"AC991","受理_1":"臺南市政府警察局善化分局交通分隊","管轄單":"臺南市政府警察局善化分局新市分駐所","現場處":"AC991","現場_1":"臺南市政府警察局善化分局交通分隊","處理單":"AC000","處理_1":"臺南市政府警察局","處理_12":"AC900","處理__13":"臺南市政府警察局善化分局","處理__14":"AC991","處理__15":"臺南市政府警察局善化分局交通分隊","F24小時":0,"F2_30日":0,"受傷人":1,"天候代":8,"天候名":"晴","光線代":1,"光線名":"日間自然光線","道路類":5,"道路_1":"市區道路","速限_第":50,"道路型":2,"道路_12":"交岔路","道路__13":4,"道路__14":"四岔路","事故位":1,"事故__14":"交叉路口","事故__15":1,"事故__16":"交叉路口內","路面狀":1,"路面_1":"柏油","路面_12":5,"路面__13":"乾燥","路面__14":4,"路面__15":"無缺陷","道路障":5,"道路__15":"無障礙物","道路__16":2,"道路__17":"良好","道路__18":7,"道路__19":"良好","號誌_號":1,"號誌__1":"行車管制號誌","號誌__12":1,"號誌__13":"正常","車道劃":5,"車道_1":"無","車道_12":10,"車道__13":"無分向設施","車道__14":5,"車道__15":"未繪設車道線","車道__16":5,"車道__17":"未繪設快慢車道分隔線","車道__18":2,"車道__19":"無","事故__17":2,"事故__18":"車與車","事故__19":16,"事故__20":"側撞","肇因研":1,"肇因_1":"駕駛人","肇因_12":23,"肇因__13":"未注意車前狀態","severity":"observed"},"geometry":{"type":"Point","coordinates":[120.29481600000008,23.106115000000045]}},{"type":"Feature","id":"real-26","properties":{"featureType":"pointOverlay","overlayKind":"real","sourceFile":"real_point.shp","recordIndex":26,"F____":"110年表一.csv","總編號_":"11006AC991B1224","發生日":20210621,"發生時":83022,"發生年":2021,"發生月":6,"發生星":"一","到場處":20210621,"到場_1":83534,"GPS經度":120.294753,"GPS緯度":23.106333,"案件類":1,"案件_1":"交通事故","事故類":"B","事故_1":"A2","事故_12":-134.999952253,"事故__13":-74.8006605422,"轄區類":1,"地址類":2,"地址_1":"交叉路口","發生縣":67000,"發生_1":"臺南市","發生市":67000200,"發生_12":"新市區","發生地":"67000200006","發生__13":"三舍里","發生__15":6700020000000000.0,"發生__16":"西拉雅大道","發生__22":"口","發生交":"三舍里","發生__23":"省道臺19甲線","公路道":"B","公路_1":"省道","發生_路":"B00038","發生__1":"台19甲線","發生__12":0.0,"發生__28":0,"發生_平":0,"發生__32":"無","受理單":"AC991","受理_1":"臺南市政府警察局善化分局交通分隊","管轄單":"臺南市政府警察局善化分局新市分駐所","現場處":"AC991","現場_1":"臺南市政府警察局善化分局交通分隊","處理單":"AC000","處理_1":"臺南市政府警察局","處理_12":"AC900","處理__13":"臺南市政府警察局善化分局","處理__14":"AC991","處理__15":"臺南市政府警察局善化分局交通分隊","F24小時":0,"F2_30日":0,"受傷人":1,"天候代":6,"天候名":"雨","光線代":1,"光線名":"日間自然光線","道路類":5,"道路_1":"市區道路","速限_第":50,"道路型":2,"道路_12":"交岔路","道路__13":4,"道路__14":"四岔路","事故位":1,"事故__14":"交叉路口","事故__15":2,"事故__16":"交叉口附近","路面狀":1,"路面_1":"柏油","路面_12":4,"路面__13":"濕潤","路面__14":4,"路面__15":"無缺陷","道路障":5,"道路__15":"無障礙物","道路__16":2,"道路__17":"良好","道路__18":7,"道路__19":"良好","號誌_號":1,"號誌__1":"行車管制號誌","號誌__12":1,"號誌__13":"正常","車道劃":5,"車道_1":"無","車道_12":10,"車道__13":"無分向設施","車道__14":4,"車道__15":"車道線(無標記)","車道__16":1,"車道__17":"?式快慢車道分隔島(50公分以上)","車道__18":1,"車道__19":"有","事故__17":2,"事故__18":"車與車","事故__19":16,"事故__20":"側撞","肇因研":1,"肇因_1":"駕駛人","肇因_12":26,"肇因__13":"違反特定標誌(線)禁制","severity":"observed"},"geometry":{"type":"Point","coordinates":[120.29475300000001,23.106333000000063]}},{"type":"Feature","id":"real-27","properties":{"featureType":"pointOverlay","overlayKind":"real","sourceFile":"real_point.shp","recordIndex":27,"F____":"110年表一.csv","總編號_":"11007AC991B0951","發生日":20210715,"發生時":82007,"發生年":2021,"發生月":7,"發生星":"四","到場處":20210715,"到場_1":82500,"GPS經度":120.294814,"GPS緯度":23.106088,"案件類":1,"案件_1":"交通事故","事故類":"B","事故_1":"A2","事故_12":-134.999952253,"事故__13":-74.8006605422,"轄區類":1,"地址類":2,"地址_1":"交叉路口","發生縣":67000,"發生_1":"臺南市","發生市":67000200,"發生_12":"新市區","發生地":"67000200006","發生__13":"三舍里","發生__15":6700020000000000.0,"發生__16":"省道臺19甲線","發生__22":"東側","發生交":"三舍里","發生__23":"西拉雅大道","公路道":"B","公路_1":"省道","發生_路":"B00038","發生__1":"台19甲線","發生__12":0.0,"發生__28":0,"發生_平":0,"發生__32":"無","受理單":"AC991","受理_1":"臺南市政府警察局善化分局交通分隊","管轄單":"臺南市政府警察局善化分局新市分駐所","現場處":"AC991","現場_1":"臺南市政府警察局善化分局交通分隊","處理單":"AC000","處理_1":"臺南市政府警察局","處理_12":"AC900","處理__13":"臺南市政府警察局善化分局","處理__14":"AC991","處理__15":"臺南市政府警察局善化分局交通分隊","F24小時":0,"F2_30日":0,"受傷人":1,"天候代":8,"天候名":"晴","光線代":1,"光線名":"日間自然光線","道路類":5,"道路_1":"市區道路","速限_第":50,"道路型":2,"道路_12":"交岔路","道路__13":4,"道路__14":"四岔路","事故位":1,"事故__14":"交叉路口","事故__15":1,"事故__16":"交叉路口內","路面狀":1,"路面_1":"柏油","路面_12":5,"路面__13":"乾燥","路面__14":4,"路面__15":"無缺陷","道路障":5,"道路__15":"無障礙物","道路__16":2,"道路__17":"良好","道路__18":7,"道路__19":"良好","號誌_號":4,"號誌__1":"無號誌","號誌__12":4,"號誌__13":"無號誌","車道劃":5,"車道_1":"無","車道_12":10,"車道__13":"無分向設施","車道__14":5,"車道__15":"未繪設車道線","車道__16":5,"車道__17":"未繪設快慢車道分隔線","車道__18":2,"車道__19":"無","事故__17":2,"事故__18":"車與車","事故__19":16,"事故__20":"側撞","肇因研":1,"肇因_1":"駕駛人","肇因_12":6,"肇因__13":"未依規定讓車","severity":"observed"},"geometry":{"type":"Point","coordinates":[120.29481400000009,23.106088000000057]}},{"type":"Feature","id":"real-28","properties":{"featureType":"pointOverlay","overlayKind":"real","sourceFile":"real_point.shp","recordIndex":28,"F____":"110年表一.csv","總編號_":"11009AC991B0711","發生日":20210910,"發生時":81600,"發生年":2021,"發生月":9,"發生星":"五","到場處":20210910,"到場_1":82353,"GPS經度":120.294765,"GPS緯度":23.106141,"案件類":1,"案件_1":"交通事故","事故類":"B","事故_1":"A2","事故_12":-134.999952253,"事故__13":-74.8006605422,"轄區類":1,"地址類":2,"地址_1":"交叉路口","發生縣":67000,"發生_1":"臺南市","發生市":67000200,"發生_12":"新市區","發生地":"67000200006","發生__13":"三舍里","發生__15":6700020000000000.0,"發生__16":"省道臺19甲線","發生__22":"口","發生交":"三舍里","發生__23":"西拉雅大道","公路道":"0","公路_1":"無","發生__12":0.0,"發生__28":0,"發生_平":0,"發生__32":"無","受理單":"AC991","受理_1":"臺南市政府警察局善化分局交通分隊","管轄單":"臺南市政府警察局善化分局新市分駐所","現場處":"AC991","現場_1":"臺南市政府警察局善化分局交通分隊","處理單":"AC000","處理_1":"臺南市政府警察局","處理_12":"AC900","處理__13":"臺南市政府警察局善化分局","處理__14":"AC991","處理__15":"臺南市政府警察局善化分局交通分隊","F24小時":0,"F2_30日":0,"受傷人":1,"天候代":8,"天候名":"晴","光線代":1,"光線名":"日間自然光線","道路類":6,"道路_1":"村里道路","速限_第":50,"道路型":2,"道路_12":"交岔路","道路__13":4,"道路__14":"四岔路","事故位":1,"事故__14":"交叉路口","事故__15":1,"事故__16":"交叉路口內","路面狀":1,"路面_1":"柏油","路面_12":5,"路面__13":"乾燥","路面__14":4,"路面__15":"無缺陷","道路障":5,"道路__15":"無障礙物","道路__16":2,"道路__17":"良好","道路__18":7,"道路__19":"良好","號誌_號":1,"號誌__1":"行車管制號誌","號誌__12":1,"號誌__13":"正常","車道劃":5,"車道_1":"無","車道_12":10,"車道__13":"無分向設施","車道__14":5,"車道__15":"未繪設車道線","車道__16":5,"車道__17":"未繪設快慢車道分隔線","車道__18":2,"車道__19":"無","事故__17":2,"事故__18":"車與車","事故__19":13,"事故__20":"追撞","肇因研":1,"肇因_1":"駕駛人","肇因_12":16,"肇因__13":"未保持行車安全距離","severity":"observed"},"geometry":{"type":"Point","coordinates":[120.2947650000001,23.106141000000036]}},{"type":"Feature","id":"real-29","properties":{"featureType":"pointOverlay","overlayKind":"real","sourceFile":"real_point.shp","recordIndex":29,"F____":"110年表一.csv","總編號_":"11009AC991B2002","發生日":20210923,"發生時":94600,"發生年":2021,"發生月":9,"發生星":"四","到場處":20210923,"到場_1":100000,"GPS經度":120.294768,"GPS緯度":23.106341,"案件類":1,"案件_1":"交通事故","事故類":"B","事故_1":"A2","事故_12":-134.999952253,"事故__13":-74.8006605422,"轄區類":1,"地址類":2,"地址_1":"交叉路口","發生縣":67000,"發生_1":"臺南市","發生市":67000200,"發生_12":"新市區","發生地":"67000200006","發生__13":"三舍里","發生__15":6700020000000000.0,"發生__16":"省道臺19甲線","發生__22":"口","發生交":"三舍里","發生__23":"西拉雅大道","公路道":"0","公路_1":"無","發生__12":0.0,"發生__28":0,"發生_平":0,"發生__32":"無","受理單":"AC991","受理_1":"臺南市政府警察局善化分局交通分隊","管轄單":"臺南市政府警察局善化分局新市分駐所","現場處":"AC991","現場_1":"臺南市政府警察局善化分局交通分隊","處理單":"AC000","處理_1":"臺南市政府警察局","處理_12":"AC900","處理__13":"臺南市政府警察局善化分局","處理__14":"AC991","處理__15":"臺南市政府警察局善化分局交通分隊","F24小時":0,"F2_30日":0,"受傷人":1,"天候代":8,"天候名":"晴","光線代":1,"光線名":"日間自然光線","道路類":5,"道路_1":"市區道路","速限_第":50,"道路型":2,"道路_12":"交岔路","道路__13":4,"道路__14":"四岔路","事故位":1,"事故__14":"交叉路口","事故__15":1,"事故__16":"交叉路口內","路面狀":1,"路面_1":"柏油","路面_12":5,"路面__13":"乾燥","路面__14":4,"路面__15":"無缺陷","道路障":5,"道路__15":"無障礙物","道路__16":2,"道路__17":"良好","道路__18":7,"道路__19":"良好","號誌_號":2,"號誌__1":"行車管制號誌(附設行人專用號誌)","號誌__12":1,"號誌__13":"正常","車道劃":1,"車道_1":"中央分向島","車道_12":1,"車道__13":"?式(50公分以上)","車道__14":4,"車道__15":"車道線(無標記)","車道__16":4,"車道__17":"快慢車道分隔線","車道__18":1,"車道__19":"有","事故__17":2,"事故__18":"車與車","事故__19":17,"事故__20":"其他","肇因研":1,"肇因_1":"駕駛人","肇因_12":25,"肇因__13":"違反號誌管制或指揮","severity":"observed"},"geometry":{"type":"Point","coordinates":[120.29476800000009,23.106341000000043]}},{"type":"Feature","id":"real-30","properties":{"featureType":"pointOverlay","overlayKind":"real","sourceFile":"real_point.shp","recordIndex":30,"F____":"110年表一.csv","總編號_":"11010AC991B3332","發生日":20211008,"發生時":91844,"發生年":2021,"發生月":10,"發生星":"五","到場處":20211008,"到場_1":92854,"GPS經度":120.294774,"GPS緯度":23.106292,"案件類":1,"案件_1":"交通事故","事故類":"B","事故_1":"A2","事故_12":-134.999952253,"事故__13":-74.8006605422,"轄區類":1,"地址類":2,"地址_1":"交叉路口","發生縣":67000,"發生_1":"臺南市","發生市":67000200,"發生_12":"新市區","發生地":"67000200006","發生__13":"三舍里","發生__15":6700020000000000.0,"發生__16":"西拉雅大道","發生__22":"東側","發生__23":"省道臺19甲線","公路道":"0","公路_1":"無","發生__12":0.0,"發生__28":0,"發生_平":0,"發生__32":"無","受理單":"AC991","受理_1":"臺南市政府警察局善化分局交通分隊","管轄單":"臺南市政府警察局善化分局新市分駐所","現場處":"AC991","現場_1":"臺南市政府警察局善化分局交通分隊","處理單":"AC000","處理_1":"臺南市政府警察局","處理_12":"AC900","處理__13":"臺南市政府警察局善化分局","處理__14":"AC991","處理__15":"臺南市政府警察局善化分局交通分隊","F24小時":0,"F2_30日":0,"受傷人":1,"天候代":8,"天候名":"晴","光線代":1,"光線名":"日間自然光線","道路類":5,"道路_1":"市區道路","速限_第":50,"道路型":2,"道路_12":"交岔路","道路__13":4,"道路__14":"四岔路","事故位":1,"事故__14":"交叉路口","事故__15":1,"事故__16":"交叉路口內","路面狀":1,"路面_1":"柏油","路面_12":5,"路面__13":"乾燥","路面__14":4,"路面__15":"無缺陷","道路障":5,"道路__15":"無障礙物","道路__16":2,"道路__17":"良好","道路__18":7,"道路__19":"良好","號誌_號":1,"號誌__1":"行車管制號誌","號誌__12":1,"號誌__13":"正常","車道劃":5,"車道_1":"無","車道_12":10,"車道__13":"無分向設施","車道__14":5,"車道__15":"未繪設車道線","車道__16":5,"車道__17":"未繪設快慢車道分隔線","車道__18":2,"車道__19":"無","事故__17":2,"事故__18":"車與車","事故__19":16,"事故__20":"側撞","肇因研":1,"肇因_1":"駕駛人","肇因_12":26,"肇因__13":"違反特定標誌(線)禁制","severity":"observed"},"geometry":{"type":"Point","coordinates":[120.29477400000007,23.106292000000053]}},{"type":"Feature","id":"real-31","properties":{"featureType":"pointOverlay","overlayKind":"real","sourceFile":"real_point.shp","recordIndex":31,"F____":"110年表一.csv","總編號_":"11012AC991B0009","發生日":20211201,"發生時":84100,"發生年":2021,"發生月":12,"發生星":"三","到場處":20211201,"到場_1":92000,"GPS經度":120.294618,"GPS緯度":23.106263,"案件類":1,"案件_1":"交通事故","事故類":"B","事故_1":"A2","事故_12":-134.999952253,"事故__13":-74.8006605422,"轄區類":1,"地址類":2,"地址_1":"交叉路口","發生縣":67000,"發生_1":"臺南市","發生市":67000190,"發生_12":"善化區","發生__15":6700020000000000.0,"發生__16":"省道臺19甲線","發生__22":"南側","發生__23":"西拉雅大道","公路道":"B","公路_1":"省道","發生_路":"B00038","發生__1":"台19甲線","發生__12":0.0,"發生__28":0,"發生__29":"南側","發生__30":"99","發生_平":0,"發生__32":"無","受理單":"AC991","受理_1":"臺南市政府警察局善化分局交通分隊","管轄單":"臺南市政府警察局善化分局善化派出所","現場處":"AC991","現場_1":"臺南市政府警察局善化分局交通分隊","處理單":"AC000","處理_1":"臺南市政府警察局","處理_12":"AC900","處理__13":"臺南市政府警察局善化分局","處理__14":"AC991","處理__15":"臺南市政府警察局善化分局交通分隊","現場_12":"周立志駕駛BHR-6881號自小客車沿台19甲線北往南向外側車道右偏往右轉引道與其右側向左偏向欲至外側直行車道張允婷駕駛之MNU-5926號普重機車發生碰撞，致張允婷受傷自行就醫。","F24小時":0,"F2_30日":0,"受傷人":1,"天候代":8,"天候名":"晴","光線代":1,"光線名":"日間自然光線","道路類":2,"道路_1":"省道","速限_第":50,"道路型":2,"道路_12":"交岔路","道路__13":3,"道路__14":"三岔路","事故位":1,"事故__14":"交叉路口","事故__15":2,"事故__16":"交叉口附近","路面狀":1,"路面_1":"柏油","路面_12":5,"路面__13":"乾燥","路面__14":4,"路面__15":"無缺陷","道路障":5,"道路__15":"無障礙物","道路__16":2,"道路__17":"良好","道路__18":7,"道路__19":"良好","號誌_號":1,"號誌__1":"行車管制號誌","號誌__12":1,"號誌__13":"正常","車道劃":1,"車道_1":"中央分向島","車道_12":1,"車道__13":"?式(50公分以上)","車道__14":4,"車道__15":"車道線(無標記)","車道__16":5,"車道__17":"未繪設快慢車道分隔線","車道__18":1,"車道__19":"有","事故__17":2,"事故__18":"車與車","事故__19":16,"事故__20":"側撞","肇因研":1,"肇因_1":"駕駛人","肇因_12":9,"肇因__13":"右轉彎未依規定","severity":"observed"},"geometry":{"type":"Point","coordinates":[120.29461800000001,23.10626300000007]}},{"type":"Feature","id":"real-32","properties":{"featureType":"pointOverlay","overlayKind":"real","sourceFile":"real_point.shp","recordIndex":32,"F____":"111年表一.csv","總編號_":"11101AC991B2413","發生日":20220120,"發生時":73800,"發生年":2022,"發生月":1,"發生星":"四","到場處":20220120,"到場_1":80000,"GPS經度":120.29468,"GPS緯度":23.106275,"案件類":1,"案件_1":"交通事故","事故類":"B","事故_1":"A2","事故_12":-134.999952253,"事故__13":-74.8006605422,"轄區類":1,"地址類":2,"地址_1":"交叉路口","發生縣":67000,"發生_1":"臺南市","發生市":67000190,"發生_12":"善化區","發生__15":6700020000000000.0,"發生__16":"西拉雅大道","發生__22":"東側","發生__23":"省道臺19甲線","公路道":"B","公路_1":"省道","發生_路":"B00038","發生__1":"台19甲線","發生__12":0.0,"發生__28":0,"發生_平":0,"發生__32":"無","受理單":"AC991","受理_1":"臺南市政府警察局善化分局交通分隊","管轄單":"臺南市政府警察局善化分局善化派出所","現場處":"AC991","現場_1":"臺南市政府警察局善化分局交通分隊","處理單":"AC000","處理_1":"臺南市政府警察局","處理_12":"AC900","處理__13":"臺南市政府警察局善化分局","處理__14":"AC991","處理__15":"臺南市政府警察局善化分局交通分隊","現場_12":"?崑仁駕駛3992-UA號自小客車自台19甲線南往北向中線車道行駛進入路口停等後左轉西拉雅大道，陳彥明駕駛112-CAY號普重機車沿台19甲線北往南向中線車道直行，兩車於路口發生碰撞，致陳彥明受","F24小時":0,"F2_30日":0,"受傷人":1,"天候代":8,"天候名":"晴","光線代":1,"光線名":"日間自然光線","道路類":2,"道路_1":"省道","速限_第":50,"道路型":2,"道路_12":"交岔路","道路__13":4,"道路__14":"四岔路","事故位":1,"事故__14":"交叉路口","事故__15":1,"事故__16":"交叉路口內","路面狀":1,"路面_1":"柏油","路面_12":5,"路面__13":"乾燥","路面__14":4,"路面__15":"無缺陷","道路障":5,"道路__15":"無障礙物","道路__16":2,"道路__17":"良好","道路__18":7,"道路__19":"良好","號誌_號":1,"號誌__1":"行車管制號誌","號誌__12":1,"號誌__13":"正常","車道劃":5,"車道_1":"無","車道_12":10,"車道__13":"無分向設施","車道__14":5,"車道__15":"未繪設車道線","車道__16":5,"車道__17":"未繪設快慢車道分隔線","車道__18":2,"車道__19":"無","事故__17":2,"事故__18":"車與車","事故__19":16,"事故__20":"側撞","肇因研":1,"肇因_1":"駕駛人","肇因_12":25,"肇因__13":"違反號誌管制或指揮","severity":"observed"},"geometry":{"type":"Point","coordinates":[120.29468000000008,23.10627500000004]}},{"type":"Feature","id":"real-33","properties":{"featureType":"pointOverlay","overlayKind":"real","sourceFile":"real_point.shp","recordIndex":33,"F____":"111年表一.csv","總編號_":"11103AC991B0322","發生日":20220304,"發生時":203000,"發生年":2022,"發生月":3,"發生星":"五","到場處":20220304,"到場_1":204700,"GPS經度":120.294768,"GPS緯度":23.106395,"案件類":1,"案件_1":"交通事故","事故類":"B","事故_1":"A2","事故_12":-134.999952253,"事故__13":-74.8006605422,"轄區類":1,"地址類":2,"地址_1":"交叉路口","發生縣":67000,"發生_1":"臺南市","發生市":67000200,"發生_12":"新市區","發生地":"67000200006","發生__13":"三舍里","發生__15":6700020000000000.0,"發生__16":"省道臺19甲線","發生__22":"口","發生交":"三舍里","發生__23":"西拉雅大道","公路道":"0","公路_1":"無","發生__12":0.0,"發生__28":0,"發生_平":0,"發生__32":"無","受理單":"AC991","受理_1":"臺南市政府警察局善化分局交通分隊","管轄單":"臺南市政府警察局善化分局新市分駐所","現場處":"AC991","現場_1":"臺南市政府警察局善化分局交通分隊","處理單":"AC000","處理_1":"臺南市政府警察局","處理_12":"AC900","處理__13":"臺南市政府警察局善化分局","處理__14":"AC991","處理__15":"臺南市政府警察局善化分局交通分隊","F24小時":0,"F2_30日":0,"受傷人":1,"天候代":8,"天候名":"晴","光線代":3,"光線名":"夜間(或隧道、地下道、涵洞)有照明","道路類":5,"道路_1":"市區道路","速限_第":50,"道路型":2,"道路_12":"交岔路","道路__13":4,"道路__14":"四岔路","事故位":1,"事故__14":"交叉路口","事故__15":1,"事故__16":"交叉路口內","路面狀":1,"路面_1":"柏油","路面_12":5,"路面__13":"乾燥","路面__14":4,"路面__15":"無缺陷","道路障":5,"道路__15":"無障礙物","道路__16":2,"道路__17":"良好","道路__18":7,"道路__19":"良好","號誌_號":1,"號誌__1":"行車管制號誌","號誌__12":1,"號誌__13":"正常","車道劃":5,"車道_1":"無","車道_12":10,"車道__13":"無分向設施","車道__14":5,"車道__15":"未繪設車道線","車道__16":5,"車道__17":"未繪設快慢車道分隔線","車道__18":2,"車道__19":"無","事故__17":2,"事故__18":"車與車","事故__19":16,"事故__20":"側撞","肇因研":1,"肇因_1":"駕駛人","肇因_12":25,"肇因__13":"違反號誌管制或指揮","severity":"observed"},"geometry":{"type":"Point","coordinates":[120.29476800000009,23.106395000000077]}},{"type":"Feature","id":"real-34","properties":{"featureType":"pointOverlay","overlayKind":"real","sourceFile":"real_point.shp","recordIndex":34,"F____":"111年表一.csv","總編號_":"11104AC991B1658","發生日":20220411,"發生時":80003,"發生年":2022,"發生月":4,"發生星":"一","到場處":20220411,"到場_1":81018,"GPS經度":120.294618,"GPS緯度":23.106263,"案件類":1,"案件_1":"交通事故","事故類":"B","事故_1":"A2","事故_12":-134.999952253,"事故__13":-74.8006605422,"轄區類":1,"地址類":2,"地址_1":"交叉路口","發生縣":67000,"發生_1":"臺南市","發生市":67000200,"發生_12":"新市區","發生__15":6700020000000000.0,"發生__16":"省道臺19甲線","發生__22":"口","發生__23":"西拉雅大道","公路道":"0","公路_1":"無","發生__12":0.0,"發生__28":0,"發生_平":0,"發生__32":"無","受理單":"AC991","受理_1":"臺南市政府警察局善化分局交通分隊","管轄單":"臺南市政府警察局善化分局新市分駐所","現場處":"AC991","現場_1":"臺南市政府警察局善化分局交通分隊","處理單":"AC000","處理_1":"臺南市政府警察局","處理_12":"AC900","處理__13":"臺南市政府警察局善化分局","處理__14":"AC991","處理__15":"臺南市政府警察局善化分局交通分隊","F24小時":0,"F2_30日":0,"受傷人":1,"天候代":8,"天候名":"晴","光線代":1,"光線名":"日間自然光線","道路類":5,"道路_1":"市區道路","速限_第":50,"道路型":2,"道路_12":"交岔路","道路__13":4,"道路__14":"四岔路","事故位":2,"事故__14":"路段","事故__15":8,"事故__16":"慢車道","路面狀":1,"路面_1":"柏油","路面_12":5,"路面__13":"乾燥","路面__14":4,"路面__15":"無缺陷","道路障":5,"道路__15":"無障礙物","道路__16":2,"道路__17":"良好","道路__18":7,"道路__19":"良好","號誌_號":1,"號誌__1":"行車管制號誌","號誌__12":1,"號誌__13":"正常","車道劃":5,"車道_1":"無","車道_12":10,"車道__13":"無分向設施","車道__14":5,"車道__15":"未繪設車道線","車道__16":1,"車道__17":"?式快慢車道分隔島(50公分以上)","車道__18":2,"車道__19":"無","事故__17":2,"事故__18":"車與車","事故__19":13,"事故__20":"追撞","肇因研":1,"肇因_1":"駕駛人","肇因_12":16,"肇因__13":"未保持行車安全距離","severity":"observed"},"geometry":{"type":"Point","coordinates":[120.29461800000001,23.10626300000007]}},{"type":"Feature","id":"real-35","properties":{"featureType":"pointOverlay","overlayKind":"real","sourceFile":"real_point.shp","recordIndex":35,"F____":"111年表一.csv","總編號_":"11104AC991B2480","發生日":20220424,"發生時":143600,"發生年":2022,"發生月":4,"發生星":"日","到場處":20220424,"到場_1":145000,"GPS經度":120.294756,"GPS緯度":23.106148,"案件類":1,"案件_1":"交通事故","事故類":"B","事故_1":"A2","事故_12":-134.999952253,"事故__13":-74.8006605422,"轄區類":1,"地址類":2,"地址_1":"交叉路口","發生縣":67000,"發生_1":"臺南市","發生市":67000200,"發生_12":"新市區","發生地":"67000200006","發生__13":"三舍里","發生__15":6700020000000000.0,"發生__16":"省道臺19甲線","發生__22":"口","發生交":"三舍里","發生__23":"西拉雅大道","公路道":"B","公路_1":"省道","發生_路":"B00038","發生__1":"台19甲線","發生__12":27.0,"發生__28":200,"發生_平":0,"發生__32":"無","受理單":"AC991","受理_1":"臺南市政府警察局善化分局交通分隊","管轄單":"臺南市政府警察局善化分局新市分駐所","現場處":"AC991","現場_1":"臺南市政府警察局善化分局交通分隊","處理單":"AC000","處理_1":"臺南市政府警察局","處理_12":"AC900","處理__13":"臺南市政府警察局善化分局","處理__14":"AC991","處理__15":"臺南市政府警察局善化分局交通分隊","F24小時":0,"F2_30日":0,"受傷人":2,"天候代":8,"天候名":"晴","光線代":1,"光線名":"日間自然光線","道路類":2,"道路_1":"省道","速限_第":50,"道路型":2,"道路_12":"交岔路","道路__13":4,"道路__14":"四岔路","事故位":1,"事故__14":"交叉路口","事故__15":1,"事故__16":"交叉路口內","路面狀":1,"路面_1":"柏油","路面_12":5,"路面__13":"乾燥","路面__14":4,"路面__15":"無缺陷","道路障":5,"道路__15":"無障礙物","道路__16":2,"道路__17":"良好","道路__18":7,"道路__19":"良好","號誌_號":1,"號誌__1":"行車管制號誌","號誌__12":1,"號誌__13":"正常","車道劃":5,"車道_1":"無","車道_12":10,"車道__13":"無分向設施","車道__14":5,"車道__15":"未繪設車道線","車道__16":5,"車道__17":"未繪設快慢車道分隔線","車道__18":2,"車道__19":"無","事故__17":2,"事故__18":"車與車","事故__19":16,"事故__20":"側撞","肇因研":1,"肇因_1":"駕駛人","肇因_12":19,"肇因__13":"起步未注意其他車(人)安全","severity":"observed"},"geometry":{"type":"Point","coordinates":[120.294756,23.106148000000076]}},{"type":"Feature","id":"real-36","properties":{"featureType":"pointOverlay","overlayKind":"real","sourceFile":"real_point.shp","recordIndex":36,"F____":"111年表一.csv","總編號_":"11107AC991D0338","發生日":20220723,"發生時":83000,"發生年":2022,"發生月":7,"發生星":"六","到場處":20220802,"到場_1":124700,"GPS經度":120.294618,"GPS緯度":23.106263,"案件類":2,"案件_1":"事後報案","事故類":"B","事故_1":"A2","事故_12":-134.999952253,"事故__13":-74.8006605422,"轄區類":1,"地址類":2,"地址_1":"交叉路口","發生縣":67000,"發生_1":"臺南市","發生市":67000190,"發生_12":"善化區","發生__15":6700020000000000.0,"發生__16":"省道臺19甲線","發生__22":"南側","發生__23":"西拉雅大道","公路道":"B","公路_1":"省道","發生_路":"B00038","發生__1":"台19甲線","發生__12":0.0,"發生__28":0,"發生_平":0,"發生__32":"無","受理單":"AC991","受理_1":"臺南市政府警察局善化分局交通分隊","管轄單":"臺南市政府警察局善化分局善化派出所","現場處":"AC991","現場_1":"臺南市政府警察局善化分局交通分隊","處理單":"AC000","處理_1":"臺南市政府警察局","處理_12":"AC900","處理__13":"臺南市政府警察局善化分局","處理__14":"AC991","處理__15":"臺南市政府警察局善化分局交通分隊","現場_12":"鄭月華自述駕駛779-PWZ號普重機車沿台19甲線南往北向外側車道直行至事故路段時與右轉引道擺放之三角錐擦撞導致自摔。鄭月華受傷。","F24小時":0,"F2_30日":0,"受傷人":1,"天候代":8,"天候名":"晴","光線代":1,"光線名":"日間自然光線","道路類":2,"道路_1":"省道","速限_第":50,"道路型":2,"道路_12":"交岔路","道路__13":4,"道路__14":"四岔路","事故位":1,"事故__14":"交叉路口","事故__15":2,"事故__16":"交叉口附近","路面狀":1,"路面_1":"柏油","路面_12":5,"路面__13":"乾燥","路面__14":4,"路面__15":"無缺陷","道路障":1,"道路__15":"道路工事(程)中","道路__16":2,"道路__17":"良好","道路__18":7,"道路__19":"良好","號誌_號":1,"號誌__1":"行車管制號誌","號誌__12":1,"號誌__13":"正常","車道劃":5,"車道_1":"無","車道_12":10,"車道__13":"無分向設施","車道__14":5,"車道__15":"未繪設車道線","車道__16":5,"車道__17":"未繪設快慢車道分隔線","車道__18":2,"車道__19":"無","事故__17":3,"事故__18":"汽(機)車本身","事故__19":28,"事故__20":"撞工程施工","肇因研":1,"肇因_1":"駕駛人","肇因_12":23,"肇因__13":"未注意車前狀態","severity":"observed"},"geometry":{"type":"Point","coordinates":[120.29461800000001,23.10626300000007]}},{"type":"Feature","id":"real-37","properties":{"featureType":"pointOverlay","overlayKind":"real","sourceFile":"real_point.shp","recordIndex":37,"F____":"111年表一.csv","總編號_":"11108AC991B0120","發生日":20220802,"發生時":190600,"發生年":2022,"發生月":8,"發生星":"二","到場處":20220802,"到場_1":191307,"GPS經度":120.294759,"GPS緯度":23.106135,"案件類":1,"案件_1":"交通事故","事故類":"B","事故_1":"A2","事故_12":-134.999952253,"事故__13":-74.8006605422,"轄區類":1,"地址類":2,"地址_1":"交叉路口","發生縣":67000,"發生_1":"臺南市","發生市":67000200,"發生_12":"新市區","發生地":"67000200006","發生__13":"三舍里","發生__15":6700020000000000.0,"發生__16":"省道臺19甲線","發生__22":"口","發生交":"三舍里","發生__23":"西拉雅大道","公路道":"0","公路_1":"無","發生__12":0.0,"發生__28":0,"發生_平":0,"發生__32":"無","受理單":"AC991","受理_1":"臺南市政府警察局善化分局交通分隊","管轄單":"臺南市政府警察局善化分局新市分駐所","現場處":"AC991","現場_1":"臺南市政府警察局善化分局交通分隊","處理單":"AC000","處理_1":"臺南市政府警察局","處理_12":"AC900","處理__13":"臺南市政府警察局善化分局","處理__14":"AC991","處理__15":"臺南市政府警察局善化分局交通分隊","F24小時":0,"F2_30日":0,"受傷人":1,"天候代":8,"天候名":"晴","光線代":3,"光線名":"夜間(或隧道、地下道、涵洞)有照明","道路類":6,"道路_1":"村里道路","速限_第":50,"道路型":2,"道路_12":"交岔路","道路__13":4,"道路__14":"四岔路","事故位":1,"事故__14":"交叉路口","事故__15":1,"事故__16":"交叉路口內","路面狀":1,"路面_1":"柏油","路面_12":5,"路面__13":"乾燥","路面__14":4,"路面__15":"無缺陷","道路障":5,"道路__15":"無障礙物","道路__16":2,"道路__17":"良好","道路__18":7,"道路__19":"良好","號誌_號":1,"號誌__1":"行車管制號誌","號誌__12":1,"號誌__13":"正常","車道劃":5,"車道_1":"無","車道_12":10,"車道__13":"無分向設施","車道__14":5,"車道__15":"未繪設車道線","車道__16":5,"車道__17":"未繪設快慢車道分隔線","車道__18":2,"車道__19":"無","事故__17":2,"事故__18":"車與車","事故__19":16,"事故__20":"側撞","肇因研":1,"肇因_1":"駕駛人","肇因_12":23,"肇因__13":"未注意車前狀態","severity":"observed"},"geometry":{"type":"Point","coordinates":[120.29475900000011,23.10613500000005]}},{"type":"Feature","id":"real-38","properties":{"featureType":"pointOverlay","overlayKind":"real","sourceFile":"real_point.shp","recordIndex":38,"F____":"111年表一.csv","總編號_":"11108AC991B1905","發生日":20220803,"發生時":81300,"發生年":2022,"發生月":8,"發生星":"三","到場處":20220803,"到場_1":84000,"GPS經度":120.294618,"GPS緯度":23.106263,"案件類":1,"案件_1":"交通事故","事故類":"B","事故_1":"A2","事故_12":-134.999952253,"事故__13":-74.8006605422,"轄區類":1,"地址類":2,"地址_1":"交叉路口","發生縣":67000,"發生_1":"臺南市","發生市":67000200,"發生_12":"新市區","發生地":"67000200006","發生__13":"三舍里","發生__15":6700020000000000.0,"發生__16":"省道臺19甲線","發生__22":"口","發生交":"三舍里","發生__23":"西拉雅大道","公路道":"0","公路_1":"無","發生__12":0.0,"發生__28":0,"發生_平":0,"發生__32":"無","受理單":"AC991","受理_1":"臺南市政府警察局善化分局交通分隊","管轄單":"臺南市政府警察局善化分局新市分駐所","現場處":"AC991","現場_1":"臺南市政府警察局善化分局交通分隊","處理單":"AC000","處理_1":"臺南市政府警察局","處理_12":"AC900","處理__13":"臺南市政府警察局善化分局","處理__14":"AC991","處理__15":"臺南市政府警察局善化分局交通分隊","F24小時":0,"F2_30日":0,"受傷人":1,"天候代":8,"天候名":"晴","光線代":1,"光線名":"日間自然光線","道路類":5,"道路_1":"市區道路","速限_第":50,"道路型":2,"道路_12":"交岔路","道路__13":4,"道路__14":"四岔路","事故位":1,"事故__14":"交叉路口","事故__15":1,"事故__16":"交叉路口內","路面狀":1,"路面_1":"柏油","路面_12":5,"路面__13":"乾燥","路面__14":4,"路面__15":"無缺陷","道路障":1,"道路__15":"道路工事(程)中","道路__16":2,"道路__17":"良好","道路__18":7,"道路__19":"良好","號誌_號":1,"號誌__1":"行車管制號誌","號誌__12":1,"號誌__13":"正常","車道劃":5,"車道_1":"無","車道_12":10,"車道__13":"無分向設施","車道__14":5,"車道__15":"未繪設車道線","車道__16":5,"車道__17":"未繪設快慢車道分隔線","車道__18":2,"車道__19":"無","事故__17":2,"事故__18":"車與車","事故__19":16,"事故__20":"側撞","肇因研":1,"肇因_1":"駕駛人","肇因_12":9,"肇因__13":"右轉彎未依規定","severity":"observed"},"geometry":{"type":"Point","coordinates":[120.29461800000001,23.10626300000007]}},{"type":"Feature","id":"real-39","properties":{"featureType":"pointOverlay","overlayKind":"real","sourceFile":"real_point.shp","recordIndex":39,"F____":"111年表一.csv","總編號_":"11108AC991B2929","發生日":20220829,"發生時":70800,"發生年":2022,"發生月":8,"發生星":"一","到場處":20220829,"到場_1":71553,"GPS經度":120.294618,"GPS緯度":23.106263,"案件類":1,"案件_1":"交通事故","事故類":"B","事故_1":"A2","事故_12":-134.999952253,"事故__13":-74.8006605422,"轄區類":1,"地址類":2,"地址_1":"交叉路口","發生縣":67000,"發生_1":"臺南市","發生市":67000200,"發生_12":"新市區","發生地":"67000200006","發生__13":"三舍里","發生__15":6700020000000000.0,"發生__16":"省道臺19甲線","發生__22":"口","發生交":"三舍里","發生__23":"西拉雅大道","公路道":"0","公路_1":"無","發生__12":0.0,"發生__28":0,"發生_平":0,"發生__32":"無","受理單":"AC991","受理_1":"臺南市政府警察局善化分局交通分隊","管轄單":"臺南市政府警察局善化分局新市分駐所","現場處":"AC991","現場_1":"臺南市政府警察局善化分局交通分隊","處理單":"AC000","處理_1":"臺南市政府警察局","處理_12":"AC900","處理__13":"臺南市政府警察局善化分局","處理__14":"AC991","處理__15":"臺南市政府警察局善化分局交通分隊","F24小時":0,"F2_30日":0,"受傷人":1,"天候代":8,"天候名":"晴","光線代":1,"光線名":"日間自然光線","道路類":6,"道路_1":"村里道路","速限_第":50,"道路型":2,"道路_12":"交岔路","道路__13":4,"道路__14":"四岔路","事故位":1,"事故__14":"交叉路口","事故__15":1,"事故__16":"交叉路口內","路面狀":1,"路面_1":"柏油","路面_12":5,"路面__13":"乾燥","路面__14":4,"路面__15":"無缺陷","道路障":1,"道路__15":"道路工事(程)中","道路__16":2,"道路__17":"良好","道路__18":7,"道路__19":"良好","號誌_號":1,"號誌__1":"行車管制號誌","號誌__12":1,"號誌__13":"正常","車道劃":5,"車道_1":"無","車道_12":10,"車道__13":"無分向設施","車道__14":5,"車道__15":"未繪設車道線","車道__16":5,"車道__17":"未繪設快慢車道分隔線","車道__18":2,"車道__19":"無","事故__17":2,"事故__18":"車與車","事故__19":16,"事故__20":"側撞","肇因研":1,"肇因_1":"駕駛人","肇因_12":6,"肇因__13":"未依規定讓車","severity":"observed"},"geometry":{"type":"Point","coordinates":[120.29461800000001,23.10626300000007]}},{"type":"Feature","id":"real-40","properties":{"featureType":"pointOverlay","overlayKind":"real","sourceFile":"real_point.shp","recordIndex":40,"F____":"111年表一.csv","總編號_":"11109AC991B0032","發生日":20220901,"發生時":134000,"發生年":2022,"發生月":9,"發生星":"四","到場處":20220901,"到場_1":140000,"GPS經度":120.294734,"GPS緯度":23.106785,"案件類":1,"案件_1":"交通事故","事故類":"B","事故_1":"A2","事故_12":-134.999952253,"事故__13":-74.8006605422,"轄區類":1,"地址類":2,"地址_1":"交叉路口","發生縣":67000,"發生_1":"臺南市","發生市":67000200,"發生_12":"新市區","發生地":"67000200006","發生__13":"三舍里","發生__15":6700020000000000.0,"發生__16":"省道臺19甲線","發生__22":"附近","發生交":"三舍里","發生__23":"西拉雅大道","公路道":"0","公路_1":"無","發生__12":0.0,"發生__28":0,"發生_平":0,"發生__32":"無","受理單":"AC991","受理_1":"臺南市政府警察局善化分局交通分隊","管轄單":"臺南市政府警察局善化分局善化派出所","現場處":"AC991","現場_1":"臺南市政府警察局善化分局交通分隊","處理單":"AC000","處理_1":"臺南市政府警察局","處理_12":"AC900","處理__13":"臺南市政府警察局善化分局","處理__14":"AC991","處理__15":"臺南市政府警察局善化分局交通分隊","F24小時":0,"F2_30日":0,"受傷人":1,"天候代":8,"天候名":"晴","光線代":1,"光線名":"日間自然光線","道路類":5,"道路_1":"市區道路","速限_第":50,"道路型":3,"道路_12":"單路部分","道路__13":14,"道路__14":"直路","事故位":2,"事故__14":"路段","事故__15":9,"事故__16":"一般車道(未劃分快慢車道)","路面狀":1,"路面_1":"柏油","路面_12":5,"路面__13":"乾燥","路面__14":4,"路面__15":"無缺陷","道路障":1,"道路__15":"道路工事(程)中","道路__16":2,"道路__17":"良好","道路__18":7,"道路__19":"良好","號誌_號":4,"號誌__1":"無號誌","號誌__12":4,"號誌__13":"無號誌","車道劃":1,"車道_1":"中央分向島","車道_12":1,"車道__13":"?式(50公分以上)","車道__14":4,"車道__15":"車道線(無標記)","車道__16":5,"車道__17":"未繪設快慢車道分隔線","車道__18":1,"車道__19":"有","事故__17":3,"事故__18":"汽(機)車本身","事故__19":29,"事故__20":"其他","肇因研":1,"肇因_1":"駕駛人","肇因_12":21,"肇因__13":"酒醉(後)駕駛失控","severity":"observed"},"geometry":{"type":"Point","coordinates":[120.29473400000006,23.10678500000006]}},{"type":"Feature","id":"real-41","properties":{"featureType":"pointOverlay","overlayKind":"real","sourceFile":"real_point.shp","recordIndex":41,"F____":"111年表一.csv","總編號_":"11111AC991B0949","發生日":20221111,"發生時":73000,"發生年":2022,"發生月":11,"發生星":"五","到場處":20221111,"到場_1":75600,"GPS經度":120.294795,"GPS緯度":23.106065,"案件類":1,"案件_1":"交通事故","事故類":"B","事故_1":"A2","事故_12":-134.999952253,"事故__13":-74.8006605422,"轄區類":1,"地址類":2,"地址_1":"交叉路口","發生縣":67000,"發生_1":"臺南市","發生市":67000200,"發生_12":"新市區","發生__15":6700020000000000.0,"發生__16":"省道臺19甲線","發生__22":"南側","發生__23":"西拉雅大道","公路道":"0","公路_1":"無","發生__12":0.0,"發生__28":0,"發生_平":0,"發生__32":"無","受理單":"AC991","受理_1":"臺南市政府警察局善化分局交通分隊","管轄單":"臺南市政府警察局善化分局新市分駐所","現場處":"AC991","現場_1":"臺南市政府警察局善化分局交通分隊","處理單":"AC000","處理_1":"臺南市政府警察局","處理_12":"AC900","處理__13":"臺南市政府警察局善化分局","處理__14":"AC991","處理__15":"臺南市政府警察局善化分局交通分隊","現場_12":"李淯誠駕駛970-JRL號重機車(A車)沿19甲線中間車道由南往北方向行駛，至事故地點欲前往路口東側作待轉時，與前方欲作待轉，吳憶欣駕駛NHD-1065號重機車(B車)發生交通事故，致兩車受損，B車駕","F24小時":0,"F2_30日":0,"受傷人":2,"天候代":8,"天候名":"晴","光線代":1,"光線名":"日間自然光線","道路類":5,"道路_1":"市區道路","速限_第":50,"道路型":2,"道路_12":"交岔路","道路__13":4,"道路__14":"四岔路","事故位":1,"事故__14":"交叉路口","事故__15":1,"事故__16":"交叉路口內","路面狀":1,"路面_1":"柏油","路面_12":5,"路面__13":"乾燥","路面__14":4,"路面__15":"無缺陷","道路障":5,"道路__15":"無障礙物","道路__16":2,"道路__17":"良好","道路__18":7,"道路__19":"良好","號誌_號":1,"號誌__1":"行車管制號誌","號誌__12":1,"號誌__13":"正常","車道劃":5,"車道_1":"無","車道_12":10,"車道__13":"無分向設施","車道__14":5,"車道__15":"未繪設車道線","車道__16":5,"車道__17":"未繪設快慢車道分隔線","車道__18":2,"車道__19":"無","事故__17":2,"事故__18":"車與車","事故__19":12,"事故__20":"同向擦撞","肇因研":1,"肇因_1":"駕駛人","肇因_12":23,"肇因__13":"未注意車前狀態","severity":"observed"},"geometry":{"type":"Point","coordinates":[120.29479500000002,23.106065000000058]}},{"type":"Feature","id":"real-42","properties":{"featureType":"pointOverlay","overlayKind":"real","sourceFile":"real_point.shp","recordIndex":42,"F____":"111年表一.csv","總編號_":"11111AC991B2692","發生日":20221125,"發生時":185300,"發生年":2022,"發生月":11,"發生星":"五","到場處":20221125,"到場_1":191000,"GPS經度":120.294754,"GPS緯度":23.106102,"案件類":1,"案件_1":"交通事故","事故類":"B","事故_1":"A2","事故_12":-134.999952253,"事故__13":-74.8006605422,"轄區類":1,"地址類":2,"地址_1":"交叉路口","發生縣":67000,"發生_1":"臺南市","發生市":67000200,"發生_12":"新市區","發生地":"67000200006","發生__13":"三舍里","發生__15":6700020000000000.0,"發生__16":"省道臺19甲線","發生__22":"口","發生交":"三舍里","發生__23":"西拉雅大道","公路道":"0","公路_1":"無","發生__12":0.0,"發生__28":0,"發生_平":0,"發生__32":"無","受理單":"AC991","受理_1":"臺南市政府警察局善化分局交通分隊","管轄單":"臺南市政府警察局善化分局新市分駐所","現場處":"AC991","現場_1":"臺南市政府警察局善化分局交通分隊","處理單":"AC000","處理_1":"臺南市政府警察局","處理_12":"AC900","處理__13":"臺南市政府警察局善化分局","處理__14":"AC991","處理__15":"臺南市政府警察局善化分局交通分隊","F24小時":0,"F2_30日":0,"受傷人":1,"天候代":8,"天候名":"晴","光線代":3,"光線名":"夜間(或隧道、地下道、涵洞)有照明","道路類":5,"道路_1":"市區道路","速限_第":50,"道路型":2,"道路_12":"交岔路","道路__13":4,"道路__14":"四岔路","事故位":1,"事故__14":"交叉路口","事故__15":1,"事故__16":"交叉路口內","路面狀":1,"路面_1":"柏油","路面_12":5,"路面__13":"乾燥","路面__14":4,"路面__15":"無缺陷","道路障":5,"道路__15":"無障礙物","道路__16":2,"道路__17":"良好","道路__18":7,"道路__19":"良好","號誌_號":1,"號誌__1":"行車管制號誌","號誌__12":1,"號誌__13":"正常","車道劃":5,"車道_1":"無","車道_12":10,"車道__13":"無分向設施","車道__14":5,"車道__15":"未繪設車道線","車道__16":5,"車道__17":"未繪設快慢車道分隔線","車道__18":2,"車道__19":"無","事故__17":2,"事故__18":"車與車","事故__19":15,"事故__20":"路口交岔撞","肇因研":1,"肇因_1":"駕駛人","肇因_12":23,"肇因__13":"未注意車前狀態","severity":"observed"},"geometry":{"type":"Point","coordinates":[120.29475400000001,23.106102000000078]}},{"type":"Feature","id":"sumo-1","properties":{"featureType":"pointOverlay","overlayKind":"sumo","sourceFile":"sumo_point.shp","recordIndex":1,"event_numb":1,"attempt":1,"seed":474,"rank_in_at":1,"event_time":1194.26,"analysis_t":294.26,"longitude":120.294739974,"latitude":23.1060571209,"event_clas":"side_crossing","trigger_me":"PET","trigger_va":0.64,"trigger_ty":17,"min_ttc_s":29.94,"max_drac_m":0.05,"pet_s":0.64,"ego":"motorcycle_BD.28","foe":"motorcycle_CA.30","ego_type":"motorcycle_filtering","foe_type":"motorcycle_filtering","crs_epsg":4326,"eventTime":1194.26,"minimumTtc":29.94,"maximumDrac":0.05,"pet":0.64,"severity":"normal"},"geometry":{"type":"Point","coordinates":[120.29478443500011,23.106111462000058]}},{"type":"Feature","id":"sumo-2","properties":{"featureType":"pointOverlay","overlayKind":"sumo","sourceFile":"sumo_point.shp","recordIndex":2,"event_numb":2,"attempt":1,"seed":474,"rank_in_at":2,"event_time":1212.91,"analysis_t":312.91,"longitude":120.294604529,"latitude":23.1063462024,"event_clas":"side_crossing","trigger_me":"PET","trigger_va":0.66,"trigger_ty":17,"min_ttc_s":4.61,"max_drac_m":0.13,"pet_s":0.66,"ego":"motorcycle_AC.96","foe":"motorcycle_DB.21","ego_type":"motorcycle_filtering","foe_type":"motorcycle_filtering","crs_epsg":4326,"eventTime":1212.91,"minimumTtc":4.61,"maximumDrac":0.13,"pet":0.66,"severity":"normal"},"geometry":{"type":"Point","coordinates":[120.29475983000009,23.10636050100004]}},{"type":"Feature","id":"sumo-3","properties":{"featureType":"pointOverlay","overlayKind":"sumo","sourceFile":"sumo_point.shp","recordIndex":3,"event_numb":3,"attempt":1,"seed":474,"rank_in_at":3,"event_time":1446.58,"analysis_t":546.58,"longitude":120.294739974,"latitude":23.1060571209,"event_clas":"side_crossing","trigger_me":"PET","trigger_va":0.58,"trigger_ty":17,"min_ttc_s":5.77,"max_drac_m":0.09,"pet_s":0.58,"ego":"motorcycle_BD.32","foe":"motorcycle_CA.38","ego_type":"motorcycle_filtering","foe_type":"motorcycle_filtering","crs_epsg":4326,"eventTime":1446.58,"minimumTtc":5.77,"maximumDrac":0.09,"pet":0.58,"severity":"normal"},"geometry":{"type":"Point","coordinates":[120.29478443500011,23.106111462000058]}},{"type":"Feature","id":"sumo-4","properties":{"featureType":"pointOverlay","overlayKind":"sumo","sourceFile":"sumo_point.shp","recordIndex":4,"event_numb":4,"attempt":2,"seed":475,"rank_in_at":1,"event_time":1105.53,"analysis_t":205.53,"longitude":120.294738998,"latitude":23.1060570262,"event_clas":"side_crossing","trigger_me":"PET","trigger_va":0.78,"trigger_ty":17,"min_ttc_s":0.0,"max_drac_m":0.0,"pet_s":0.78,"ego":"car_CA.21","foe":"motorcycle_BD.32","ego_type":"car","foe_type":"motorcycle_filtering","crs_epsg":4326,"eventTime":1105.53,"minimumTtc":0.0,"maximumDrac":0.0,"pet":0.78,"severity":"critical"},"geometry":{"type":"Point","coordinates":[120.29478345900009,23.10611136700004]}},{"type":"Feature","id":"sumo-5","properties":{"featureType":"pointOverlay","overlayKind":"sumo","sourceFile":"sumo_point.shp","recordIndex":5,"event_numb":5,"attempt":2,"seed":475,"rank_in_at":2,"event_time":1536.46,"analysis_t":636.46,"longitude":120.294605477,"latitude":23.1063516247,"event_clas":"side_crossing","trigger_me":"PET","trigger_va":0.58,"trigger_ty":17,"min_ttc_s":0.0,"max_drac_m":0.34,"pet_s":0.58,"ego":"motorcycle_AC.129","foe":"motorcycle_DB.28","ego_type":"motorcycle_filtering","foe_type":"motorcycle_filtering","crs_epsg":4326,"eventTime":1536.46,"minimumTtc":0.0,"maximumDrac":0.34,"pet":0.58,"severity":"critical"},"geometry":{"type":"Point","coordinates":[120.29476077800007,23.106365924000045]}},{"type":"Feature","id":"sumo-6","properties":{"featureType":"pointOverlay","overlayKind":"sumo","sourceFile":"sumo_point.shp","recordIndex":6,"event_numb":6,"attempt":2,"seed":475,"rank_in_at":3,"event_time":1581.3,"analysis_t":681.3,"longitude":120.294616132,"latitude":23.1060311024,"event_clas":"side_crossing","trigger_me":"DRAC","trigger_va":3.02,"trigger_ty":11,"min_ttc_s":13.03,"max_drac_m":3.02,"pet_s":2.28,"ego":"motorcycle_AC.137","foe":"motorcycle_BD.43","ego_type":"motorcycle_filtering","foe_type":"motorcycle_filtering","crs_epsg":4326,"eventTime":1581.3,"minimumTtc":13.03,"maximumDrac":3.02,"pet":2.28,"severity":"normal"},"geometry":{"type":"Point","coordinates":[120.29462577200002,23.106298649000053]}},{"type":"Feature","id":"sumo-7","properties":{"featureType":"pointOverlay","overlayKind":"sumo","sourceFile":"sumo_point.shp","recordIndex":7,"event_numb":7,"attempt":3,"seed":476,"rank_in_at":1,"event_time":1025.18,"analysis_t":125.18,"longitude":120.294603219,"latitude":23.1063540528,"event_clas":"side_crossing","trigger_me":"PET","trigger_va":0.53,"trigger_ty":17,"min_ttc_s":0.0,"max_drac_m":0.0,"pet_s":0.53,"ego":"motorcycle_AC.70","foe":"motorcycle_DB.21","ego_type":"motorcycle_filtering","foe_type":"motorcycle_filtering","crs_epsg":4326,"eventTime":1025.18,"minimumTtc":0.0,"maximumDrac":0.0,"pet":0.53,"severity":"critical"},"geometry":{"type":"Point","coordinates":[120.29475852000007,23.10636835200006]}},{"type":"Feature","id":"sumo-8","properties":{"featureType":"pointOverlay","overlayKind":"sumo","sourceFile":"sumo_point.shp","recordIndex":8,"event_numb":8,"attempt":3,"seed":476,"rank_in_at":2,"event_time":1162.31,"analysis_t":262.31,"longitude":120.294696523,"latitude":23.1061899406,"event_clas":"side_crossing","trigger_me":"PET","trigger_va":0.74,"trigger_ty":17,"min_ttc_s":0.0,"max_drac_m":0.0,"pet_s":0.74,"ego":"car_BD.22","foe":"car_DC.4","ego_type":"car","foe_type":"car","crs_epsg":4326,"eventTime":1162.31,"minimumTtc":0.0,"maximumDrac":0.0,"pet":0.74,"severity":"critical"},"geometry":{"type":"Point","coordinates":[120.29466984700002,23.106289632000028]}},{"type":"Feature","id":"sumo-9","properties":{"featureType":"pointOverlay","overlayKind":"sumo","sourceFile":"sumo_point.shp","recordIndex":9,"event_numb":9,"attempt":3,"seed":476,"rank_in_at":3,"event_time":1487.31,"analysis_t":587.31,"longitude":120.294604064,"latitude":23.1063416853,"event_clas":"side_crossing","trigger_me":"PET","trigger_va":0.68,"trigger_ty":17,"min_ttc_s":0.0,"max_drac_m":0.0,"pet_s":0.68,"ego":"motorcycle_AC.108","foe":"motorcycle_DB.26","ego_type":"motorcycle_filtering","foe_type":"motorcycle_filtering","crs_epsg":4326,"eventTime":1487.31,"minimumTtc":0.0,"maximumDrac":0.0,"pet":0.68,"severity":"critical"},"geometry":{"type":"Point","coordinates":[120.29475936500012,23.10635598400006]}},{"type":"Feature","id":"sumo-10","properties":{"featureType":"pointOverlay","overlayKind":"sumo","sourceFile":"sumo_point.shp","recordIndex":10,"event_numb":10,"attempt":4,"seed":477,"rank_in_at":1,"event_time":1260.23,"analysis_t":360.23,"longitude":120.294602412,"latitude":23.1063403233,"event_clas":"side_crossing","trigger_me":"PET","trigger_va":0.73,"trigger_ty":17,"min_ttc_s":0.0,"max_drac_m":0.0,"pet_s":0.73,"ego":"motorcycle_AC.98","foe":"motorcycle_DB.19","ego_type":"motorcycle_filtering","foe_type":"motorcycle_filtering","crs_epsg":4326,"eventTime":1260.23,"minimumTtc":0.0,"maximumDrac":0.0,"pet":0.73,"severity":"critical"},"geometry":{"type":"Point","coordinates":[120.29475771300008,23.106354622000026]}},{"type":"Feature","id":"sumo-11","properties":{"featureType":"pointOverlay","overlayKind":"sumo","sourceFile":"sumo_point.shp","recordIndex":11,"event_numb":11,"attempt":4,"seed":477,"rank_in_at":2,"event_time":1268.19,"analysis_t":368.19,"longitude":120.294745149,"latitude":23.1060568731,"event_clas":"side_crossing","trigger_me":"PET","trigger_va":0.91,"trigger_ty":17,"min_ttc_s":0.0,"max_drac_m":0.0,"pet_s":0.91,"ego":"motorcycle_BD.22","foe":"motorcycle_CA.46","ego_type":"motorcycle_filtering","foe_type":"motorcycle_filtering","crs_epsg":4326,"eventTime":1268.19,"minimumTtc":0.0,"maximumDrac":0.0,"pet":0.91,"severity":"critical"},"geometry":{"type":"Point","coordinates":[120.29478961000007,23.106111214000066]}},{"type":"Feature","id":"sumo-12","properties":{"featureType":"pointOverlay","overlayKind":"sumo","sourceFile":"sumo_point.shp","recordIndex":12,"event_numb":12,"attempt":4,"seed":477,"rank_in_at":3,"event_time":1625.44,"analysis_t":725.44,"longitude":120.294756474,"latitude":23.1060567431,"event_clas":"side_crossing","trigger_me":"PET","trigger_va":0.41,"trigger_ty":17,"min_ttc_s":0.0,"max_drac_m":0.0,"pet_s":0.41,"ego":"motorcycle_BD.33","foe":"motorcycle_CA.64","ego_type":"motorcycle_filtering","foe_type":"motorcycle_filtering","crs_epsg":4326,"eventTime":1625.44,"minimumTtc":0.0,"maximumDrac":0.0,"pet":0.41,"severity":"critical"},"geometry":{"type":"Point","coordinates":[120.29480093500001,23.106111084000077]}},{"type":"Feature","id":"sumo-13","properties":{"featureType":"pointOverlay","overlayKind":"sumo","sourceFile":"sumo_point.shp","recordIndex":13,"event_numb":13,"attempt":5,"seed":478,"rank_in_at":1,"event_time":995.3,"analysis_t":95.3,"longitude":120.294614659,"latitude":23.1060515039,"event_clas":"side_crossing","trigger_me":"TTC","trigger_va":1.06,"trigger_ty":12,"min_ttc_s":1.06,"max_drac_m":2.72,"pet_s":1.33,"ego":"car_BD.17","foe":"motorcycle_AC.61","ego_type":"car","foe_type":"motorcycle_filtering","crs_epsg":4326,"eventTime":995.3,"minimumTtc":1.06,"maximumDrac":2.72,"pet":1.33,"severity":"critical"},"geometry":{"type":"Point","coordinates":[120.29462429900002,23.10631905100007]}},{"type":"Feature","id":"sumo-14","properties":{"featureType":"pointOverlay","overlayKind":"sumo","sourceFile":"sumo_point.shp","recordIndex":14,"event_numb":14,"attempt":5,"seed":478,"rank_in_at":2,"event_time":1086.0,"analysis_t":186.0,"longitude":120.29460048,"latitude":23.1062616622,"event_clas":"side_crossing","trigger_me":"PET","trigger_va":0.81,"trigger_ty":17,"min_ttc_s":0.0,"max_drac_m":0.0,"pet_s":0.81,"ego":"car_CB.16","foe":"motorcycle_AC.68","ego_type":"car","foe_type":"motorcycle_filtering","crs_epsg":4326,"eventTime":1086.0,"minimumTtc":0.0,"maximumDrac":0.0,"pet":0.81,"severity":"critical"},"geometry":{"type":"Point","coordinates":[120.29464494100012,23.106316003000074]}},{"type":"Feature","id":"sumo-15","properties":{"featureType":"pointOverlay","overlayKind":"sumo","sourceFile":"sumo_point.shp","recordIndex":15,"event_numb":15,"attempt":5,"seed":478,"rank_in_at":3,"event_time":1301.16,"analysis_t":401.16,"longitude":120.294670558,"latitude":23.1062082461,"event_clas":"side_crossing","trigger_me":"PET","trigger_va":0.78,"trigger_ty":17,"min_ttc_s":0.0,"max_drac_m":0.0,"pet_s":0.78,"ego":"car_BA.10","foe":"motorcycle_DB.22","ego_type":"car","foe_type":"motorcycle_filtering","crs_epsg":4326,"eventTime":1301.16,"minimumTtc":0.0,"maximumDrac":0.0,"pet":0.78,"severity":"critical"},"geometry":{"type":"Point","coordinates":[120.29464388200006,23.106307937000054]}},{"type":"Feature","id":"sumo-16","properties":{"featureType":"pointOverlay","overlayKind":"sumo","sourceFile":"sumo_point.shp","recordIndex":16,"event_numb":16,"attempt":6,"seed":479,"rank_in_at":1,"event_time":1211.54,"analysis_t":311.54,"longitude":120.294742159,"latitude":23.1060685989,"event_clas":"side_crossing","trigger_me":"PET","trigger_va":0.86,"trigger_ty":17,"min_ttc_s":0.0,"max_drac_m":0.0,"pet_s":0.86,"ego":"car_BD.12","foe":"motorcycle_CA.32","ego_type":"car","foe_type":"motorcycle_filtering","crs_epsg":4326,"eventTime":1211.54,"minimumTtc":0.0,"maximumDrac":0.0,"pet":0.86,"severity":"critical"},"geometry":{"type":"Point","coordinates":[120.29478434400005,23.106134891000067]}},{"type":"Feature","id":"sumo-17","properties":{"featureType":"pointOverlay","overlayKind":"sumo","sourceFile":"sumo_point.shp","recordIndex":17,"event_numb":17,"attempt":6,"seed":479,"rank_in_at":2,"event_time":1355.56,"analysis_t":455.56,"longitude":120.294753388,"latitude":23.1060681976,"event_clas":"side_crossing","trigger_me":"PET","trigger_va":0.75,"trigger_ty":17,"min_ttc_s":0.0,"max_drac_m":0.0,"pet_s":0.75,"ego":"car_BD.15","foe":"motorcycle_CA.36","ego_type":"car","foe_type":"motorcycle_filtering","crs_epsg":4326,"eventTime":1355.56,"minimumTtc":0.0,"maximumDrac":0.0,"pet":0.75,"severity":"critical"},"geometry":{"type":"Point","coordinates":[120.2947955730001,23.106134490000045]}},{"type":"Feature","id":"sumo-18","properties":{"featureType":"pointOverlay","overlayKind":"sumo","sourceFile":"sumo_point.shp","recordIndex":18,"event_numb":18,"attempt":6,"seed":479,"rank_in_at":3,"event_time":1358.64,"analysis_t":458.64,"longitude":120.294704488,"latitude":23.1060479321,"event_clas":"side_crossing","trigger_me":"PET","trigger_va":0.78,"trigger_ty":17,"min_ttc_s":3.85,"max_drac_m":0.18,"pet_s":0.78,"ego":"car_CB.16","foe":"motorcycle_BD.36","ego_type":"car","foe_type":"motorcycle_filtering","crs_epsg":4326,"eventTime":1358.64,"minimumTtc":3.85,"maximumDrac":0.18,"pet":0.78,"severity":"normal"},"geometry":{"type":"Point","coordinates":[120.29474894900011,23.106102273000033]}},{"type":"Feature","id":"sumo-19","properties":{"featureType":"pointOverlay","overlayKind":"sumo","sourceFile":"sumo_point.shp","recordIndex":19,"event_numb":19,"attempt":7,"seed":480,"rank_in_at":1,"event_time":1004.17,"analysis_t":104.17,"longitude":120.294604528,"latitude":23.1063462927,"event_clas":"side_crossing","trigger_me":"PET","trigger_va":0.6,"trigger_ty":17,"min_ttc_s":0.0,"max_drac_m":0.0,"pet_s":0.6,"ego":"motorcycle_AC.78","foe":"motorcycle_DB.19","ego_type":"motorcycle_filtering","foe_type":"motorcycle_filtering","crs_epsg":4326,"eventTime":1004.17,"minimumTtc":0.0,"maximumDrac":0.0,"pet":0.6,"severity":"critical"},"geometry":{"type":"Point","coordinates":[120.2947598290001,23.106360592000044]}},{"type":"Feature","id":"sumo-20","properties":{"featureType":"pointOverlay","overlayKind":"sumo","sourceFile":"sumo_point.shp","recordIndex":20,"event_numb":20,"attempt":7,"seed":480,"rank_in_at":2,"event_time":1145.77,"analysis_t":245.77,"longitude":120.294741342,"latitude":23.1060569464,"event_clas":"side_crossing","trigger_me":"PET","trigger_va":0.6,"trigger_ty":17,"min_ttc_s":0.0,"max_drac_m":0.15,"pet_s":0.6,"ego":"motorcycle_BD.31","foe":"motorcycle_CA.38","ego_type":"motorcycle_filtering","foe_type":"motorcycle_filtering","crs_epsg":4326,"eventTime":1145.77,"minimumTtc":0.0,"maximumDrac":0.15,"pet":0.6,"severity":"critical"},"geometry":{"type":"Point","coordinates":[120.29478580300008,23.106111287000033]}},{"type":"Feature","id":"sumo-21","properties":{"featureType":"pointOverlay","overlayKind":"sumo","sourceFile":"sumo_point.shp","recordIndex":21,"event_numb":21,"attempt":7,"seed":480,"rank_in_at":3,"event_time":1703.35,"analysis_t":803.35,"longitude":120.294628676,"latitude":23.1063581398,"event_clas":"side_crossing","trigger_me":"PET","trigger_va":0.65,"trigger_ty":17,"min_ttc_s":0.0,"max_drac_m":0.25,"pet_s":0.65,"ego":"motorcycle_AC.123","foe":"motorcycle_DB.31","ego_type":"motorcycle_filtering","foe_type":"motorcycle_filtering","crs_epsg":4326,"eventTime":1703.35,"minimumTtc":0.0,"maximumDrac":0.25,"pet":0.65,"severity":"critical"},"geometry":{"type":"Point","coordinates":[120.29478397700007,23.10637243900004]}},{"type":"Feature","id":"sumo-22","properties":{"featureType":"pointOverlay","overlayKind":"sumo","sourceFile":"sumo_point.shp","recordIndex":22,"event_numb":22,"attempt":8,"seed":481,"rank_in_at":1,"event_time":907.8,"analysis_t":7.8,"longitude":120.294692933,"latitude":23.1061856804,"event_clas":"side_crossing","trigger_me":"TTC","trigger_va":1.15,"trigger_ty":11,"min_ttc_s":1.15,"max_drac_m":3.09,"pet_s":1.08,"ego":"car_DC.4","foe":"motorcycle_BD.23","ego_type":"car","foe_type":"motorcycle_filtering","crs_epsg":4326,"eventTime":907.8,"minimumTtc":1.15,"maximumDrac":3.09,"pet":1.08,"severity":"critical"},"geometry":{"type":"Point","coordinates":[120.29466625700002,23.10628537100007]}},{"type":"Feature","id":"sumo-23","properties":{"featureType":"pointOverlay","overlayKind":"sumo","sourceFile":"sumo_point.shp","recordIndex":23,"event_numb":23,"attempt":8,"seed":481,"rank_in_at":2,"event_time":1014.03,"analysis_t":114.03,"longitude":120.294629066,"latitude":23.1063208471,"event_clas":"side_crossing","trigger_me":"PET","trigger_va":0.94,"trigger_ty":17,"min_ttc_s":1.84,"max_drac_m":0.79,"pet_s":0.94,"ego":"car_AC.25","foe":"car_DB.17","ego_type":"car","foe_type":"car","crs_epsg":4326,"eventTime":1014.03,"minimumTtc":1.84,"maximumDrac":0.79,"pet":0.94,"severity":"warning"},"geometry":{"type":"Point","coordinates":[120.29478436700003,23.10633514600005]}},{"type":"Feature","id":"sumo-24","properties":{"featureType":"pointOverlay","overlayKind":"sumo","sourceFile":"sumo_point.shp","recordIndex":24,"event_numb":24,"attempt":8,"seed":481,"rank_in_at":3,"event_time":1071.88,"analysis_t":171.88,"longitude":120.294741146,"latitude":23.1060569455,"event_clas":"side_crossing","trigger_me":"PET","trigger_va":0.8,"trigger_ty":17,"min_ttc_s":0.0,"max_drac_m":0.0,"pet_s":0.8,"ego":"motorcycle_BD.29","foe":"motorcycle_CA.42","ego_type":"motorcycle_filtering","foe_type":"motorcycle_filtering","crs_epsg":4326,"eventTime":1071.88,"minimumTtc":0.0,"maximumDrac":0.0,"pet":0.8,"severity":"critical"},"geometry":{"type":"Point","coordinates":[120.29478560700011,23.106111286000043]}},{"type":"Feature","id":"sumo-25","properties":{"featureType":"pointOverlay","overlayKind":"sumo","sourceFile":"sumo_point.shp","recordIndex":25,"event_numb":25,"attempt":9,"seed":482,"rank_in_at":1,"event_time":951.37,"analysis_t":51.37,"longitude":120.294603921,"latitude":23.1063317515,"event_clas":"side_crossing","trigger_me":"PET","trigger_va":0.83,"trigger_ty":17,"min_ttc_s":0.0,"max_drac_m":0.0,"pet_s":0.83,"ego":"motorcycle_AC.73","foe":"motorcycle_DB.10","ego_type":"motorcycle_filtering","foe_type":"motorcycle_filtering","crs_epsg":4326,"eventTime":951.37,"minimumTtc":0.0,"maximumDrac":0.0,"pet":0.83,"severity":"critical"},"geometry":{"type":"Point","coordinates":[120.29475922200004,23.10634605000007]}},{"type":"Feature","id":"sumo-26","properties":{"featureType":"pointOverlay","overlayKind":"sumo","sourceFile":"sumo_point.shp","recordIndex":26,"event_numb":26,"attempt":9,"seed":482,"rank_in_at":2,"event_time":956.13,"analysis_t":56.13,"longitude":120.294602303,"latitude":23.1063424901,"event_clas":"side_crossing","trigger_me":"PET","trigger_va":0.7,"trigger_ty":17,"min_ttc_s":0.0,"max_drac_m":0.0,"pet_s":0.7,"ego":"motorcycle_AC.74","foe":"motorcycle_DB.11","ego_type":"motorcycle_filtering","foe_type":"motorcycle_filtering","crs_epsg":4326,"eventTime":956.13,"minimumTtc":0.0,"maximumDrac":0.0,"pet":0.7,"severity":"critical"},"geometry":{"type":"Point","coordinates":[120.2947576040001,23.106356789000074]}},{"type":"Feature","id":"sumo-27","properties":{"featureType":"pointOverlay","overlayKind":"sumo","sourceFile":"sumo_point.shp","recordIndex":27,"event_numb":27,"attempt":9,"seed":482,"rank_in_at":3,"event_time":1006.31,"analysis_t":106.31,"longitude":120.294741725,"latitude":23.1060583026,"event_clas":"side_crossing","trigger_me":"PET","trigger_va":0.63,"trigger_ty":17,"min_ttc_s":0.0,"max_drac_m":0.0,"pet_s":0.63,"ego":"motorcycle_BD.23","foe":"motorcycle_CA.36","ego_type":"motorcycle_filtering","foe_type":"motorcycle_filtering","crs_epsg":4326,"eventTime":1006.31,"minimumTtc":0.0,"maximumDrac":0.0,"pet":0.63,"severity":"critical"},"geometry":{"type":"Point","coordinates":[120.29478618600001,23.106112644000063]}},{"type":"Feature","id":"sumo-28","properties":{"featureType":"pointOverlay","overlayKind":"sumo","sourceFile":"sumo_point.shp","recordIndex":28,"event_numb":28,"attempt":10,"seed":483,"rank_in_at":1,"event_time":1067.4,"analysis_t":167.4,"longitude":120.294622564,"latitude":23.1060519005,"event_clas":"side_crossing","trigger_me":"DRAC","trigger_va":3.25,"trigger_ty":10,"min_ttc_s":0.0,"max_drac_m":3.25,"pet_s":0.0,"ego":"car_BD.22","foe":"motorcycle_AC.74","ego_type":"car","foe_type":"motorcycle_filtering","crs_epsg":4326,"eventTime":1067.4,"minimumTtc":0.0,"maximumDrac":3.25,"pet":0.0,"severity":"critical"},"geometry":{"type":"Point","coordinates":[120.2946322040001,23.106319447000033]}},{"type":"Feature","id":"sumo-29","properties":{"featureType":"pointOverlay","overlayKind":"sumo","sourceFile":"sumo_point.shp","recordIndex":29,"event_numb":29,"attempt":10,"seed":483,"rank_in_at":2,"event_time":1122.53,"analysis_t":222.53,"longitude":120.294748897,"latitude":23.1060683581,"event_clas":"side_crossing","trigger_me":"PET","trigger_va":0.74,"trigger_ty":17,"min_ttc_s":0.0,"max_drac_m":0.0,"pet_s":0.74,"ego":"car_BD.23","foe":"motorcycle_CA.30","ego_type":"car","foe_type":"motorcycle_filtering","crs_epsg":4326,"eventTime":1122.53,"minimumTtc":0.0,"maximumDrac":0.0,"pet":0.74,"severity":"critical"},"geometry":{"type":"Point","coordinates":[120.29479108200007,23.106134650000058]}},{"type":"Feature","id":"sumo-30","properties":{"featureType":"pointOverlay","overlayKind":"sumo","sourceFile":"sumo_point.shp","recordIndex":30,"event_numb":30,"attempt":10,"seed":483,"rank_in_at":3,"event_time":1125.5,"analysis_t":225.5,"longitude":120.294769268,"latitude":23.1063734872,"event_clas":"side_crossing","trigger_me":"DRAC","trigger_va":3.26,"trigger_ty":11,"min_ttc_s":7.15,"max_drac_m":3.26,"pet_s":0.0,"ego":"motorcycle_CA.30","foe":"motorcycle_DB.14","ego_type":"motorcycle_filtering","foe_type":"motorcycle_filtering","crs_epsg":4326,"eventTime":1125.5,"minimumTtc":7.15,"maximumDrac":3.26,"pet":0.0,"severity":"normal"},"geometry":{"type":"Point","coordinates":[120.29481372900011,23.10642782800005]}}]}
